zip,primary_city,state,county,timezone,latitude,longitude
95129,San Jose,CA,Santa Clara County,America/Los_Angeles,37.3,-122
11224,Brooklyn,NY,Kings County,America/New_York,40.64,-73.94
53075,Random Lake,WI,Sheboygan County,America/Chicago,43.55,-87.95
55902,Rochester,MN,Olmsted County,America/Chicago,44.01,-92.47
32771,Sanford,FL,Seminole County,America/New_York,28.78,-81.27
60187,Wheaton,IL,Dupage County,America/Chicago,41.85,-88.1
91325,Northridge,CA,Los Angeles County,America/Los_Angeles,34.23,-118.51
55112,Saint Paul,MN,Ramsey County,America/Chicago,44.94,-93.1
46803,Fort Wayne,IN,Allen County,America/Indiana/Indianapolis,41.07,-85.13
96813,Honolulu,HI,Honolulu County,Pacific/Honolulu,21.3,-157.85
96817,Honolulu,HI,Honolulu County,Pacific/Honolulu,21.3,-157.85
89118,Las Vegas,NV,Clark County,America/Los_Angeles,36.07,-115.21
75058,Gunter,TX,Grayson County,America/Chicago,33.45,-96.74
95062,Santa Cruz,CA,Santa Cruz County,America/Los_Angeles,36.97,-121.98
53719,Madison,WI,Dane County,America/Chicago,43.07,-89.38
59802,Missoula,MT,Missoula County,America/Denver,46.94,-113.85
71202,Monroe,LA,Ouachita Parish,America/Chicago,32.51,-92.08
91103,Pasadena,CA,Los Angeles County,America/Los_Angeles,34.17,-118.17
36117,Montgomery,AL,Montgomery County,America/Chicago,32.35,-86.28
73114,Oklahoma City,OK,Oklahoma County,America/Chicago,35.46,-97.51
70605,Lake Charles,LA,Calcasieu Parish,America/Chicago,30.21,-93.2
92673,San Clemente,CA,Orange County,America/Los_Angeles,33.48,-117.61
92694,Ladera Ranch,CA,Orange County,America/Los_Angeles,33.56,-117.63
60523,Oak Brook,IL,Dupage County,America/Chicago,41.83,-87.95
33126,Miami,FL,Miami-Dade County,America/New_York,25.77,-80.29
20036,Washington,DC,District of Columbia,America/New_York,38.89,-77.03
99352,Richland,WA,Benton County,America/Los_Angeles,46.32,-119.32
40509,Lexington,KY,Fayette County,America/Kentucky/Louisville,38.04,-84.45
15146,Monroeville,PA,Allegheny County,America/New_York,40.42,-79.76
95823,Sacramento,CA,Sacramento County,America/Los_Angeles,38.47,-121.44
78552,Harlingen,TX,Cameron County,America/Chicago,26.19,-97.68
60653,Chicago,IL,Cook County,America/Chicago,41.83,-87.68
31093,Warner Robins,GA,Houston County,America/New_York,32.61,-83.63
60611,Chicago,IL,Cook County,America/Chicago,41.83,-87.68
60614,Chicago,IL,Cook County,America/Chicago,41.83,-87.68
85298,Gilbert,AZ,Maricopa County,America/Phoenix,33.24,-111.7
65804,Springfield,MO,Greene County,America/Chicago,37.19,-93.28
79323,Denver City,TX,Yoakum County,America/Chicago,32.96,-102.83
78666,San Marcos,TX,Hays County,America/Chicago,29.88,-97.92
10022,New York,NY,New York County,America/New_York,40.71,-73.99
48150,Livonia,MI,Wayne County,America/Detroit,42.39,-83.37
33063,Pompano Beach,FL,Broward County,America/New_York,26.23,-80.13
35124,Pelham,AL,Shelby County,America/Chicago,33.3,-86.79
20743,Capitol Heights,MD,Prince George's County,America/New_York,38.87,-76.9
10018,New York,NY,New York County,America/New_York,40.71,-73.99
32962,Vero Beach,FL,Indian River County,America/New_York,27.64,-80.39
63130,Saint Louis,MO,St Louis County,America/Chicago,38.63,-90.24
73448,Marietta,OK,Love County,America/Chicago,33.93,-97.12
33605,Tampa,FL,Hillsborough County,America/New_York,27.95,-82.48
98006,Bellevue,WA,King County,America/Los_Angeles,47.55,-122.14
95014,Cupertino,CA,Santa Clara County,America/Los_Angeles,37.3,-122.09
21122,Pasadena,MD,Anne Arundel County,America/New_York,39.11,-76.55
98005,Bellevue,WA,King County,America/Los_Angeles,47.62,-122.16
27834,Greenville,NC,Pitt County,America/New_York,35.59,-77.37
56301,Saint Cloud,MN,Stearns County,America/Chicago,45.55,-94.17
33803,Lakeland,FL,Polk County,America/New_York,28.04,-81.96
74429,Coweta,OK,Wagoner County,America/Chicago,35.96,-95.66
75672,Marshall,TX,Harrison County,America/Chicago,32.53,-94.35
28590,Winterville,NC,Pitt County,America/New_York,35.52,-77.39
30324,Atlanta,GA,Fulton County,America/New_York,33.81,-84.36
77060,Houston,TX,Harris County,America/Chicago,29.76,-95.38
23237,Richmond,VA,Chesterfield County,America/New_York,37.55,-77.46
74403,Muskogee,OK,Muskogee County,America/Chicago,35.74,-95.35
23434,Suffolk,VA,Suffolk City,America/New_York,36.7,-76.63
90265,Malibu,CA,Los Angeles County,America/Los_Angeles,34.06,-118.81
19135,Philadelphia,PA,Philadelphia County,America/New_York,39.95,-75.16
32343,Midway,FL,Gadsden County,America/New_York,30.49,-84.46
90049,Los Angeles,CA,Los Angeles County,America/Los_Angeles,34.08,-118.49
26554,Fairmont,WV,Marion County,America/New_York,39.48,-80.14
11201,Brooklyn,NY,Kings County,America/New_York,40.64,-73.94
12401,Kingston,NY,Ulster County,America/New_York,41.93,-73.99
90064,Los Angeles,CA,Los Angeles County,America/Los_Angeles,34.03,-118.43
75225,Dallas,TX,Dallas County,America/Chicago,32.79,-96.76
10012,New York,NY,New York County,America/New_York,40.71,-73.99
43537,Maumee,OH,Lucas County,America/New_York,41.57,-83.65
77036,Houston,TX,Harris County,America/Chicago,29.76,-95.38
32408,Panama City,FL,Bay County,America/Chicago,30.17,-85.67
78232,San Antonio,TX,Bexar County,America/Chicago,29.45,-98.5
10014,New York,NY,New York County,America/New_York,40.71,-73.99
15206,Pittsburgh,PA,Allegheny County,America/New_York,40.43,-79.97
11377,Woodside,NY,Queens County,America/New_York,40.74,-73.9
33431,Boca Raton,FL,Palm Beach County,America/New_York,26.37,-80.1
76180,North Richland Hills,TX,Tarrant County,America/Chicago,32.86,-97.21
33186,Miami,FL,Miami-Dade County,America/New_York,25.77,-80.2
84047,Midvale,UT,Salt Lake County,America/Denver,40.6,-111.88
20005,Washington,DC,District of Columbia,America/New_York,38.89,-77.03
55337,Burnsville,MN,Dakota County,America/Chicago,44.76,-93.27
73112,Oklahoma City,OK,Oklahoma County,America/Chicago,35.46,-97.51
19341,Exton,PA,Chester County,America/New_York,40.03,-75.63
72704,Fayetteville,AR,Washington County,America/Chicago,36.07,-94.15
36607,Mobile,AL,Mobile County,America/Chicago,30.68,-88.04
77043,Houston,TX,Harris County,America/Chicago,29.76,-95.38
85225,Chandler,AZ,Maricopa County,America/Phoenix,33.32,-111.82
11214,Brooklyn,NY,Kings County,America/New_York,40.64,-73.94
34243,Sarasota,FL,Manatee County,America/New_York,27.33,-82.54
85016,Phoenix,AZ,Maricopa County,America/Phoenix,33.5,-112.02
92880,Corona,CA,Riverside County,America/Los_Angeles,33.9,-117.61
92126,San Diego,CA,San Diego County,America/Los_Angeles,32.88,-117.13
80221,Denver,CO,Adams County,America/Denver,39.76,-104.87
66220,Lenexa,KS,Johnson County,America/Chicago,38.9,-94.68
75261,Dallas,TX,Tarrant County,America/Chicago,32.79,-96.76
33139,Miami Beach,FL,Miami-Dade County,America/New_York,25.77,-80.2
51111,Sioux City,IA,Woodbury County,America/Chicago,42.5,-96.39
54166,Shawano,WI,Shawano County,America/Chicago,44.77,-88.58
77084,Houston,TX,Harris County,America/Chicago,29.76,-95.38
31401,Savannah,GA,Chatham County,America/New_York,32.08,-81.1
48226,Detroit,MI,Wayne County,America/Detroit,42.38,-83.1
30067,Marietta,GA,Cobb County,America/New_York,33.95,-84.54
55407,Minneapolis,MN,Hennepin County,America/Chicago,44.96,-93.26
14225,Buffalo,NY,Erie County,America/New_York,42.88,-78.85
94558,Napa,CA,Napa County,America/Los_Angeles,38.55,-122.15
32250,Jacksonville Beach,FL,Duval County,America/New_York,30.29,-81.39
92691,Mission Viejo,CA,Orange County,America/Los_Angeles,33.6,-117.66
77581,Pearland,TX,Brazoria County,America/Chicago,29.55,-95.27
95742,Rancho Cordova,CA,Sacramento County,America/Los_Angeles,38.57,-121.17
85282,Tempe,AZ,Maricopa County,America/Phoenix,33.4,-111.92
73034,Edmond,OK,Oklahoma County,America/Chicago,35.67,-97.41
90670,Santa Fe Springs,CA,Los Angeles County,America/Los_Angeles,33.92,-118.06
10007,New York,NY,New York County,America/New_York,40.71,-73.99
47713,Evansville,IN,Vanderburgh County,America/Indiana/Indianapolis,37.98,-87.54
35210,Birmingham,AL,Jefferson County,America/Chicago,33.52,-86.79
14203,Buffalo,NY,Erie County,America/New_York,42.88,-78.85
81630,De Beque,CO,Garfield County,America/Denver,39.33,-108.21
27607,Raleigh,NC,Wake County,America/New_York,35.82,-78.65
72204,Little Rock,AR,Pulaski County,America/Chicago,34.72,-92.35
94596,Walnut Creek,CA,Contra Costa County,America/Los_Angeles,37.89,-122.03
10005,New York,NY,New York County,America/New_York,40.71,-73.99
44146,Bedford,OH,Cuyahoga County,America/New_York,41.39,-81.53
68111,Omaha,NE,Douglas County,America/Chicago,41.26,-96.01
11735,Farmingdale,NY,Nassau County,America/New_York,40.73,-73.44
94965,Sausalito,CA,Marin County,America/Los_Angeles,37.84,-122.53
55104,Saint Paul,MN,Ramsey County,America/Chicago,44.94,-93.1
43213,Columbus,OH,Franklin County,America/New_York,39.98,-82.98
76084,Venus,TX,Johnson County,,32.42,-97.1
39180,Vicksburg,MS,Warren County,America/Chicago,32.32,-90.87
87106,Albuquerque,NM,Bernalillo County,America/Denver,35.11,-106.62
32405,Panama City,FL,Bay County,America/Chicago,30.17,-85.67
60060,Mundelein,IL,Lake County,America/Chicago,42.26,-88
61362,Spring Valley,IL,Bureau County,America/Chicago,41.32,-89.19
64014,Blue Springs,MO,Jackson County,America/Chicago,39.01,-94.28
89119,Las Vegas,NV,Clark County,America/Los_Angeles,36.08,-115.14
17557,New Holland,PA,Lancaster County,America/New_York,40.1,-76.09
58503,Bismarck,ND,Burleigh County,America/Chicago,46.91,-100.75
66210,Overland Park,KS,Johnson County,America/Chicago,38.9,-94.68
94903,San Rafael,CA,Marin County,America/Los_Angeles,38.02,-122.54
89032,North Las Vegas,NV,Clark County,America/Los_Angeles,36.22,-115.16
30303,Atlanta,GA,Fulton County,America/New_York,33.75,-84.39
90010,Los Angeles,CA,Los Angeles County,America/Los_Angeles,34.06,-118.31
10013,New York,NY,New York County,America/New_York,40.71,-73.99
10308,Staten Island,NY,Richmond County,America/New_York,40.58,-74.14
11746,Huntington Station,NY,Suffolk County,America/New_York,40.84,-73.4
33181,Miami,FL,Miami-Dade County,America/New_York,25.77,-80.2
32801,Orlando,FL,Orange County,America/New_York,28.5,-81.37
90069,West Hollywood,CA,Los Angeles County,America/Los_Angeles,34.09,-118.38
95368,Salida,CA,Stanislaus County,America/Los_Angeles,37.71,-121.09
19301,Paoli,PA,Chester County,America/New_York,40.04,-75.49
63134,Saint Louis,MO,St Louis County,America/Chicago,38.63,-90.24
94102,San Francisco,CA,San Francisco County,America/Los_Angeles,37.77,-122.41
78572,Mission,TX,Hidalgo County,America/Chicago,26.21,-98.31
92123,San Diego,CA,San Diego County,America/Los_Angeles,32.8,-117.13
33040,Key West,FL,Monroe County,America/New_York,24.55,-81.78
97204,Portland,OR,Multnomah County,America/Los_Angeles,45.51,-122.67
13624,Clayton,NY,Jefferson County,America/New_York,44.23,-76.08
10075,New York,NY,New York County,America/New_York,40.77,-73.95
33477,Jupiter,FL,Palm Beach County,America/New_York,26.92,-80.1
94124,San Francisco,CA,San Francisco County,America/Los_Angeles,37.73,-122.38
77002,Houston,TX,Harris County,America/Chicago,29.76,-95.38
32204,Jacksonville,FL,Duval County,America/New_York,30.33,-81.65
97209,Portland,OR,Multnomah County,America/Los_Angeles,45.53,-122.68
20001,Washington,DC,District of Columbia,America/New_York,38.89,-77.03
90403,Santa Monica,CA,Los Angeles County,America/Los_Angeles,34.03,-118.49
87501,Santa Fe,NM,Santa Fe County,America/Denver,35.67,-105.95
60607,Chicago,IL,Cook County,America/Chicago,41.83,-87.68
10467,Bronx,NY,Bronx County,America/New_York,40.84,-73.87
13669,Ogdensburg,NY,St Lawrence County,America/New_York,44.7,-75.47
34652,New Port Richey,FL,Pasco County,America/New_York,28.24,-82.71
19801,Wilmington,DE,New Castle County,America/New_York,39.73,-75.53
92108,San Diego,CA,San Diego County,America/Los_Angeles,32.77,-117.1
52501,Ottumwa,IA,Wapello County,America/Chicago,41.01,-92.41
95020,Gilroy,CA,Santa Clara County,America/Los_Angeles,37.06,-121.55
28273,Charlotte,NC,Mecklenburg County,America/New_York,35.19,-80.83
46601,South Bend,IN,St Joseph County,America/Indiana/Indianapolis,41.67,-86.26
19940,Delmar,DE,Sussex County,America/New_York,38.46,-75.57
46574,Walkerton,IN,St Joseph County,,41.46,-86.48
71225,Calhoun,LA,Ouachita Parish,America/Chicago,32.5,-92.34
91801,Alhambra,CA,Los Angeles County,America/Los_Angeles,34.09,-118.13
98101,Seattle,WA,King County,America/Los_Angeles,47.61,-122.33
91301,Agoura Hills,CA,Los Angeles County,America/Los_Angeles,34.12,-118.76
10036,New York,NY,New York County,America/New_York,40.71,-73.99
44045,Grand River,OH,Lake County,America/New_York,41.74,-81.28
88241,Hobbs,NM,Lea County,America/Denver,32.73,-103.16
90210,Beverly Hills,CA,Los Angeles County,America/Los_Angeles,34.09,-118.41
57103,Sioux Falls,SD,Minnehaha County,America/Chicago,43.54,-96.73
54016,Hudson,WI,St Croix County,America/Chicago,44.97,-92.73
10019,New York,NY,New York County,America/New_York,40.71,-73.99
33131,Miami,FL,Miami-Dade County,America/New_York,25.77,-80.2
11218,Brooklyn,NY,Kings County,America/New_York,40.64,-73.94
77080,Houston,TX,Harris County,America/Chicago,29.76,-95.38
11375,Forest Hills,NY,Queens County,America/New_York,40.72,-73.84
98664,Vancouver,WA,Clark County,America/Los_Angeles,45.62,-122.57
90035,Los Angeles,CA,Los Angeles County,America/Los_Angeles,34.05,-118.38
12883,Ticonderoga,NY,Essex County,America/New_York,43.84,-73.42
46037,Fishers,IN,Hamilton County,America/Indiana/Indianapolis,39.96,-85.94
43082,Westerville,OH,Delaware County,America/New_York,40.12,-82.91
28594,Emerald Isle,NC,Carteret County,America/New_York,34.66,-77.02
77584,Pearland,TX,Brazoria County,America/Chicago,29.55,-95.27
27615,Raleigh,NC,Wake County,America/New_York,35.82,-78.65
60654,Chicago,IL,Cook County,America/Chicago,41.83,-87.68
78759,Austin,TX,Travis County,America/Chicago,30.26,-97.74
30075,Roswell,GA,Fulton County,America/New_York,34.03,-84.35
11050,Port Washington,NY,Nassau County,America/New_York,40.82,-73.68
19087,Wayne,PA,Chester County,America/New_York,40.06,-75.4
19426,Collegeville,PA,Montgomery County,America/New_York,40.18,-75.45
92630,Lake Forest,CA,Orange County,America/Los_Angeles,33.64,-117.67
11576,Roslyn,NY,Nassau County,America/New_York,40.79,-73.64
75708,Tyler,TX,Smith County,America/Chicago,32.32,-95.3
60660,Chicago,IL,Cook County,America/Chicago,41.83,-87.68
77007,Houston,TX,Harris County,America/Chicago,29.76,-95.38
10703,Yonkers,NY,Westchester County,America/New_York,40.94,-73.86
80202,Denver,CO,Denver County,America/Denver,39.76,-104.87
14094,Lockport,NY,Niagara County,America/New_York,43.16,-78.69
80239,Denver,CO,Denver County,America/Denver,39.76,-104.87
63017,Chesterfield,MO,St Louis County,America/Chicago,38.65,-90.58
89448,Zephyr Cove,NV,Douglas County,America/Los_Angeles,38.99,-119.92
11249,Brooklyn,NY,Kings County,America/New_York,40.64,-73.94
66061,Olathe,KS,Johnson County,America/Chicago,38.88,-94.81
80222,Denver,CO,Arapahoe County,America/Denver,39.76,-104.87
33432,Boca Raton,FL,Palm Beach County,America/New_York,26.37,-80.1
55405,Minneapolis,MN,Hennepin County,America/Chicago,44.96,-93.26
77063,Houston,TX,Harris County,America/Chicago,29.76,-95.38
14456,Geneva,NY,Ontario County,America/New_York,42.86,-76.98
60631,Chicago,IL,Cook County,America/Chicago,41.83,-87.68
33127,Miami,FL,Miami-Dade County,America/New_York,25.77,-80.2
11741,Holbrook,NY,Suffolk County,America/New_York,40.79,-73.07
10003,New York,NY,New York County,America/New_York,40.71,-73.99
10025,New York,NY,New York County,America/New_York,40.71,-73.99
29406,Charleston,SC,Charleston County,America/New_York,32.78,-79.99
90401,Santa Monica,CA,Los Angeles County,America/Los_Angeles,34.01,-118.49
22314,Alexandria,VA,Alexandria City,America/New_York,38.82,-77.08
98133,Seattle,WA,King County,America/Los_Angeles,47.73,-122.34
33325,Fort Lauderdale,FL,Broward County,America/New_York,26.14,-80.13
86001,Flagstaff,AZ,Coconino County,America/Phoenix,35.23,-111.72
11561,Long Beach,NY,Nassau County,America/New_York,40.58,-73.65
77055,Houston,TX,Harris County,America/Chicago,29.76,-95.38
80232,Denver,CO,Jefferson County,America/Denver,39.76,-104.87
22301,Alexandria,VA,Alexandria City,America/New_York,38.82,-77.08
10011,New York,NY,New York County,America/New_York,40.71,-73.99
21403,Annapolis,MD,Anne Arundel County,America/New_York,38.97,-76.5
91302,Calabasas,CA,Los Angeles County,America/Los_Angeles,34.11,-118.67
10001,New York,NY,New York County,America/New_York,40.71,-73.99
75063,Irving,TX,Dallas County,America/Chicago,32.85,-96.96
74012,Broken Arrow,OK,Tulsa County,America/Chicago,36.03,-95.78
95661,Roseville,CA,Placer County,America/Los_Angeles,38.74,-121.25
46992,Wabash,IN,Wabash County,America/Indiana/Indianapolis,40.79,-85.82
53220,Milwaukee,WI,Milwaukee County,America/Chicago,43.06,-87.96
80120,Littleton,CO,Arapahoe County,America/Denver,39.59,-105.01
43229,Columbus,OH,Franklin County,America/New_York,39.98,-82.98
85027,Phoenix,AZ,Maricopa County,America/Phoenix,33.72,-112.08
91367,Woodland Hills,CA,Los Angeles County,America/Los_Angeles,34.17,-118.61
33334,Fort Lauderdale,FL,Broward County,America/New_York,26.14,-80.13
55101,Saint Paul,MN,Ramsey County,America/Chicago,44.94,-93.1
11222,Brooklyn,NY,Kings County,America/New_York,40.64,-73.94
11520,Freeport,NY,Nassau County,America/New_York,40.65,-73.58
92618,Irvine,CA,Orange County,America/Los_Angeles,33.67,-117.73
30318,Atlanta,GA,Fulton County,America/New_York,33.78,-84.44
90211,Beverly Hills,CA,Los Angeles County,America/Los_Angeles,34.06,-118.38
11101,Long Island City,NY,Queens County,America/New_York,40.74,-73.93
10010,New York,NY,New York County,America/New_York,40.71,-73.99
94534,Fairfield,CA,Solano County,America/Los_Angeles,38.23,-122.12
13088,Liverpool,NY,Onondaga County,America/New_York,43.1,-76.21
93721,Fresno,CA,Fresno County,America/Los_Angeles,36.73,-119.78
10023,New York,NY,New York County,America/New_York,40.71,-73.99
46032,Carmel,IN,Hamilton County,America/Indiana/Indianapolis,39.96,-86.1
13208,Syracuse,NY,Onondaga County,America/New_York,43.04,-76.14
49544,Grand Rapids,MI,Kent County,America/Detroit,42.96,-85.65
77024,Houston,TX,Harris County,America/Chicago,29.76,-95.38
43201,Columbus,OH,Franklin County,America/New_York,39.98,-82.98
91423,Sherman Oaks,CA,Los Angeles County,America/Los_Angeles,34.14,-118.42
75229,Dallas,TX,Dallas County,America/Chicago,32.79,-96.76
20895,Kensington,MD,Montgomery County,America/New_York,39.02,-77.07
78230,San Antonio,TX,Bexar County,America/Chicago,29.45,-98.5
18014,Bath,PA,Northampton County,America/New_York,40.72,-75.39
98926,Ellensburg,WA,Kittitas County,America/Los_Angeles,46.97,-120.47
15642,Irwin,PA,Westmoreland County,America/New_York,40.32,-79.69
11419,South Richmond Hill,NY,Queens County,America/New_York,40.68,-73.82
14150,Tonawanda,NY,Erie County,America/New_York,43,-78.87
94105,San Francisco,CA,San Francisco County,America/Los_Angeles,37.78,-122.39
19103,Philadelphia,PA,Philadelphia County,America/New_York,39.95,-75.16
62040,Granite City,IL,Madison County,America/Chicago,38.71,-90.12
81001,Pueblo,CO,Pueblo County,America/Denver,38.27,-104.62
33137,Miami,FL,Miami-Dade County,America/New_York,25.77,-80.2
77008,Houston,TX,Harris County,America/Chicago,29.76,-95.38
90046,Los Angeles,CA,Los Angeles County,America/Los_Angeles,34.1,-118.37
33417,West Palm Beach,FL,Palm Beach County,America/New_York,26.74,-80.12
78704,Austin,TX,Travis County,America/Chicago,30.26,-97.74
55401,Minneapolis,MN,Hennepin County,America/Chicago,44.96,-93.26
11217,Brooklyn,NY,Kings County,America/New_York,40.64,-73.94
12853,North Creek,NY,Warren County,America/New_York,43.69,-73.98
37203,Nashville,TN,Davidson County,America/Chicago,36.17,-86.78
94103,San Francisco,CA,San Francisco County,America/Los_Angeles,37.77,-122.41
11510,Baldwin,NY,Nassau County,America/New_York,40.66,-73.61
17055,Mechanicsburg,PA,Cumberland County,America/New_York,40.21,-77
60091,Wilmette,IL,Cook County,America/Chicago,42.07,-87.72
91604,Studio City,CA,Los Angeles County,America/Los_Angeles,34.13,-118.39
92801,Anaheim,CA,Orange County,America/Los_Angeles,33.84,-117.95
92707,Santa Ana,CA,Orange County,America/Los_Angeles,33.71,-117.87
14226,Buffalo,NY,Erie County,America/New_York,42.88,-78.85
44116,Rocky River,OH,Cuyahoga County,America/New_York,41.47,-81.85
33408,North Palm Beach,FL,Palm Beach County,America/New_York,26.81,-80.08
17070,New Cumberland,PA,York County,America/New_York,40.23,-76.87
29067,Kershaw,SC,Lancaster County,America/New_York,34.54,-80.58
11216,Brooklyn,NY,Kings County,America/New_York,40.64,-73.94
70130,New Orleans,LA,Orleans Parish,America/Chicago,30.06,-89.93
77077,Houston,TX,Harris County,America/Chicago,29.76,-95.38
90250,Hawthorne,CA,Los Angeles County,America/Los_Angeles,33.91,-118.34
10026,New York,NY,New York County,America/New_York,40.71,-73.99
80016,Aurora,CO,Arapahoe County,America/Denver,39.69,-104.81
77086,Houston,TX,Harris County,America/Chicago,29.76,-95.38
45365,Sidney,OH,Shelby County,America/New_York,40.28,-84.16
32619,Bell,FL,Gilchrist County,America/New_York,29.75,-82.86
48104,Ann Arbor,MI,Washtenaw County,America/Detroit,42.27,-83.73
23510,Norfolk,VA,Norfolk City,America/New_York,36.84,-76.28
33134,Miami,FL,Miami-Dade County,America/New_York,25.77,-80.2
60642,Chicago,IL,Cook County,America/Chicago,41.9,-87.65
10466,Bronx,NY,Bronx County,America/New_York,40.84,-73.87
49503,Grand Rapids,MI,Kent County,America/Detroit,42.96,-85.65
92626,Costa Mesa,CA,Orange County,America/Los_Angeles,33.67,-117.9
85395,Goodyear,AZ,Maricopa County,America/Phoenix,33.47,-112.39
49032,Centreville,MI,St Joseph County,America/Detroit,41.92,-85.52
31901,Columbus,GA,Muscogee County,America/New_York,32.51,-84.87
28786,Waynesville,NC,Haywood County,America/New_York,35.48,-82.99
32819,Orlando,FL,Orange County,America/New_York,28.5,-81.37
22042,Falls Church,VA,Fairfax County,America/New_York,38.88,-77.17
45371,Tipp City,OH,Miami County,America/New_York,39.96,-84.18
91352,Sun Valley,CA,Los Angeles County,America/Los_Angeles,34.23,-118.34
23454,Virginia Beach,VA,Virginia Beach City,America/New_York,36.73,-76.04
74135,Tulsa,OK,Tulsa County,America/Chicago,36.12,-95.91
75287,Dallas,TX,Collin County,America/Chicago,32.79,-96.76
24651,Tazewell,VA,Tazewell County,America/New_York,37.12,-81.51
53036,Ixonia,WI,Jefferson County,America/Chicago,43.16,-88.58
11570,Rockville Centre,NY,Nassau County,America/New_York,40.66,-73.63
75251,Dallas,TX,Dallas County,America/Chicago,32.79,-96.76
37067,Franklin,TN,Williamson County,America/Chicago,35.92,-86.84
58078,West Fargo,ND,Cass County,America/Chicago,46.87,-96.89
37204,Nashville,TN,Davidson County,America/Chicago,36.17,-86.78
30326,Atlanta,GA,Fulton County,America/New_York,33.84,-84.35
30101,Acworth,GA,Cobb County,America/New_York,34.05,-84.67
12180,Troy,NY,Rensselaer County,America/New_York,42.73,-73.67
92024,Encinitas,CA,San Diego County,America/Los_Angeles,33.05,-117.25
29401,Charleston,SC,Charleston County,America/New_York,32.78,-79.99
54615,Black River Falls,WI,Jackson County,America/Chicago,44.29,-90.84
17602,Lancaster,PA,Lancaster County,America/New_York,40.04,-76.3
21146,Severna Park,MD,Anne Arundel County,America/New_York,39.08,-76.57
80640,Henderson,CO,Adams County,America/Denver,39.92,-104.87
19147,Philadelphia,PA,Philadelphia County,America/New_York,39.95,-75.16
17603,Lancaster,PA,Lancaster County,America/New_York,40.04,-76.3
46077,Zionsville,IN,Boone County,America/Indiana/Indianapolis,39.95,-86.27
19131,Philadelphia,PA,Philadelphia County,America/New_York,39.95,-75.16
80524,Fort Collins,CO,Larimer County,America/Denver,40.55,-105.06
79761,Odessa,TX,Ector County,America/Chicago,31.85,-102.36
92843,Garden Grove,CA,Orange County,America/Los_Angeles,33.75,-117.94
30093,Norcross,GA,Gwinnett County,America/New_York,33.94,-84.2
90025,Los Angeles,CA,Los Angeles County,America/Los_Angeles,34.04,-118.44
76034,Colleyville,TX,Tarrant County,America/Chicago,32.89,-97.14
78205,San Antonio,TX,Bexar County,America/Chicago,29.45,-98.5
10591,Tarrytown,NY,Westchester County,America/New_York,41.06,-73.86
77034,Houston,TX,Harris County,America/Chicago,29.76,-95.38
37388,Tullahoma,TN,Coffee County,,35.37,-86.2
20002,Washington,DC,District of Columbia,America/New_York,38.89,-77.03
75204,Dallas,TX,Dallas County,America/Chicago,32.79,-96.76
20007,Washington,DC,District of Columbia,America/New_York,38.89,-77.03
30117,Carrollton,GA,Carroll County,America/New_York,33.58,-85.07
37211,Nashville,TN,Davidson County,America/Chicago,36.17,-86.78
45232,Cincinnati,OH,Hamilton County,America/New_York,39.09,-84.51
10472,Bronx,NY,Bronx County,America/New_York,40.84,-73.87
92840,Garden Grove,CA,Orange County,America/Los_Angeles,33.78,-117.93
95695,Woodland,CA,Yolo County,America/Los_Angeles,38.71,-121.85
44483,Warren,OH,Trumbull County,America/New_York,41.23,-80.81
94610,Oakland,CA,Alameda County,America/Los_Angeles,37.81,-122.24
10065,New York,NY,New York County,America/New_York,40.76,-73.96
60155,Broadview,IL,Cook County,America/Chicago,41.85,-87.85
11756,Levittown,NY,Nassau County,America/New_York,40.72,-73.51
20151,Chantilly,VA,Fairfax County,America/New_York,38.87,-77.4
10002,New York,NY,New York County,America/New_York,40.71,-73.99
90061,Los Angeles,CA,Los Angeles County,America/Los_Angeles,33.92,-118.27
84065,Riverton,UT,Salt Lake County,America/Denver,40.47,-112
11420,South Ozone Park,NY,Queens County,America/New_York,40.67,-73.81
48075,Southfield,MI,Oakland County,America/Detroit,42.47,-83.25
95356,Modesto,CA,Stanislaus County,America/Los_Angeles,37.72,-121.03
60622,Chicago,IL,Cook County,America/Chicago,41.83,-87.68
10305,Staten Island,NY,Richmond County,America/New_York,40.58,-74.14
95131,San Jose,CA,Santa Clara County,America/Los_Angeles,37.38,-121.9
30004,Alpharetta,GA,Fulton County,America/New_York,34.06,-84.27
95828,Sacramento,CA,Sacramento County,America/Los_Angeles,38.48,-121.4
10462,Bronx,NY,Bronx County,America/New_York,40.84,-73.87
11208,Brooklyn,NY,Kings County,America/New_York,40.64,-73.94
80903,Colorado Springs,CO,El Paso County,America/Denver,38.86,-104.76
11944,Greenport,NY,Suffolk County,America/New_York,41.1,-72.36
85284,Tempe,AZ,Maricopa County,America/Phoenix,33.33,-111.93
14043,Depew,NY,Erie County,America/New_York,42.91,-78.7
49335,Moline,MI,Allegan County,America/Detroit,42.72,-85.68
11717,Brentwood,NY,Suffolk County,America/New_York,40.78,-73.24
66213,Overland Park,KS,Johnson County,America/Chicago,38.9,-94.68
10028,New York,NY,New York County,America/New_York,40.71,-73.99
10017,New York,NY,New York County,America/New_York,40.71,-73.99
17403,York,PA,York County,America/New_York,39.96,-76.73
44114,Cleveland,OH,Cuyahoga County,America/New_York,41.47,-81.67
48047,New Baltimore,MI,Macomb County,America/Detroit,42.68,-82.73
11354,Flushing,NY,Queens County,America/New_York,40.77,-73.84
10009,New York,NY,New York County,America/New_York,40.71,-73.99
37863,Pigeon Forge,TN,Sevier County,America/New_York,35.79,-83.55
13157,Sylvan Beach,NY,Oneida County,America/New_York,43.19,-75.73
10021,New York,NY,New York County,America/New_York,40.77,-73.95
34950,Fort Pierce,FL,St Lucie County,America/New_York,27.44,-80.32
60525,La Grange,IL,Cook County,America/Chicago,41.8,-87.87
30043,Lawrenceville,GA,Gwinnett County,America/New_York,33.94,-83.99
19104,Philadelphia,PA,Philadelphia County,America/New_York,39.95,-75.16
60137,Glen Ellyn,IL,Dupage County,America/Chicago,41.86,-88.06
81067,Rocky Ford,CO,Otero County,America/Denver,38.04,-103.72
94588,Pleasanton,CA,Alameda County,America/Los_Angeles,37.67,-121.93
27030,Mount Airy,NC,Surry County,America/New_York,36.5,-80.61
98121,Seattle,WA,King County,America/Los_Angeles,47.61,-122.34
83707,Boise,ID,Ada County,America/Boise,43.66,-116.16
48823,East Lansing,MI,Ingham County,America/Detroit,42.73,-84.48
89120,Las Vegas,NV,Clark County,America/Los_Angeles,36.07,-115.08
52653,Wapello,IA,Louisa County,America/Chicago,41.17,-91.18
29403,Charleston,SC,Charleston County,America/New_York,32.78,-79.99
94118,San Francisco,CA,San Francisco County,America/Los_Angeles,37.78,-122.46
10549,Mount Kisco,NY,Westchester County,America/New_York,41.2,-73.73
10502,Ardsley,NY,Westchester County,America/New_York,41.01,-73.84
11418,Richmond Hill,NY,Queens County,America/New_York,40.69,-73.83
94111,San Francisco,CA,San Francisco County,America/Los_Angeles,37.79,-122.39
55403,Minneapolis,MN,Hennepin County,America/Chicago,44.96,-93.26
33130,Miami,FL,Miami-Dade County,America/New_York,25.77,-80.2
85204,Mesa,AZ,Maricopa County,America/Phoenix,33.39,-111.78
19001,Abington,PA,Montgomery County,America/New_York,40.12,-75.12
19107,Philadelphia,PA,Philadelphia County,America/New_York,39.95,-75.16
28803,Asheville,NC,Buncombe County,America/New_York,35.57,-82.54
28277,Charlotte,NC,Mecklenburg County,America/New_York,35.19,-80.83
28031,Cornelius,NC,Mecklenburg County,America/New_York,35.48,-80.86
28210,Charlotte,NC,Mecklenburg County,America/New_York,35.19,-80.83
29464,Mount Pleasant,SC,Charleston County,America/New_York,32.82,-79.86
30068,Marietta,GA,Cobb County,America/New_York,33.95,-84.54
22401,Fredericksburg,VA,Fredericksburg City,America/New_York,38.29,-77.48
34759,Kissimmee,FL,Polk County,America/New_York,28.08,-81.44
45202,Cincinnati,OH,Hamilton County,America/New_York,39.09,-84.51
10029,New York,NY,New York County,America/New_York,40.71,-73.99
75057,Lewisville,TX,Denton County,America/Chicago,33.04,-96.98
70360,Houma,LA,Terrebonne Parish,America/Chicago,29.57,-90.7
10456,Bronx,NY,Bronx County,America/New_York,40.84,-73.87
20009,Washington,DC,District of Columbia,America/New_York,38.89,-77.03
79936,El Paso,TX,El Paso County,America/Denver,31.84,-106.43
14209,Buffalo,NY,Erie County,America/New_York,42.88,-78.85
83001,Jackson,WY,Teton County,America/Denver,43.47,-110.76
28610,Claremont,NC,Catawba County,America/New_York,35.71,-81.15
10037,New York,NY,New York County,America/New_York,40.71,-73.99
48167,Northville,MI,Wayne County,America/Detroit,42.43,-83.48
33069,Pompano Beach,FL,Broward County,America/New_York,26.23,-80.13
33062,Pompano Beach,FL,Broward County,America/New_York,26.23,-80.13
19122,Philadelphia,PA,Philadelphia County,America/New_York,39.95,-75.16
14020,Batavia,NY,Genesee County,America/New_York,42.99,-78.18
38018,Cordova,TN,Shelby County,America/Chicago,35.15,-89.75
30344,Atlanta,GA,Fulton County,America/New_York,33.66,-84.45
91106,Pasadena,CA,Los Angeles County,America/Los_Angeles,34.13,-118.13
14618,Rochester,NY,Monroe County,America/New_York,43.16,-77.61
75701,Tyler,TX,Smith County,America/Chicago,32.32,-95.3
48846,Ionia,MI,Ionia County,America/Detroit,42.98,-85.05
10031,New York,NY,New York County,America/New_York,40.71,-73.99
91766,Pomona,CA,Los Angeles County,America/Los_Angeles,34.03,-117.75
75149,Mesquite,TX,Dallas County,America/Chicago,32.76,-96.59
19106,Philadelphia,PA,Philadelphia County,America/New_York,39.95,-75.16
11219,Brooklyn,NY,Kings County,America/New_York,40.64,-73.94
55305,Hopkins,MN,Hennepin County,America/Chicago,44.92,-93.4
12564,Pawling,NY,Dutchess County,America/New_York,41.56,-73.59
80302,Boulder,CO,Boulder County,America/Denver,40.02,-105.25
29928,Hilton Head Island,SC,Beaufort County,America/New_York,32.19,-80.74
10016,New York,NY,New York County,America/New_York,40.71,-73.99
10524,Garrison,NY,Putnam County,America/New_York,41.37,-73.92
11205,Brooklyn,NY,Kings County,America/New_York,40.64,-73.94
95324,Hilmar,CA,Merced County,America/Los_Angeles,37.39,-120.89
80504,Longmont,CO,Weld County,America/Denver,40.17,-105.11
93445,Oceano,CA,San Luis Obispo County,America/Los_Angeles,35.06,-120.6
92110,San Diego,CA,San Diego County,America/Los_Angeles,32.77,-117.18
14626,Rochester,NY,Monroe County,America/New_York,43.16,-77.61
11413,Springfield Gardens,NY,Queens County,America/New_York,40.66,-73.75
32806,Orlando,FL,Orange County,America/New_York,28.5,-81.37
33901,Fort Myers,FL,Lee County,America/New_York,26.63,-81.85
10128,New York,NY,New York County,America/New_York,40.71,-73.99
77079,Houston,TX,Harris County,America/Chicago,29.76,-95.38
28203,Charlotte,NC,Mecklenburg County,America/New_York,35.19,-80.83
19806,Wilmington,DE,New Castle County,America/New_York,39.73,-75.53
19102,Philadelphia,PA,Philadelphia County,America/New_York,39.95,-75.16
76092,Southlake,TX,Tarrant County,America/Chicago,32.95,-97.14
80538,Loveland,CO,Larimer County,America/Denver,40.41,-105.07
10926,Harriman,NY,Orange County,America/New_York,41.3,-74.14
77006,Houston,TX,Harris County,America/Chicago,29.76,-95.38
90036,Los Angeles,CA,Los Angeles County,America/Los_Angeles,34.06,-118.35
76017,Arlington,TX,Tarrant County,America/Chicago,32.69,-97.12
77042,Houston,TX,Harris County,America/Chicago,29.76,-95.38
80210,Denver,CO,Denver County,America/Denver,39.76,-104.87
12203,Albany,NY,Albany County,America/New_York,42.66,-73.79
95066,Scotts Valley,CA,Santa Cruz County,America/Los_Angeles,37.06,-122.01
77098,Houston,TX,Harris County,America/Chicago,29.76,-95.38
11030,Manhasset,NY,Nassau County,America/New_York,40.79,-73.69
19078,Ridley Park,PA,Delaware County,America/New_York,39.87,-75.32
32751,Maitland,FL,Orange County,America/New_York,28.62,-81.36
75605,Longview,TX,Gregg County,America/Chicago,32.51,-94.76
92131,San Diego,CA,San Diego County,America/Los_Angeles,32.89,-117.07
76132,Fort Worth,TX,Tarrant County,America/Chicago,32.75,-97.33
77089,Houston,TX,Harris County,America/Chicago,29.76,-95.38
13209,Syracuse,NY,Onondaga County,America/New_York,43.04,-76.14
11374,Rego Park,NY,Queens County,America/New_York,40.72,-73.86
30096,Duluth,GA,Gwinnett County,America/New_York,34,-84.15
11954,Montauk,NY,Suffolk County,America/New_York,41.04,-71.94
60008,Rolling Meadows,IL,Cook County,America/Chicago,42.07,-88.02
77087,Houston,TX,Harris County,America/Chicago,29.76,-95.38
77039,Houston,TX,Harris County,America/Chicago,29.76,-95.38
12828,Fort Edward,NY,Saratoga County,America/New_York,43.26,-73.58
10455,Bronx,NY,Bronx County,America/New_York,40.84,-73.87
73108,Oklahoma City,OK,Oklahoma County,America/Chicago,35.46,-97.51
91790,West Covina,CA,Los Angeles County,America/Los_Angeles,34.06,-117.94
74136,Tulsa,OK,Tulsa County,America/Chicago,36.12,-95.91
60007,Elk Grove Village,IL,Cook County,America/Chicago,42,-87.99
95425,Cloverdale,CA,Sonoma County,America/Los_Angeles,38.78,-122.92
99201,Spokane,WA,Spokane County,America/Los_Angeles,47.66,-117.43
99202,Spokane,WA,Spokane County,America/Los_Angeles,47.65,-117.37
90066,Los Angeles,CA,Los Angeles County,America/Los_Angeles,34,-118.43
14202,Buffalo,NY,Erie County,America/New_York,42.88,-78.85
85251,Scottsdale,AZ,Maricopa County,America/Phoenix,33.49,-111.92
32750,Longwood,FL,Seminole County,America/New_York,28.7,-81.34
94612,Oakland,CA,Alameda County,America/Los_Angeles,37.8,-122.27
75114,Crandall,TX,Kaufman County,America/Chicago,32.63,-96.45
90405,Santa Monica,CA,Los Angeles County,America/Los_Angeles,34.01,-118.46
94621,Oakland,CA,Alameda County,America/Los_Angeles,37.73,-122.2
70809,Baton Rouge,LA,East Baton Rouge Parish,America/Chicago,30.44,-91.12
78610,Buda,TX,Hays County,,30.08,-97.83
33304,Fort Lauderdale,FL,Broward County,America/New_York,26.14,-80.13
70058,Harvey,LA,Jefferson Parish,America/Chicago,29.88,-90.06
94109,San Francisco,CA,San Francisco County,America/Los_Angeles,37.79,-122.42
23502,Norfolk,VA,Norfolk City,America/New_York,36.84,-76.28
20706,Lanham,MD,Prince George's County,America/New_York,38.96,-76.85
23220,Richmond,VA,Richmond City,America/New_York,37.55,-77.46
94707,Berkeley,CA,Alameda County,America/Los_Angeles,37.9,-122.28
63103,Saint Louis,MO,St Louis City,America/Chicago,38.63,-90.24
76039,Euless,TX,Tarrant County,America/Chicago,32.84,-97.07
10038,New York,NY,New York County,America/New_York,40.71,-73.99
95110,San Jose,CA,Santa Clara County,America/Los_Angeles,37.34,-121.9
60603,Chicago,IL,Cook County,America/Chicago,41.83,-87.68
91006,Arcadia,CA,Los Angeles County,America/Los_Angeles,34.13,-118.02
60015,Deerfield,IL,Lake County,America/Chicago,42.16,-87.84
33143,Miami,FL,Miami-Dade County,America/New_York,25.77,-80.2
76710,Waco,TX,McLennan County,America/Chicago,31.56,-97.18
37214,Nashville,TN,Davidson County,America/Chicago,36.17,-86.78
76177,Fort Worth,TX,Denton County,America/Chicago,32.75,-97.33
97702,Bend,OR,Deschutes County,America/Los_Angeles,43.98,-121.27
90028,Los Angeles,CA,Los Angeles County,America/Los_Angeles,34.1,-118.32
28303,Fayetteville,NC,Cumberland County,America/New_York,35.05,-78.87
11789,Sound Beach,NY,Suffolk County,America/New_York,40.95,-72.96
78130,New Braunfels,TX,Comal County,America/Chicago,29.7,-98.11
77532,Crosby,TX,Harris County,America/Chicago,29.91,-95.05
88201,Roswell,NM,Chaves County,America/Denver,33.37,-104.52
10530,Hartsdale,NY,Westchester County,America/New_York,41.02,-73.8
77478,Sugar Land,TX,Fort Bend County,America/Chicago,29.61,-95.61
80204,Denver,CO,Denver County,America/Denver,39.76,-104.87
60490,Bolingbrook,IL,Will County,America/Chicago,41.7,-88.07
92831,Fullerton,CA,Orange County,America/Los_Angeles,33.87,-117.89
22030,Fairfax,VA,Fairfax County,America/New_York,38.85,-77.29
89147,Las Vegas,NV,Clark County,America/Los_Angeles,36.11,-115.27
80301,Boulder,CO,Boulder County,America/Denver,40.02,-105.25
34236,Sarasota,FL,Sarasota County,America/New_York,27.33,-82.54
93463,Solvang,CA,Santa Barbara County,America/Los_Angeles,34.61,-120.14
60640,Chicago,IL,Cook County,America/Chicago,41.83,-87.68
94123,San Francisco,CA,San Francisco County,America/Los_Angeles,37.8,-122.43
95814,Sacramento,CA,Sacramento County,America/Los_Angeles,38.58,-121.49
93307,Bakersfield,CA,Kern County,America/Los_Angeles,35.2,-118.86
57401,Aberdeen,SD,Brown County,America/Chicago,45.46,-98.48
90001,Los Angeles,CA,Los Angeles County,America/Los_Angeles,33.97,-118.24
60661,Chicago,IL,Cook County,America/Chicago,41.83,-87.68
11747,Melville,NY,Suffolk County,America/New_York,40.78,-73.41
33180,Miami,FL,Miami-Dade County,America/New_York,25.77,-80.2
19061,Marcus Hook,PA,Delaware County,America/New_York,39.81,-75.41
75201,Dallas,TX,Dallas County,America/Chicago,32.79,-96.76
19808,Wilmington,DE,New Castle County,America/New_York,39.73,-75.53
77027,Houston,TX,Harris County,America/Chicago,29.76,-95.38
49441,Muskegon,MI,Muskegon County,America/Detroit,43.22,-86.25
78577,Pharr,TX,Hidalgo County,America/Chicago,26.18,-98.18
11432,Jamaica,NY,Queens County,America/New_York,40.68,-73.78
10312,Staten Island,NY,Richmond County,America/New_York,40.58,-74.14
90291,Venice,CA,Los Angeles County,America/Los_Angeles,33.99,-118.46
78741,Austin,TX,Travis County,America/Chicago,30.26,-97.74
10153,New York,NY,New York County,America/New_York,40.71,-73.99
20814,Bethesda,MD,Montgomery County,America/New_York,38.98,-77.12
63385,Wentzville,MO,St Charles County,America/Chicago,38.81,-90.85
10543,Mamaroneck,NY,Westchester County,America/New_York,40.93,-73.72
33132,Miami,FL,Miami-Dade County,America/New_York,25.77,-80.2
60612,Chicago,IL,Cook County,America/Chicago,41.83,-87.68
10601,White Plains,NY,Westchester County,America/New_York,41.02,-73.75
80234,Denver,CO,Adams County,America/Denver,39.76,-104.87
94608,Emeryville,CA,Alameda County,America/Los_Angeles,37.83,-122.29
65807,Springfield,MO,Greene County,America/Chicago,37.19,-93.28
75212,Dallas,TX,Dallas County,America/Chicago,32.79,-96.76
55105,Saint Paul,MN,Ramsey County,America/Chicago,44.94,-93.1
92606,Irvine,CA,Orange County,America/Los_Angeles,33.7,-117.79
80907,Colorado Springs,CO,El Paso County,America/Denver,38.86,-104.76
98070,Vashon,WA,King County,America/Los_Angeles,47.42,-122.45
93447,Paso Robles,CA,San Luis Obispo County,America/Los_Angeles,35.65,-120.69
95811,Sacramento,CA,Sacramento County,America/Los_Angeles,38.59,-121.49
11226,Brooklyn,NY,Kings County,America/New_York,40.64,-73.94
80218,Denver,CO,Denver County,America/Denver,39.76,-104.87
84020,Draper,UT,Salt Lake County,America/Denver,40.49,-111.84
94901,San Rafael,CA,Marin County,America/Los_Angeles,37.97,-122.5
10536,Katonah,NY,Westchester County,America/New_York,41.26,-73.68
11780,Saint James,NY,Suffolk County,America/New_York,40.87,-73.15
14420,Brockport,NY,Monroe County,America/New_York,43.21,-77.94
76102,Fort Worth,TX,Tarrant County,America/Chicago,32.75,-97.33
85718,Tucson,AZ,Pima County,America/Phoenix,32.31,-110.92
77030,Houston,TX,Harris County,America/Chicago,29.76,-95.38
20745,Oxon Hill,MD,Prince George's County,America/New_York,38.8,-76.99
98072,Woodinville,WA,King County,America/Los_Angeles,47.75,-122.09
10710,Yonkers,NY,Westchester County,America/New_York,40.94,-73.86
31794,Tifton,GA,Tift County,America/New_York,31.46,-83.51
44112,Cleveland,OH,Cuyahoga County,America/New_York,41.47,-81.67
90018,Los Angeles,CA,Los Angeles County,America/Los_Angeles,34.02,-118.31
19422,Blue Bell,PA,Montgomery County,America/New_York,40.14,-75.26
77041,Houston,TX,Harris County,America/Chicago,29.76,-95.38
94070,San Carlos,CA,San Mateo County,America/Los_Angeles,37.49,-122.26
55109,Saint Paul,MN,Ramsey County,America/Chicago,44.94,-93.1
11776,Port Jefferson Station,NY,Suffolk County,America/New_York,40.92,-73.06
20191,Reston,VA,Fairfax County,America/New_York,38.95,-77.34
11355,Flushing,NY,Queens County,America/New_York,40.77,-73.84
60108,Bloomingdale,IL,Dupage County,America/Chicago,41.94,-88.08
11204,Brooklyn,NY,Kings County,America/New_York,40.64,-73.94
11937,East Hampton,NY,Suffolk County,America/New_York,40.95,-72.19
60014,Crystal Lake,IL,McHenry County,America/Chicago,42.23,-88.33
85258,Scottsdale,AZ,Maricopa County,America/Phoenix,33.56,-111.9
30309,Atlanta,GA,Fulton County,America/New_York,33.78,-84.38
78746,Austin,TX,Travis County,America/Chicago,30.26,-97.74
33145,Miami,FL,Miami-Dade County,America/New_York,25.77,-80.2
33316,Fort Lauderdale,FL,Broward County,America/New_York,26.14,-80.13
62966,Murphysboro,IL,Jackson County,America/Chicago,37.76,-89.33
91306,Winnetka,CA,Los Angeles County,America/Los_Angeles,34.2,-118.57
93301,Bakersfield,CA,Kern County,America/Los_Angeles,35.38,-119.02
15330,Eighty Four,PA,Washington County,America/New_York,40.18,-80.13
61548,Metamora,IL,Woodford County,America/Chicago,40.79,-89.36
60540,Naperville,IL,Dupage County,America/Chicago,41.76,-88.15
92376,Rialto,CA,San Bernardino County,America/Los_Angeles,34.1,-117.38
20852,Rockville,MD,Montgomery County,America/New_York,39.08,-77.15
46278,Indianapolis,IN,Marion County,America/Indiana/Indianapolis,39.77,-86.14
92806,Anaheim,CA,Orange County,America/Los_Angeles,33.83,-117.86
46142,Greenwood,IN,Johnson County,America/Indiana/Indianapolis,39.61,-86.11
44115,Cleveland,OH,Cuyahoga County,America/New_York,41.47,-81.67
60192,Hoffman Estates,IL,Cook County,America/Chicago,42.03,-88.08
48216,Detroit,MI,Wayne County,America/Detroit,42.38,-83.1
45215,Cincinnati,OH,Hamilton County,America/New_York,39.09,-84.51
96761,Lahaina,HI,Maui County,Pacific/Honolulu,20.89,-156.67
70056,Gretna,LA,Jefferson Parish,America/Chicago,29.91,-90.05
15203,Pittsburgh,PA,Allegheny County,America/New_York,40.43,-79.97
60025,Glenview,IL,Cook County,America/Chicago,42.07,-87.81
60062,Northbrook,IL,Cook County,America/Chicago,42.12,-87.83
85006,Phoenix,AZ,Maricopa County,America/Phoenix,33.46,-112.05
11223,Brooklyn,NY,Kings County,America/New_York,40.64,-73.94
90015,Los Angeles,CA,Los Angeles County,America/Los_Angeles,34.03,-118.26
68112,Omaha,NE,Douglas County,America/Chicago,41.26,-96.01
34711,Clermont,FL,Lake County,America/New_York,28.55,-81.75
22903,Charlottesville,VA,Albemarle County,America/New_York,38.03,-78.48
14086,Lancaster,NY,Erie County,America/New_York,42.9,-78.66
80112,Englewood,CO,Arapahoe County,America/Denver,39.64,-104.99
40515,Lexington,KY,Fayette County,America/Kentucky/Louisville,38.04,-84.45
80205,Denver,CO,Denver County,America/Denver,39.76,-104.87
17512,Columbia,PA,Lancaster County,America/New_York,40.03,-76.49
80012,Aurora,CO,Arapahoe County,America/Denver,39.69,-104.81
80104,Castle Rock,CO,Douglas County,America/Denver,39.37,-104.85
80126,Littleton,CO,Douglas County,America/Denver,39.59,-105.01
92101,San Diego,CA,San Diego County,America/Los_Angeles,32.71,-117.16
94501,Alameda,CA,Alameda County,America/Los_Angeles,37.77,-122.27
75244,Dallas,TX,Dallas County,America/Chicago,32.79,-96.76
60467,Orland Park,IL,Cook County,America/Chicago,41.61,-87.85
44685,Uniontown,OH,Summit County,America/New_York,40.97,-81.4
45417,Dayton,OH,Montgomery County,America/New_York,39.77,-84.19
92612,Irvine,CA,Orange County,America/Los_Angeles,33.63,-117.81
49456,Spring Lake,MI,Ottawa County,America/Detroit,43.07,-86.19
63011,Ballwin,MO,St Louis County,America/Chicago,38.59,-90.55
53562,Middleton,WI,Dane County,America/Chicago,43.1,-89.5
76107,Fort Worth,TX,Tarrant County,America/Chicago,32.75,-97.33
12946,Lake Placid,NY,Essex County,America/New_York,44.28,-73.98
92802,Anaheim,CA,Orange County,America/Los_Angeles,33.81,-117.91
95338,Mariposa,CA,Mariposa County,America/Los_Angeles,37.49,-120
77553,Galveston,TX,Galveston County,America/Chicago,29.3,-94.79
92121,San Diego,CA,San Diego County,America/Los_Angeles,32.9,-117.2
48098,Troy,MI,Oakland County,America/Detroit,42.58,-83.14
11554,East Meadow,NY,Nassau County,America/New_York,40.71,-73.55
93401,San Luis Obispo,CA,San Luis Obispo County,America/Los_Angeles,35.25,-120.62
93101,Santa Barbara,CA,Santa Barbara County,America/Los_Angeles,34.41,-119.7
11542,Glen Cove,NY,Nassau County,America/New_York,40.86,-73.63
91101,Pasadena,CA,Los Angeles County,America/Los_Angeles,34.14,-118.13
37409,Chattanooga,TN,Hamilton County,America/New_York,35.06,-85.25
80631,Greeley,CO,Weld County,America/Denver,40.42,-104.74
30224,Griffin,GA,Spalding County,America/New_York,33.24,-84.27
77550,Galveston,TX,Galveston County,America/Chicago,29.3,-94.79
20003,Washington,DC,District of Columbia,America/New_York,38.89,-77.03
75219,Dallas,TX,Dallas County,America/Chicago,32.79,-96.76
46320,Hammond,IN,Lake County,America/Indiana/Indianapolis,41.62,-87.49
94110,San Francisco,CA,San Francisco County,America/Los_Angeles,37.74,-122.41
48211,Detroit,MI,Wayne County,America/Detroit,42.38,-83.1
64108,Kansas City,MO,Jackson County,America/Chicago,39.09,-94.58
10605,White Plains,NY,Westchester County,America/New_York,41.02,-73.75
14213,Buffalo,NY,Erie County,America/New_York,42.88,-78.85
73064,Mustang,OK,Canadian County,America/Chicago,35.39,-97.72
21842,Ocean City,MD,Worcester County,America/New_York,38.33,-75.08
53713,Madison,WI,Dane County,America/Chicago,43.07,-89.38
63108,Saint Louis,MO,St Louis City,America/Chicago,38.63,-90.24
33496,Boca Raton,FL,Palm Beach County,America/New_York,26.37,-80.1
44113,Cleveland,OH,Cuyahoga County,America/New_York,41.47,-81.67
19004,Bala Cynwyd,PA,Montgomery County,America/New_York,40.01,-75.22
75247,Dallas,TX,Dallas County,America/Chicago,32.79,-96.76
46224,Indianapolis,IN,Marion County,America/Indiana/Indianapolis,39.77,-86.14
68104,Omaha,NE,Douglas County,America/Chicago,41.26,-96.01
24011,Roanoke,VA,Roanoke City,America/New_York,37.27,-79.95
80544,Niwot,CO,Boulder County,America/Denver,40.09,-105.15
75234,Dallas,TX,Dallas County,America/Chicago,32.79,-96.76
98158,Seattle,WA,King County,America/Los_Angeles,47.44,-122.31
11779,Ronkonkoma,NY,Suffolk County,America/New_York,40.8,-73.12
19342,Glen Mills,PA,Delaware County,America/New_York,39.89,-75.5
85719,Tucson,AZ,Pima County,America/Phoenix,32.24,-110.95
23320,Chesapeake,VA,Chesapeake City,America/New_York,36.67,-76.3
98188,Seattle,WA,King County,America/Los_Angeles,47.44,-122.28
70808,Baton Rouge,LA,East Baton Rouge Parish,America/Chicago,30.44,-91.12
72116,North Little Rock,AR,Pulaski County,America/Chicago,34.78,-92.25
10514,Chappaqua,NY,Westchester County,America/New_York,41.17,-73.77
18901,Doylestown,PA,Bucks County,America/New_York,40.31,-75.12
72211,Little Rock,AR,Pulaski County,America/Chicago,34.72,-92.35
11757,Lindenhurst,NY,Suffolk County,America/New_York,40.68,-73.37
94704,Berkeley,CA,Alameda County,America/Los_Angeles,37.86,-122.25
93308,Bakersfield,CA,Kern County,America/Los_Angeles,35.54,-118.91
58102,Fargo,ND,Cass County,America/Chicago,46.87,-96.81
77070,Houston,TX,Harris County,America/Chicago,29.76,-95.38
76116,Fort Worth,TX,Tarrant County,America/Chicago,32.75,-97.33
77090,Houston,TX,Harris County,America/Chicago,29.76,-95.38
43206,Columbus,OH,Franklin County,America/New_York,39.98,-82.98
20874,Germantown,MD,Montgomery County,America/New_York,39.17,-77.26
97321,Albany,OR,Benton County,America/Los_Angeles,44.62,-123.13
49464,Zeeland,MI,Ottawa County,America/Detroit,42.81,-86.01
53583,Sauk City,WI,Sauk County,America/Chicago,43.27,-89.72
21015,Bel Air,MD,Harford County,America/New_York,39.53,-76.34
23185,Williamsburg,VA,Williamsburg City,America/New_York,37.27,-76.7
11969,Southampton,NY,Suffolk County,America/New_York,40.88,-72.39
60056,Mount Prospect,IL,Cook County,America/Chicago,42.06,-87.93
11791,Syosset,NY,Nassau County,America/New_York,40.81,-73.5
15136,Mc Kees Rocks,PA,Allegheny County,America/New_York,40.46,-80.06
97403,Eugene,OR,Lane County,America/Los_Angeles,44.03,-123.05
93105,Santa Barbara,CA,Santa Barbara County,America/Los_Angeles,34.01,-119.72
28469,Ocean Isle Beach,NC,Brunswick County,America/New_York,33.89,-78.42
50023,Ankeny,IA,Polk County,America/Chicago,41.71,-93.62
30076,Roswell,GA,Fulton County,America/New_York,34.03,-84.35
23061,Gloucester,VA,Gloucester County,America/New_York,37.43,-76.54
75034,Frisco,TX,Denton County,America/Chicago,33.14,-96.81
67846,Garden City,KS,Finney County,America/Chicago,37.97,-100.86
23606,Newport News,VA,Newport News City,America/New_York,37.07,-76.51
38138,Germantown,TN,Shelby County,America/Chicago,35.08,-89.79
55387,Waconia,MN,Carver County,America/Chicago,44.84,-93.79
30342,Atlanta,GA,Fulton County,America/New_York,33.88,-84.37
90067,Los Angeles,CA,Los Angeles County,America/Los_Angeles,34.05,-118.41
19007,Bristol,PA,Bucks County,America/New_York,40.1,-74.85
22182,Vienna,VA,Fairfax County,America/New_York,38.9,-77.26
37207,Nashville,TN,Davidson County,America/Chicago,36.17,-86.78
52240,Iowa City,IA,Johnson County,America/Chicago,41.65,-91.53
97031,Hood River,OR,Hood River County,America/Los_Angeles,45.61,-121.58
80247,Denver,CO,Arapahoe County,America/Denver,39.69,-104.88
64133,Kansas City,MO,Jackson County,America/Chicago,39.09,-94.58
43068,Reynoldsburg,OH,Franklin County,America/New_York,39.95,-82.79
17050,Mechanicsburg,PA,Cumberland County,America/New_York,40.24,-77.02
79072,Plainview,TX,Hale County,America/Chicago,34.19,-101.72
44131,Independence,OH,Cuyahoga County,America/New_York,41.38,-81.64
77845,College Station,TX,Brazos County,America/Chicago,30.6,-96.31
31602,Valdosta,GA,Lowndes County,America/New_York,30.84,-83.27
77706,Beaumont,TX,Jefferson County,America/Chicago,30.08,-94.14
44286,Richfield,OH,Summit County,America/New_York,41.23,-81.63
20772,Upper Marlboro,MD,Prince George's County,America/New_York,38.81,-76.75
46383,Valparaiso,IN,Porter County,America/Indiana/Indianapolis,41.47,-87.05
60193,Schaumburg,IL,Cook County,America/Chicago,42.03,-88.08
54650,Onalaska,WI,La Crosse County,America/Chicago,43.88,-91.21
48036,Clinton Township,MI,Macomb County,America/Detroit,42.58,-82.91
78216,San Antonio,TX,Bexar County,America/Chicago,29.45,-98.5
29732,Rock Hill,SC,York County,America/New_York,34.93,-81.02
74055,Owasso,OK,Tulsa County,America/Chicago,36.28,-95.83
98686,Vancouver,WA,Clark County,America/Los_Angeles,45.72,-122.61
76179,Fort Worth,TX,Tarrant County,America/Chicago,32.75,-97.33
97701,Bend,OR,Deschutes County,America/Los_Angeles,44.07,-121.25
39272,Byram,MS,Hinds County,America/Chicago,32.32,-90.2
98032,Kent,WA,King County,America/Los_Angeles,47.39,-122.26
28115,Mooresville,NC,Iredell County,America/New_York,35.57,-80.81
63132,Saint Louis,MO,St Louis County,America/Chicago,38.63,-90.24
34761,Ocoee,FL,Orange County,America/New_York,28.57,-81.53
75428,Commerce,TX,Hunt County,America/Chicago,33.23,-95.9
43215,Columbus,OH,Franklin County,America/New_York,39.98,-82.98
49508,Grand Rapids,MI,Kent County,America/Detroit,42.96,-85.65
90621,Buena Park,CA,Orange County,America/Los_Angeles,33.87,-117.99
28110,Monroe,NC,Union County,America/New_York,34.98,-80.54
72422,Corning,AR,Clay County,America/Chicago,36.41,-90.58
27858,Greenville,NC,Pitt County,America/New_York,35.59,-77.37
27408,Greensboro,NC,Guilford County,America/New_York,36.07,-79.82
94404,San Mateo,CA,San Mateo County,America/Los_Angeles,37.55,-122.26
63120,Saint Louis,MO,St Louis City,America/Chicago,38.63,-90.24
63034,Florissant,MO,St Louis County,America/Chicago,38.79,-90.32
32505,Pensacola,FL,Escambia County,America/Chicago,30.44,-87.18
94531,Antioch,CA,Contra Costa County,America/Los_Angeles,37.96,-121.76
75601,Longview,TX,Gregg County,America/Chicago,32.51,-94.76
99336,Kennewick,WA,Benton County,America/Los_Angeles,46.21,-119.16
44102,Cleveland,OH,Cuyahoga County,America/New_York,41.47,-81.67
45206,Cincinnati,OH,Hamilton County,America/New_York,39.09,-84.51
75050,Grand Prairie,TX,Dallas County,America/Chicago,32.69,-97.01
30281,Stockbridge,GA,Henry County,America/New_York,33.54,-84.24
20910,Silver Spring,MD,Montgomery County,America/New_York,39.01,-77.02
33064,Pompano Beach,FL,Broward County,America/New_York,26.23,-80.13
98226,Bellingham,WA,Whatcom County,America/Los_Angeles,48.79,-122.41
75071,Mckinney,TX,Collin County,America/Chicago,33.2,-96.65
77573,League City,TX,Galveston County,America/Chicago,29.48,-95.1
94587,Union City,CA,Alameda County,America/Los_Angeles,37.59,-122.06
34984,Port Saint Lucie,FL,St Lucie County,America/New_York,27.27,-80.35
51054,Sergeant Bluff,IA,Woodbury County,America/Chicago,42.4,-96.35
32218,Jacksonville,FL,Duval County,America/New_York,30.33,-81.65
32177,Palatka,FL,Putnam County,America/New_York,29.64,-81.65
91786,Upland,CA,San Bernardino County,America/Los_Angeles,34.1,-117.66
85635,Sierra Vista,AZ,Cochise County,America/Phoenix,31.59,-110.17
48146,Lincoln Park,MI,Wayne County,America/Detroit,42.24,-83.18
60625,Chicago,IL,Cook County,America/Chicago,41.83,-87.68
22309,Alexandria,VA,Fairfax County,America/New_York,38.82,-77.08
21108,Millersville,MD,Anne Arundel County,America/New_York,39.05,-76.64
78504,Mcallen,TX,Hidalgo County,America/Chicago,26.21,-98.23
32246,Jacksonville,FL,Duval County,America/New_York,30.33,-81.65
50302,Des Moines,IA,Polk County,America/Chicago,41.57,-93.61
46307,Crown Point,IN,Lake County,America/Indiana/Indianapolis,41.42,-87.35
20136,Bristow,VA,Prince William County,America/New_York,38.73,-77.55
70002,Metairie,LA,Jefferson Parish,America/Chicago,29.99,-90.17
95336,Manteca,CA,San Joaquin County,America/Los_Angeles,37.83,-121.18
30005,Alpharetta,GA,Fulton County,America/New_York,34.06,-84.27
33154,Miami Beach,FL,Miami-Dade County,America/New_York,25.77,-80.2
98052,Redmond,WA,King County,America/Los_Angeles,47.68,-122.12
92656,Aliso Viejo,CA,Orange County,America/Los_Angeles,33.57,-117.72
30040,Cumming,GA,Forsyth County,America/New_York,34.2,-84.13
22193,Woodbridge,VA,Prince William County,America/New_York,38.63,-77.26
76106,Fort Worth,TX,Tarrant County,America/Chicago,32.75,-97.33
85203,Mesa,AZ,Maricopa County,America/Phoenix,33.44,-111.8
85206,Mesa,AZ,Maricopa County,America/Phoenix,33.39,-111.71
85023,Phoenix,AZ,Maricopa County,America/Phoenix,33.63,-112.09
21236,Nottingham,MD,Baltimore County,America/New_York,39.38,-76.48
93725,Fresno,CA,Fresno County,America/Los_Angeles,36.6,-119.75
75491,Whitewright,TX,Grayson County,,33.51,-96.39
85283,Tempe,AZ,Maricopa County,America/Phoenix,33.36,-111.93
33414,Wellington,FL,Palm Beach County,America/New_York,26.74,-80.12
92780,Tustin,CA,Orange County,America/Los_Angeles,33.74,-117.82
11777,Port Jefferson,NY,Suffolk County,America/New_York,40.94,-73.05
46545,Mishawaka,IN,St Joseph County,America/Indiana/Indianapolis,41.66,-86.16
21813,Bishopville,MD,Worcester County,America/New_York,38.44,-75.19
76051,Grapevine,TX,Tarrant County,America/Chicago,32.93,-97.07
53227,Milwaukee,WI,Milwaukee County,America/Chicago,43.06,-87.96
46256,Indianapolis,IN,Marion County,America/Indiana/Indianapolis,39.77,-86.14
77054,Houston,TX,Harris County,America/Chicago,29.76,-95.38
55121,Saint Paul,MN,Dakota County,America/Chicago,44.94,-93.1
92562,Murrieta,CA,Riverside County,America/Los_Angeles,33.54,-117.33
19711,Newark,DE,New Castle County,America/New_York,39.67,-75.75
95682,Shingle Springs,CA,El Dorado County,America/Los_Angeles,38.61,-120.97
45697,Winchester,OH,Adams County,America/New_York,38.94,-83.65
92887,Yorba Linda,CA,Orange County,America/Los_Angeles,33.88,-117.72
76063,Mansfield,TX,Tarrant County,America/Chicago,32.56,-97.11
76273,Whitesboro,TX,Grayson County,,33.65,-96.9
63703,Cape Girardeau,MO,Cape Girardeau County,America/Chicago,37.3,-89.55
77074,Houston,TX,Harris County,America/Chicago,29.76,-95.38
44233,Hinckley,OH,Medina County,America/New_York,41.23,-81.73
76031,Cleburne,TX,Johnson County,America/Chicago,32.34,-97.4
91316,Encino,CA,Los Angeles County,America/Los_Angeles,34.15,-118.52
90027,Los Angeles,CA,Los Angeles County,America/Los_Angeles,34.12,-118.28
98390,Sumner,WA,Pierce County,America/Los_Angeles,47.17,-122.18
32137,Palm Coast,FL,Flagler County,America/New_York,29.57,-81.21
43528,Holland,OH,Lucas County,America/New_York,41.62,-83.7
72015,Benton,AR,Saline County,America/Chicago,34.56,-92.57
30345,Atlanta,GA,Dekalb County,America/New_York,33.85,-84.28
83703,Boise,ID,Ada County,America/Boise,43.71,-116.25
97217,Portland,OR,Multnomah County,America/Los_Angeles,45.58,-122.7
25801,Beckley,WV,Raleigh County,America/New_York,37.78,-81.18
60035,Highland Park,IL,Lake County,America/Chicago,42.18,-87.8
92037,La Jolla,CA,San Diego County,America/Los_Angeles,32.86,-117.24
60404,Shorewood,IL,Will County,America/Chicago,41.51,-88.21
22209,Arlington,VA,Arlington County,America/New_York,38.87,-77.1
61957,Windsor,IL,Shelby County,America/Chicago,39.43,-88.59
70001,Metairie,LA,Jefferson Parish,America/Chicago,29.99,-90.17
33327,Fort Lauderdale,FL,Broward County,America/New_York,26.11,-80.39
85142,Queen Creek,AZ,Maricopa County,America/Phoenix,33.16,-111.59
92705,Santa Ana,CA,Orange County,America/Los_Angeles,33.76,-117.79
28605,Blowing Rock,NC,Watauga County,America/New_York,36.12,-81.67
30060,Marietta,GA,Cobb County,America/New_York,33.95,-84.54
33024,Hollywood,FL,Broward County,America/New_York,26.02,-80.16
70764,Plaquemine,LA,Iberville Parish,America/Chicago,30.28,-91.24
80110,Englewood,CO,Arapahoe County,America/Denver,39.64,-104.99
85018,Phoenix,AZ,Maricopa County,America/Phoenix,33.5,-111.98
97045,Oregon City,OR,Clackamas County,America/Los_Angeles,45.32,-122.52
28079,Indian Trail,NC,Union County,America/New_York,35.07,-80.67
45404,Dayton,OH,Montgomery County,America/New_York,39.77,-84.19
92808,Anaheim,CA,Orange County,America/Los_Angeles,33.84,-117.73
16201,Kittanning,PA,Armstrong County,America/New_York,40.82,-79.52
55345,Minnetonka,MN,Hennepin County,America/Chicago,44.93,-93.46
30092,Norcross,GA,Gwinnett County,America/New_York,33.94,-84.2
78676,Wimberley,TX,Hays County,America/Chicago,29.99,-98.1
74105,Tulsa,OK,Tulsa County,America/Chicago,36.12,-95.91
45140,Loveland,OH,Clermont County,America/New_York,39.26,-84.27
22310,Alexandria,VA,Fairfax County,America/New_York,38.82,-77.08
48357,Highland,MI,Oakland County,America/Detroit,42.63,-83.61
32811,Orlando,FL,Orange County,America/New_York,28.5,-81.37
92130,San Diego,CA,San Diego County,America/Los_Angeles,32.95,-117.19
33411,West Palm Beach,FL,Palm Beach County,America/New_York,26.74,-80.12
30340,Atlanta,GA,Dekalb County,America/New_York,33.89,-84.25
91739,Rancho Cucamonga,CA,San Bernardino County,America/Los_Angeles,34.14,-117.51
66103,Kansas City,KS,Wyandotte County,America/Chicago,39.1,-94.62
13045,Cortland,NY,Cortland County,America/New_York,42.6,-76.18
45039,Maineville,OH,Warren County,America/New_York,39.31,-84.22
50428,Clear Lake,IA,Cerro Gordo County,America/Chicago,43.13,-93.37
11235,Brooklyn,NY,Kings County,America/New_York,40.64,-73.94
20109,Manassas,VA,Prince William County,America/New_York,38.74,-77.48
98168,Seattle,WA,King County,America/Los_Angeles,47.48,-122.29
11385,Ridgewood,NY,Queens County,America/New_York,40.7,-73.89
78355,Falfurrias,TX,Brooks County,America/Chicago,27.22,-98.14
11803,Plainview,NY,Nassau County,America/New_York,40.78,-73.47
20190,Reston,VA,Fairfax County,America/New_York,38.95,-77.34
85286,Chandler,AZ,Maricopa County,America/Phoenix,33.27,-111.82
80424,Breckenridge,CO,Summit County,America/Denver,39.5,-106.04
84770,Saint George,UT,Washington County,America/Denver,37.18,-113.6
76444,De Leon,TX,Comanche County,America/Chicago,32.11,-98.53
32301,Tallahassee,FL,Leon County,America/New_York,30.45,-84.28
76537,Jarrell,TX,Williamson County,America/Chicago,30.81,-97.6
98027,Issaquah,WA,King County,America/Los_Angeles,47.5,-122
44095,Eastlake,OH,Lake County,America/New_York,41.65,-81.43
85323,Avondale,AZ,Maricopa County,America/Phoenix,33.44,-112.31
52245,Iowa City,IA,Johnson County,America/Chicago,41.65,-91.53
31522,Saint Simons Island,GA,Glynn County,America/New_York,31.21,-81.37
30601,Athens,GA,Clarke County,America/New_York,33.95,-83.39
92660,Newport Beach,CA,Orange County,America/Los_Angeles,33.62,-117.87
90007,Los Angeles,CA,Los Angeles County,America/Los_Angeles,34.02,-118.28
20147,Ashburn,VA,Loudoun County,America/New_York,39.04,-77.48
18465,Thompson,PA,Susquehanna County,America/New_York,41.86,-75.51
14215,Buffalo,NY,Erie County,America/New_York,42.88,-78.85
75207,Dallas,TX,Dallas County,America/Chicago,32.79,-96.76
74127,Tulsa,OK,Tulsa County,America/Chicago,36.12,-95.91
95051,Santa Clara,CA,Santa Clara County,America/Los_Angeles,37.35,-121.98
27546,Lillington,NC,Harnett County,America/New_York,35.39,-78.81
55783,Sturgeon Lake,MN,Pine County,America/Chicago,46.38,-92.82
93291,Visalia,CA,Tulare County,America/Los_Angeles,36.4,-119.38
62859,Mc Leansboro,IL,Hamilton County,America/Chicago,38.09,-88.53
19382,West Chester,PA,Chester County,America/New_York,39.95,-75.6
60173,Schaumburg,IL,Cook County,America/Chicago,42.03,-88.08
97301,Salem,OR,Marion County,America/Los_Angeles,44.9,-122.92
52302,Marion,IA,Linn County,America/Chicago,42.03,-91.58
80027,Louisville,CO,Boulder County,America/Denver,39.96,-105.14
80021,Broomfield,CO,Jefferson County,America/Denver,39.94,-105.06
33019,Hollywood,FL,Broward County,America/New_York,26.02,-80.16
36111,Montgomery,AL,Montgomery County,America/Chicago,32.35,-86.28
92504,Riverside,CA,Riverside County,America/Los_Angeles,33.9,-117.4
14221,Buffalo,NY,Erie County,America/New_York,42.88,-78.85
93950,Pacific Grove,CA,Monterey County,America/Los_Angeles,36.61,-121.92
60441,Lockport,IL,Will County,America/Chicago,41.58,-88.04
30308,Atlanta,GA,Fulton County,America/New_York,33.77,-84.37
63102,Saint Louis,MO,St Louis City,America/Chicago,38.63,-90.24
34285,Venice,FL,Sarasota County,America/New_York,27.09,-82.43
48192,Wyandotte,MI,Wayne County,America/Detroit,42.21,-83.15
95121,San Jose,CA,Santa Clara County,America/Los_Angeles,37.3,-121.8
30328,Atlanta,GA,Fulton County,America/New_York,33.93,-84.38
78660,Pflugerville,TX,Travis County,America/Chicago,30.44,-97.62
90021,Los Angeles,CA,Los Angeles County,America/Los_Angeles,34.03,-118.24
75006,Carrollton,TX,Dallas County,America/Chicago,32.98,-96.89
60632,Chicago,IL,Cook County,America/Chicago,41.83,-87.68
33607,Tampa,FL,Hillsborough County,America/New_York,27.95,-82.48
21061,Glen Burnie,MD,Anne Arundel County,America/New_York,39.16,-76.6
95833,Sacramento,CA,Sacramento County,America/Los_Angeles,38.61,-121.49
20155,Gainesville,VA,Prince William County,America/New_York,38.79,-77.61
19971,Rehoboth Beach,DE,Sussex County,America/New_York,38.7,-75.09
45251,Cincinnati,OH,Hamilton County,America/New_York,39.09,-84.51
60517,Woodridge,IL,Dupage County,America/Chicago,41.73,-88.04
28217,Charlotte,NC,Mecklenburg County,America/New_York,35.19,-80.83
19406,King Of Prussia,PA,Montgomery County,America/New_York,40.09,-75.38
70170,New Orleans,LA,Orleans Parish,America/Chicago,30.06,-89.93
10024,New York,NY,New York County,America/New_York,40.71,-73.99
48126,Dearborn,MI,Wayne County,America/Detroit,42.31,-83.21
55423,Minneapolis,MN,Hennepin County,America/Chicago,44.96,-93.26
91733,South El Monte,CA,Los Angeles County,America/Los_Angeles,34.04,-118.04
75904,Lufkin,TX,Angelina County,America/Chicago,31.33,-94.72
17101,Harrisburg,PA,Dauphin County,America/New_York,40.27,-76.88
11003,Elmont,NY,Nassau County,America/New_York,40.7,-73.7
98109,Seattle,WA,King County,America/Los_Angeles,47.63,-122.34
78703,Austin,TX,Travis County,America/Chicago,30.26,-97.74
67209,Wichita,KS,Sedgwick County,America/Chicago,37.68,-97.34
98277,Oak Harbor,WA,Island County,America/Los_Angeles,48.32,-122.63
75019,Coppell,TX,Dallas County,America/Chicago,32.96,-96.99
79762,Odessa,TX,Ector County,America/Chicago,31.85,-102.36
53005,Brookfield,WI,Waukesha County,America/Chicago,43.06,-88.11
20004,Washington,DC,District of Columbia,America/New_York,38.89,-77.03
27701,Durham,NC,Durham County,America/New_York,35.98,-78.91
49712,Boyne City,MI,Charlevoix County,America/Detroit,45.21,-85.01
10977,Spring Valley,NY,Rockland County,America/New_York,41.11,-74.04
24007,Roanoke,VA,Roanoke City,America/New_York,37.27,-79.95
77033,Houston,TX,Harris County,America/Chicago,29.76,-95.38
77071,Houston,TX,Harris County,America/Chicago,29.76,-95.38
46260,Indianapolis,IN,Marion County,America/Indiana/Indianapolis,39.77,-86.14
81601,Glenwood Springs,CO,Garfield County,America/Denver,39.54,-107.33
29212,Columbia,SC,Lexington County,America/New_York,34,-81.03
78628,Georgetown,TX,Williamson County,America/Chicago,30.64,-97.68
92503,Riverside,CA,Riverside County,America/Los_Angeles,33.89,-117.44
17509,Christiana,PA,Lancaster County,America/New_York,39.95,-75.99
73157,Oklahoma City,OK,Oklahoma County,America/Chicago,35.46,-97.51
78756,Austin,TX,Travis County,America/Chicago,30.26,-97.74
76088,Weatherford,TX,Parker County,America/Chicago,32.75,-97.77
28202,Charlotte,NC,Mecklenburg County,America/New_York,35.19,-80.83
11211,Brooklyn,NY,Kings County,America/New_York,40.64,-73.94
94930,Fairfax,CA,Marin County,America/Los_Angeles,37.98,-122.6
94121,San Francisco,CA,San Francisco County,America/Los_Angeles,37.77,-122.49
50266,West Des Moines,IA,Dallas County,America/Chicago,41.57,-93.75
98122,Seattle,WA,King County,America/Los_Angeles,47.61,-122.3
11788,Hauppauge,NY,Suffolk County,America/New_York,40.82,-73.21
11361,Bayside,NY,Queens County,America/New_York,40.76,-73.77
80220,Denver,CO,Denver County,America/Denver,39.76,-104.87
30341,Atlanta,GA,Dekalb County,America/New_York,33.9,-84.3
39111,Magee,MS,Simpson County,America/Chicago,31.87,-89.73
53704,Madison,WI,Dane County,America/Chicago,43.07,-89.38
79901,El Paso,TX,El Paso County,America/Denver,31.84,-106.43
95212,Stockton,CA,San Joaquin County,America/Los_Angeles,38.04,-121.2
14207,Buffalo,NY,Erie County,America/New_York,42.88,-78.85
48236,Grosse Pointe,MI,Wayne County,America/Detroit,42.38,-82.91
77056,Houston,TX,Harris County,America/Chicago,29.76,-95.38
19428,Conshohocken,PA,Montgomery County,America/New_York,40.07,-75.3
92807,Anaheim,CA,Orange County,America/Los_Angeles,33.85,-117.79
98116,Seattle,WA,King County,America/Los_Angeles,47.57,-122.4
33166,Miami,FL,Miami-Dade County,America/New_York,25.82,-80.3
39201,Jackson,MS,Hinds County,America/Chicago,32.32,-90.2
25262,Millwood,WV,Jackson County,America/New_York,38.9,-81.81
30317,Atlanta,GA,Dekalb County,America/New_York,33.74,-84.31
82701,Newcastle,WY,Weston County,America/Denver,43.84,-104.21
39074,Forest,MS,Scott County,America/Chicago,32.35,-89.47
11716,Bohemia,NY,Suffolk County,America/New_York,40.77,-73.12
27709,Durham,NC,Durham County,America/New_York,35.98,-78.91
92663,Newport Beach,CA,Orange County,America/Los_Angeles,33.62,-117.93
10006,New York,NY,New York County,America/New_York,40.71,-73.99
34112,Naples,FL,Collier County,America/New_York,26.14,-81.79
60601,Chicago,IL,Cook County,America/Chicago,41.83,-87.68
11215,Brooklyn,NY,Kings County,America/New_York,40.64,-73.94
53405,Racine,WI,Racine County,America/Chicago,42.72,-87.8
37064,Franklin,TN,Williamson County,America/Chicago,35.92,-86.84
60618,Chicago,IL,Cook County,America/Chicago,41.83,-87.68
59711,Anaconda,MT,Deer Lodge County,America/Denver,46.12,-112.97
54401,Wausau,WI,Marathon County,America/Chicago,44.96,-89.64
60616,Chicago,IL,Cook County,America/Chicago,41.83,-87.68
10968,Piermont,NY,Rockland County,America/New_York,41.03,-73.91
97220,Portland,OR,Multnomah County,America/Los_Angeles,45.55,-122.56
10306,Staten Island,NY,Richmond County,America/New_York,40.58,-74.14
60647,Chicago,IL,Cook County,America/Chicago,41.83,-87.68
29501,Florence,SC,Florence County,America/New_York,34.18,-79.78
77713,Beaumont,TX,Jefferson County,America/Chicago,30.08,-94.14
33315,Fort Lauderdale,FL,Broward County,America/New_York,26.14,-80.13
17112,Harrisburg,PA,Dauphin County,America/New_York,40.27,-76.88
89113,Las Vegas,NV,Clark County,America/Los_Angeles,36.06,-115.27
89148,Las Vegas,NV,Clark County,America/Los_Angeles,36.06,-115.31
23139,Powhatan,VA,Powhatan County,America/New_York,37.54,-77.92
21671,Tilghman,MD,Talbot County,America/New_York,38.69,-76.33
11725,Commack,NY,Suffolk County,America/New_York,40.84,-73.28
38104,Memphis,TN,Shelby County,America/Chicago,35.1,-90
61820,Champaign,IL,Champaign County,America/Chicago,40.11,-88.26
48084,Troy,MI,Oakland County,America/Detroit,42.58,-83.14
46312,East Chicago,IN,Lake County,America/Indiana/Indianapolis,41.64,-87.45
12205,Albany,NY,Albany County,America/New_York,42.66,-73.79
95030,Los Gatos,CA,Santa Clara County,America/Los_Angeles,37.22,-121.99
29577,Myrtle Beach,SC,Horry County,America/New_York,33.69,-78.89
53007,Butler,WI,Waukesha County,America/Chicago,43.1,-88.07
16509,Erie,PA,Erie County,America/New_York,42.12,-80.08
46402,Gary,IN,Lake County,America/Indiana/Indianapolis,41.59,-87.34
46375,Schererville,IN,Lake County,America/Indiana/Indianapolis,41.48,-87.44
50843,Cumberland,IA,Cass County,America/Chicago,41.27,-94.86
75062,Irving,TX,Dallas County,America/Chicago,32.85,-96.96
69361,Scottsbluff,NE,Scotts Bluff County,America/Denver,41.86,-103.66
75081,Richardson,TX,Dallas County,America/Chicago,32.97,-96.7
43081,Westerville,OH,Franklin County,America/New_York,40.12,-82.91
94010,Burlingame,CA,San Mateo County,America/Los_Angeles,37.56,-122.37
72223,Little Rock,AR,Pulaski County,America/Chicago,34.72,-92.35
37066,Gallatin,TN,Sumner County,America/Chicago,36.37,-86.45
34209,Bradenton,FL,Manatee County,America/New_York,27.48,-82.57
40202,Louisville,KY,Jefferson County,America/Kentucky/Louisville,38.22,-85.74
91502,Burbank,CA,Los Angeles County,America/Los_Angeles,34.17,-118.31
11368,Corona,NY,Queens County,America/New_York,40.74,-73.85
48876,Potterville,MI,Eaton County,America/Detroit,42.62,-84.74
21228,Catonsville,MD,Baltimore County,America/New_York,39.26,-76.74
50201,Nevada,IA,Story County,America/Chicago,42.01,-93.45
48197,Ypsilanti,MI,Washtenaw County,America/Detroit,42.24,-83.62
83815,Coeur D Alene,ID,Kootenai County,America/Los_Angeles,47.72,-116.75
45342,Miamisburg,OH,Montgomery County,America/New_York,39.63,-84.27
90701,Artesia,CA,Los Angeles County,America/Los_Angeles,33.86,-118.08
93702,Fresno,CA,Fresno County,America/Los_Angeles,36.74,-119.75
85024,Phoenix,AZ,Maricopa County,America/Phoenix,33.68,-112.04
91602,North Hollywood,CA,Los Angeles County,America/Los_Angeles,34.15,-118.36
32714,Altamonte Springs,FL,Seminole County,America/New_York,28.66,-81.39
23230,Richmond,VA,Henrico County,America/New_York,37.55,-77.46
38826,Belden,MS,Lee County,America/Chicago,34.27,-88.82
43055,Newark,OH,Licking County,America/New_York,40.06,-82.42
21093,Lutherville Timonium,MD,Baltimore County,America/New_York,39.43,-76.64
92507,Riverside,CA,Riverside County,America/Los_Angeles,33.96,-117.31
33405,West Palm Beach,FL,Palm Beach County,America/New_York,26.74,-80.12
48009,Birmingham,MI,Oakland County,America/Detroit,42.54,-83.21
55430,Minneapolis,MN,Hennepin County,America/Chicago,44.96,-93.26
91761,Ontario,CA,San Bernardino County,America/Los_Angeles,34.02,-117.58
80207,Denver,CO,Denver County,America/Denver,39.76,-104.87
78596,Weslaco,TX,Hidalgo County,America/Chicago,26.16,-97.98
70115,New Orleans,LA,Orleans Parish,America/Chicago,30.06,-89.93
24551,Forest,VA,Bedford County,America/New_York,37.37,-79.27
91606,North Hollywood,CA,Los Angeles County,America/Los_Angeles,34.18,-118.39
91304,Canoga Park,CA,Los Angeles County,America/Los_Angeles,34.22,-118.59
35476,Northport,AL,Tuscaloosa County,America/Chicago,33.24,-87.59
91020,Montrose,CA,Los Angeles County,America/Los_Angeles,34.21,-118.23
35951,Albertville,AL,Marshall County,America/Chicago,34.26,-86.2
14059,Elma,NY,Erie County,America/New_York,42.83,-78.63
89109,Las Vegas,NV,Clark County,America/Los_Angeles,36.11,-115.12
17102,Harrisburg,PA,Dauphin County,America/New_York,40.27,-76.88
44512,Youngstown,OH,Mahoning County,America/New_York,41.09,-80.64
14227,Buffalo,NY,Erie County,America/New_York,42.88,-78.85
33401,West Palm Beach,FL,Palm Beach County,America/New_York,26.74,-80.12
91505,Burbank,CA,Los Angeles County,America/Los_Angeles,34.17,-118.34
90640,Montebello,CA,Los Angeles County,America/Los_Angeles,34,-118.1
10468,Bronx,NY,Bronx County,America/New_York,40.84,-73.87
44628,Glenmont,OH,Holmes County,America/New_York,40.51,-82.09
14228,Buffalo,NY,Erie County,America/New_York,42.88,-78.85
33141,Miami Beach,FL,Miami-Dade County,America/New_York,25.77,-80.2
11237,Brooklyn,NY,Kings County,America/New_York,40.64,-73.94
92014,Del Mar,CA,San Diego County,America/Los_Angeles,32.96,-117.25
90731,San Pedro,CA,Los Angeles County,America/Los_Angeles,33.73,-118.29
95492,Windsor,CA,Sonoma County,America/Los_Angeles,38.53,-122.81
85020,Phoenix,AZ,Maricopa County,America/Phoenix,33.57,-112.05
34747,Kissimmee,FL,Osceola County,America/New_York,28.3,-81.41
33602,Tampa,FL,Hillsborough County,America/New_York,27.95,-82.48
80290,Denver,CO,Denver County,America/Denver,39.76,-104.87
77494,Katy,TX,Fort Bend County,America/Chicago,29.79,-95.82
77479,Sugar Land,TX,Fort Bend County,America/Chicago,29.61,-95.61
90404,Santa Monica,CA,Los Angeles County,America/Los_Angeles,34.02,-118.47
72802,Russellville,AR,Pope County,America/Chicago,35.27,-93.14
92651,Laguna Beach,CA,Orange County,America/Los_Angeles,33.55,-117.78
90024,Los Angeles,CA,Los Angeles County,America/Los_Angeles,34.06,-118.43
70117,New Orleans,LA,Orleans Parish,America/Chicago,30.06,-89.93
39402,Hattiesburg,MS,Lamar County,America/Chicago,31.31,-89.3
78722,Austin,TX,Travis County,America/Chicago,30.26,-97.74
10704,Yonkers,NY,Westchester County,America/New_York,40.94,-73.86
64105,Kansas City,MO,Jackson County,America/Chicago,39.09,-94.58
94940,Marshall,CA,Marin County,America/Los_Angeles,38.16,-122.84
16066,Cranberry Twp,PA,Butler County,America/New_York,40.71,-80.1
19047,Langhorne,PA,Bucks County,America/New_York,40.17,-74.91
77339,Kingwood,TX,Harris County,America/Chicago,29.99,-95.26
10474,Bronx,NY,Bronx County,America/New_York,40.84,-73.87
14580,Webster,NY,Monroe County,America/New_York,43.21,-77.42
60438,Lansing,IL,Cook County,America/Chicago,41.56,-87.54
77005,Houston,TX,Harris County,America/Chicago,29.76,-95.38
90274,Palos Verdes Peninsula,CA,Los Angeles County,America/Los_Angeles,33.77,-118.34
10463,Bronx,NY,Bronx County,America/New_York,40.84,-73.87
91321,Newhall,CA,Los Angeles County,America/Los_Angeles,34.36,-118.47
66047,Lawrence,KS,Douglas County,America/Chicago,38.96,-95.25
22202,Arlington,VA,Arlington County,America/New_York,38.87,-77.1
85085,Phoenix,AZ,Maricopa County,America/Phoenix,33.75,-112.14
46074,Westfield,IN,Hamilton County,America/Indiana/Indianapolis,40.04,-86.13
77338,Humble,TX,Harris County,America/Chicago,29.99,-95.26
33175,Miami,FL,Miami-Dade County,America/New_York,25.77,-80.2
83301,Twin Falls,ID,Twin Falls County,America/Boise,42.41,-114.59
64068,Liberty,MO,Clay County,America/Chicago,39.24,-94.41
91361,Westlake Village,CA,Ventura County,America/Los_Angeles,34.14,-118.89
33027,Hollywood,FL,Broward County,America/New_York,26.02,-80.16
75146,Lancaster,TX,Dallas County,America/Chicago,32.59,-96.78
94107,San Francisco,CA,San Francisco County,America/Los_Angeles,37.76,-122.39
77536,Deer Park,TX,Harris County,America/Chicago,29.69,-95.11
85268,Fountain Hills,AZ,Maricopa County,America/Phoenix,33.6,-111.74
87114,Albuquerque,NM,Bernalillo County,America/Denver,35.11,-106.62
86004,Flagstaff,AZ,Coconino County,America/Phoenix,35.29,-111.32
11692,Arverne,NY,Queens County,America/New_York,40.59,-73.79
30082,Smyrna,GA,Cobb County,America/New_York,33.86,-84.51
64076,Odessa,MO,Lafayette County,America/Chicago,38.99,-93.95
80501,Longmont,CO,Boulder County,America/Denver,40.17,-105.11
77096,Houston,TX,Harris County,America/Chicago,29.76,-95.38
92586,Sun City,CA,Riverside County,America/Los_Angeles,33.7,-117.19
83642,Meridian,ID,Ada County,America/Boise,43.59,-116.42
92865,Orange,CA,Orange County,America/Los_Angeles,33.83,-117.85
94546,Castro Valley,CA,Alameda County,America/Los_Angeles,37.7,-122.08
61036,Galena,IL,Jo Daviess County,America/Chicago,42.42,-90.42
91765,Diamond Bar,CA,Los Angeles County,America/Los_Angeles,33.99,-117.81
91723,Covina,CA,Los Angeles County,America/Los_Angeles,34.08,-117.88
46806,Fort Wayne,IN,Allen County,America/Indiana/Indianapolis,41.07,-85.13
21060,Glen Burnie,MD,Anne Arundel County,America/New_York,39.16,-76.6
11976,Water Mill,NY,Suffolk County,America/New_York,40.92,-72.34
64120,Kansas City,MO,Jackson County,America/Chicago,39.09,-94.58
92587,Sun City,CA,Riverside County,America/Los_Angeles,33.69,-117.24
89107,Las Vegas,NV,Clark County,America/Los_Angeles,36.17,-115.2
11234,Brooklyn,NY,Kings County,America/New_York,40.64,-73.94
35811,Huntsville,AL,Madison County,America/Chicago,34.7,-86.62
89139,Las Vegas,NV,Clark County,America/Los_Angeles,36.03,-115.21
93703,Fresno,CA,Fresno County,America/Los_Angeles,36.76,-119.76
77493,Katy,TX,Harris County,America/Chicago,29.79,-95.82
34953,Port Saint Lucie,FL,St Lucie County,America/New_York,27.27,-80.35
33433,Boca Raton,FL,Palm Beach County,America/New_York,26.37,-80.1
37922,Knoxville,TN,Knox County,America/New_York,35.97,-83.94
70065,Kenner,LA,Jefferson Parish,America/Chicago,29.99,-90.24
33767,Clearwater Beach,FL,Pinellas County,America/New_York,27.98,-82.82
54494,Wisconsin Rapids,WI,Wood County,America/Chicago,44.39,-89.83
76201,Denton,TX,Denton County,America/Chicago,33.21,-97.13
48220,Ferndale,MI,Oakland County,America/Detroit,42.45,-83.13
10458,Bronx,NY,Bronx County,America/New_York,40.84,-73.87
19125,Philadelphia,PA,Philadelphia County,America/New_York,39.95,-75.16
90071,Los Angeles,CA,Los Angeles County,America/Los_Angeles,34.05,-118.25
90740,Seal Beach,CA,Orange County,America/Los_Angeles,33.75,-118.07
22201,Arlington,VA,Arlington County,America/New_York,38.87,-77.1
90245,El Segundo,CA,Los Angeles County,America/Los_Angeles,33.91,-118.4
77019,Houston,TX,Harris County,America/Chicago,29.76,-95.38
11220,Brooklyn,NY,Kings County,America/New_York,40.64,-73.94
48114,Brighton,MI,Livingston County,America/Detroit,42.53,-83.78
77379,Spring,TX,Harris County,America/Chicago,30.06,-95.38
77318,Willis,TX,Montgomery County,America/Chicago,30.42,-95.47
78526,Brownsville,TX,Cameron County,America/Chicago,25.92,-97.48
10538,Larchmont,NY,Westchester County,America/New_York,40.92,-73.75
92374,Redlands,CA,San Bernardino County,America/Los_Angeles,34.06,-117.17
90058,Los Angeles,CA,Los Angeles County,America/Los_Angeles,34,-118.21
80206,Denver,CO,Denver County,America/Denver,39.76,-104.87
91311,Chatsworth,CA,Los Angeles County,America/Los_Angeles,34.28,-118.61
32935,Melbourne,FL,Brevard County,America/New_York,28.08,-80.6
80237,Denver,CO,Denver County,America/Denver,39.76,-104.87
77598,Webster,TX,Harris County,America/Chicago,29.53,-95.11
19033,Folsom,PA,Delaware County,America/New_York,39.89,-75.32
98404,Tacoma,WA,Pierce County,America/Los_Angeles,47.2,-122.4
35203,Birmingham,AL,Jefferson County,America/Chicago,33.52,-86.79
33068,Pompano Beach,FL,Broward County,America/New_York,26.23,-80.13
75686,Pittsburg,TX,Camp County,,32.99,-94.96
93921,Carmel By The Sea,CA,Monterey County,America/Los_Angeles,36.55,-121.92
14609,Rochester,NY,Monroe County,America/New_York,43.16,-77.61
98499,Lakewood,WA,Pierce County,America/Los_Angeles,47.16,-122.5
55303,Anoka,MN,Anoka County,America/Chicago,45.21,-93.39
32805,Orlando,FL,Orange County,America/New_York,28.5,-81.37
68102,Omaha,NE,Douglas County,America/Chicago,41.26,-96.01
60185,West Chicago,IL,Dupage County,America/Chicago,41.88,-88.22
78537,Donna,TX,Hidalgo County,America/Chicago,26.16,-98.05
15234,Pittsburgh,PA,Allegheny County,America/New_York,40.43,-79.97
33160,North Miami Beach,FL,Miami-Dade County,America/New_York,25.77,-80.2
70119,New Orleans,LA,Orleans Parish,America/Chicago,30.06,-89.93
85255,Scottsdale,AZ,Maricopa County,America/Phoenix,33.66,-111.87
32550,Miramar Beach,FL,Walton County,America/Chicago,30.39,-86.31
60156,Lake In The Hills,IL,McHenry County,America/Chicago,42.18,-88.34
33020,Hollywood,FL,Broward County,America/New_York,26.02,-80.16
27012,Clemmons,NC,Forsyth County,America/New_York,36.02,-80.38
84098,Park City,UT,Summit County,America/Denver,40.71,-111.55
11790,Stony Brook,NY,Suffolk County,America/New_York,40.9,-73.12
46403,Gary,IN,Lake County,America/Indiana/Indianapolis,41.59,-87.34
98134,Seattle,WA,King County,America/Los_Angeles,47.57,-122.33
60608,Chicago,IL,Cook County,America/Chicago,41.83,-87.68
32176,Ormond Beach,FL,Volusia County,America/New_York,29.28,-81.06
33480,Palm Beach,FL,Palm Beach County,America/New_York,26.69,-80.03
95966,Oroville,CA,Butte County,America/Los_Angeles,39.45,-121.39
15601,Greensburg,PA,Westmoreland County,America/New_York,40.31,-79.54
57006,Brookings,SD,Brookings County,America/Chicago,44.3,-96.78
45237,Cincinnati,OH,Hamilton County,America/New_York,39.09,-84.51
84401,Ogden,UT,Weber County,America/Denver,41.21,-111.97
84405,Ogden,UT,Weber County,America/Denver,41.15,-111.98
94562,Oakville,CA,Napa County,America/Los_Angeles,38.42,-122.4
90048,Los Angeles,CA,Los Angeles County,America/Los_Angeles,34.07,-118.37
32803,Orlando,FL,Orange County,America/New_York,28.5,-81.37
21207,Gwynn Oak,MD,Baltimore County,America/New_York,39.32,-76.72
18109,Allentown,PA,Lehigh County,America/New_York,40.59,-75.47
11102,Astoria,NY,Queens County,America/New_York,40.78,-73.91
23930,Crewe,VA,Nottoway County,America/New_York,37.18,-78.13
14304,Niagara Falls,NY,Niagara County,America/New_York,43.09,-79.01
94108,San Francisco,CA,San Francisco County,America/Los_Angeles,37.79,-122.4
15222,Pittsburgh,PA,Allegheny County,America/New_York,40.43,-79.97
33142,Miami,FL,Miami-Dade County,America/New_York,25.77,-80.2
33178,Miami,FL,Miami-Dade County,America/New_York,25.85,-80.41
94523,Pleasant Hill,CA,Contra Costa County,America/Los_Angeles,37.95,-122.07
80123,Littleton,CO,Denver County,America/Denver,39.59,-105.01
32656,Keystone Heights,FL,Clay County,America/New_York,29.78,-82.03
91350,Santa Clarita,CA,Los Angeles County,America/Los_Angeles,34.43,-118.51
45229,Cincinnati,OH,Hamilton County,America/New_York,39.09,-84.51
19114,Philadelphia,PA,Philadelphia County,America/New_York,39.95,-75.16
15672,New Stanton,PA,Westmoreland County,America/New_York,40.22,-79.6
55102,Saint Paul,MN,Ramsey County,America/Chicago,44.94,-93.1
34134,Bonita Springs,FL,Lee County,America/New_York,26.34,-81.78
48070,Huntington Woods,MI,Oakland County,America/Detroit,42.48,-83.16
14414,Avon,NY,Livingston County,America/New_York,42.91,-77.74
63141,Saint Louis,MO,St Louis County,America/Chicago,38.63,-90.24
66204,Overland Park,KS,Johnson County,America/Chicago,38.9,-94.68
10004,New York,NY,New York County,America/New_York,40.71,-73.99
11020,Great Neck,NY,Nassau County,America/New_York,40.8,-73.73
60604,Chicago,IL,Cook County,America/Chicago,41.83,-87.68
80113,Englewood,CO,Arapahoe County,America/Denver,39.64,-104.96
28208,Charlotte,NC,Mecklenburg County,America/New_York,35.19,-80.83
21703,Frederick,MD,Frederick County,America/New_York,39.42,-77.41
81005,Pueblo,CO,Pueblo County,America/Denver,38.27,-104.62
48334,Farmington,MI,Oakland County,America/Detroit,42.46,-83.37
90033,Los Angeles,CA,Los Angeles County,America/Los_Angeles,34.04,-118.21
44223,Cuyahoga Falls,OH,Summit County,America/New_York,41.16,-81.52
28412,Wilmington,NC,New Hanover County,America/New_York,34.21,-77.91
23451,Virginia Beach,VA,Virginia Beach City,America/New_York,36.73,-76.04
55344,Eden Prairie,MN,Hennepin County,America/Chicago,44.84,-93.45
32940,Melbourne,FL,Brevard County,America/New_York,28.08,-80.6
55057,Northfield,MN,Rice County,America/Chicago,44.45,-93.16
10314,Staten Island,NY,Richmond County,America/New_York,40.58,-74.14
57384,Wolsey,SD,Beadle County,America/Chicago,44.41,-98.47
75226,Dallas,TX,Dallas County,America/Chicago,32.79,-96.76
21224,Baltimore,MD,Baltimore City,America/New_York,39.3,-76.61
14072,Grand Island,NY,Erie County,America/New_York,43.01,-78.96
28301,Fayetteville,NC,Cumberland County,America/New_York,35.05,-78.87
60657,Chicago,IL,Cook County,America/Chicago,41.83,-87.68
96815,Honolulu,HI,Honolulu County,Pacific/Honolulu,21.3,-157.85
62650,Jacksonville,IL,Morgan County,America/Chicago,39.72,-90.23
94941,Mill Valley,CA,Marin County,America/Los_Angeles,37.89,-122.56
48069,Pleasant Ridge,MI,Oakland County,America/Detroit,42.47,-83.14
33444,Delray Beach,FL,Palm Beach County,America/New_York,26.45,-80.08
77433,Cypress,TX,Harris County,America/Chicago,29.96,-95.69
15001,Aliquippa,PA,Beaver County,America/New_York,40.61,-80.25
55406,Minneapolis,MN,Hennepin County,America/Chicago,44.96,-93.26
55408,Minneapolis,MN,Hennepin County,America/Chicago,44.96,-93.26
75206,Dallas,TX,Dallas County,America/Chicago,32.79,-96.76
10461,Bronx,NY,Bronx County,America/New_York,40.84,-73.87
30078,Snellville,GA,Gwinnett County,America/New_York,33.85,-84
18034,Center Valley,PA,Lehigh County,America/New_York,40.53,-75.42
96753,Kihei,HI,Maui County,Pacific/Honolulu,20.76,-156.45
92008,Carlsbad,CA,San Diego County,America/Los_Angeles,33.13,-117.3
44139,Solon,OH,Cuyahoga County,America/New_York,41.38,-81.44
15090,Wexford,PA,Allegheny County,America/New_York,40.63,-80.05
78064,Pleasanton,TX,Atascosa County,America/Chicago,28.96,-98.49
36832,Auburn,AL,Lee County,America/Chicago,32.59,-85.48
98110,Bainbridge Island,WA,Kitsap County,America/Los_Angeles,47.64,-122.53
98908,Yakima,WA,Yakima County,America/Los_Angeles,46.62,-120.69
85233,Gilbert,AZ,Maricopa County,America/Phoenix,33.34,-111.81
32256,Jacksonville,FL,Duval County,America/New_York,30.33,-81.65
48335,Farmington,MI,Oakland County,America/Detroit,42.46,-83.37
97210,Portland,OR,Multnomah County,America/Los_Angeles,45.55,-122.73
48315,Utica,MI,Macomb County,America/Detroit,42.62,-83.02
80246,Denver,CO,Arapahoe County,America/Denver,39.76,-104.87
79423,Lubbock,TX,Lubbock County,America/Chicago,33.57,-101.87
77963,Goliad,TX,Goliad County,America/Chicago,28.66,-97.39
76904,San Angelo,TX,Tom Green County,America/Chicago,31.44,-100.45
68130,Omaha,NE,Douglas County,America/Chicago,41.26,-96.01
48348,Clarkston,MI,Oakland County,America/Detroit,42.73,-83.42
53590,Sun Prairie,WI,Dane County,America/Chicago,43.18,-89.23
97402,Eugene,OR,Lane County,America/Los_Angeles,44.04,-123.22
92122,San Diego,CA,San Diego County,America/Los_Angeles,32.85,-117.2
74104,Tulsa,OK,Tulsa County,America/Chicago,36.12,-95.91
78557,Hidalgo,TX,Hidalgo County,America/Chicago,26.1,-98.25
20744,Fort Washington,MD,Prince George's County,America/New_York,38.73,-77
90755,Signal Hill,CA,Los Angeles County,America/Los_Angeles,33.8,-118.16
89101,Las Vegas,NV,Clark County,America/Los_Angeles,36.17,-115.12
81505,Grand Junction,CO,Mesa County,America/Denver,39.08,-108.55
32425,Bonifay,FL,Holmes County,,30.78,-85.68
21045,Columbia,MD,Howard County,America/New_York,39.2,-76.85
53051,Menomonee Falls,WI,Waukesha County,America/Chicago,43.14,-88.12
75110,Corsicana,TX,Navarro County,America/Chicago,32.08,-96.46
74361,Pryor,OK,Mayes County,America/Chicago,36.3,-95.32
59404,Great Falls,MT,Cascade County,America/Denver,47.65,-111.38
79772,Pecos,TX,Reeves County,America/Chicago,31.4,-103.5
75935,Center,TX,Shelby County,America/Chicago,31.79,-94.17
40243,Louisville,KY,Jefferson County,America/Kentucky/Louisville,38.22,-85.74
34479,Ocala,FL,Marion County,America/New_York,29.18,-82.13
43015,Delaware,OH,Delaware County,America/New_York,40.29,-83.08
49548,Grand Rapids,MI,Kent County,America/Detroit,42.96,-85.65
97230,Portland,OR,Multnomah County,America/Los_Angeles,45.54,-122.5
94061,Redwood City,CA,San Mateo County,America/Los_Angeles,37.46,-122.24
96744,Kaneohe,HI,Honolulu County,Pacific/Honolulu,21.41,-157.79
65775,West Plains,MO,Howell County,America/Chicago,36.74,-91.86
43130,Lancaster,OH,Fairfield County,America/New_York,39.72,-82.59
14625,Rochester,NY,Monroe County,America/New_York,43.16,-77.61
80517,Estes Park,CO,Larimer County,America/Denver,40.37,-105.52
11801,Hicksville,NY,Nassau County,America/New_York,40.76,-73.52
49546,Grand Rapids,MI,Kent County,America/Detroit,42.96,-85.65
78217,San Antonio,TX,Bexar County,America/Chicago,29.45,-98.5
70560,New Iberia,LA,Iberia Parish,America/Chicago,30,-91.81
76011,Arlington,TX,Tarrant County,America/Chicago,32.69,-97.12
71234,Downsville,LA,Union Parish,America/Chicago,32.62,-92.41
61265,Moline,IL,Rock Island County,America/Chicago,41.48,-90.48
45249,Cincinnati,OH,Hamilton County,America/New_York,39.09,-84.51
33701,Saint Petersburg,FL,Pinellas County,America/New_York,27.75,-82.64
19020,Bensalem,PA,Bucks County,America/New_York,40.1,-74.93
36201,Anniston,AL,Calhoun County,America/Chicago,33.66,-85.81
75093,Plano,TX,Collin County,America/Chicago,33.04,-96.74
85032,Phoenix,AZ,Maricopa County,America/Phoenix,33.62,-112
98272,Monroe,WA,Snohomish County,America/Los_Angeles,47.87,-121.88
75070,Mckinney,TX,Collin County,America/Chicago,33.2,-96.65
21784,Sykesville,MD,Carroll County,America/New_York,39.37,-76.97
39429,Columbia,MS,Marion County,America/Chicago,31.25,-89.82
23111,Mechanicsville,VA,Hanover County,America/New_York,37.62,-77.35
64113,Kansas City,MO,Jackson County,America/Chicago,39.09,-94.58
29412,Charleston,SC,Charleston County,America/New_York,32.78,-79.99
17104,Harrisburg,PA,Dauphin County,America/New_York,40.27,-76.88
35758,Madison,AL,Madison County,America/Chicago,34.7,-86.74
90039,Los Angeles,CA,Los Angeles County,America/Los_Angeles,34.11,-118.26
29223,Columbia,SC,Richland County,America/New_York,34,-81.03
85213,Mesa,AZ,Maricopa County,America/Phoenix,33.44,-111.76
37421,Chattanooga,TN,Hamilton County,America/New_York,35.06,-85.25
28078,Huntersville,NC,Mecklenburg County,America/New_York,35.41,-80.84
30305,Atlanta,GA,Fulton County,America/New_York,33.83,-84.38
60020,Fox Lake,IL,Lake County,America/Chicago,42.41,-88.18
49460,West Olive,MI,Ottawa County,America/Detroit,42.91,-86.12
98011,Bothell,WA,King County,America/Los_Angeles,47.74,-122.2
28714,Burnsville,NC,Yancey County,America/New_York,35.91,-82.29
22902,Charlottesville,VA,Albemarle County,America/New_York,38.03,-78.48
58801,Williston,ND,Williams County,America/Chicago,48.16,-103.63
28209,Charlotte,NC,Mecklenburg County,America/New_York,35.19,-80.83
91767,Pomona,CA,Los Angeles County,America/Los_Angeles,34.08,-117.73
53072,Pewaukee,WI,Waukesha County,America/Chicago,43.08,-88.25
30701,Calhoun,GA,Gordon County,America/New_York,34.49,-84.94
80111,Englewood,CO,Arapahoe County,America/Denver,39.64,-104.99
60130,Forest Park,IL,Cook County,America/Chicago,41.86,-87.81
76520,Cameron,TX,Milam County,America/Chicago,30.85,-96.97
44839,Huron,OH,Erie County,America/New_York,41.39,-82.56
27909,Elizabeth City,NC,Pasquotank County,America/New_York,36.29,-76.22
91360,Thousand Oaks,CA,Ventura County,America/Los_Angeles,34.21,-118.88
89011,Henderson,NV,Clark County,America/Los_Angeles,36.09,-114.9
90248,Gardena,CA,Los Angeles County,America/Los_Angeles,33.88,-118.27
77076,Houston,TX,Harris County,America/Chicago,29.76,-95.38
95476,Sonoma,CA,Sonoma County,America/Los_Angeles,38.24,-122.46
75652,Henderson,TX,Rusk County,America/Chicago,32.15,-94.79
32084,Saint Augustine,FL,St Johns County,America/New_York,29.89,-81.31
90278,Redondo Beach,CA,Los Angeles County,America/Los_Angeles,33.87,-118.37
23602,Newport News,VA,Newport News City,America/New_York,37.07,-76.51
94541,Hayward,CA,Alameda County,America/Los_Angeles,37.67,-122.08
55402,Minneapolis,MN,Hennepin County,America/Chicago,44.96,-93.26
95670,Rancho Cordova,CA,Sacramento County,America/Los_Angeles,38.6,-121.26
99344,Othello,WA,Adams County,America/Los_Angeles,46.8,-119.15
83705,Boise,ID,Ada County,America/Boise,43.56,-116.21
37934,Knoxville,TN,Knox County,America/New_York,35.87,-84.17
18951,Quakertown,PA,Bucks County,America/New_York,40.43,-75.34
56401,Brainerd,MN,Crow Wing County,America/Chicago,46.35,-94.19
33155,Miami,FL,Miami-Dade County,America/New_York,25.77,-80.2
36532,Fairhope,AL,Baldwin County,America/Chicago,30.51,-87.88
66223,Overland Park,KS,Johnson County,America/Chicago,38.9,-94.68
77082,Houston,TX,Harris County,America/Chicago,29.76,-95.38
60516,Downers Grove,IL,Dupage County,America/Chicago,41.79,-88.01
60451,New Lenox,IL,Will County,America/Chicago,41.51,-87.98
29745,York,SC,York County,America/New_York,34.99,-81.23
18414,Dalton,PA,Lackawanna County,America/New_York,41.53,-75.73
35007,Alabaster,AL,Shelby County,America/Chicago,33.22,-86.82
20715,Bowie,MD,Prince George's County,America/New_York,38.95,-76.73
30080,Smyrna,GA,Cobb County,America/New_York,33.86,-84.51
24588,Rustburg,VA,Campbell County,America/New_York,37.28,-79.1
10603,White Plains,NY,Westchester County,America/New_York,41.02,-73.75
33712,Saint Petersburg,FL,Pinellas County,America/New_York,27.75,-82.64
78362,Ingleside,TX,San Patricio County,America/Chicago,27.87,-97.2
15210,Pittsburgh,PA,Allegheny County,America/New_York,40.43,-79.97
49221,Adrian,MI,Lenawee County,America/Detroit,41.89,-84.04
76542,Killeen,TX,Bell County,America/Chicago,31.09,-97.71
33913,Fort Myers,FL,Lee County,America/New_York,26.63,-81.85
48093,Warren,MI,Macomb County,America/Detroit,42.49,-83.02
38343,Humboldt,TN,Gibson County,,35.82,-88.9
83843,Moscow,ID,Latah County,America/Los_Angeles,46.71,-116.91
13820,Oneonta,NY,Otsego County,America/New_York,42.45,-75.06
44236,Hudson,OH,Summit County,America/New_York,41.24,-81.45
33610,Tampa,FL,Hillsborough County,America/New_York,27.95,-82.48
41011,Covington,KY,Kenton County,America/Kentucky/Louisville,39.08,-84.5
33484,Delray Beach,FL,Palm Beach County,America/New_York,26.45,-80.08
93906,Salinas,CA,Monterey County,America/Los_Angeles,36.72,-121.63
63601,Park Hills,MO,St Francois County,America/Chicago,37.84,-90.52
30269,Peachtree City,GA,Fayette County,America/New_York,33.39,-84.56
79766,Odessa,TX,Ector County,America/Chicago,31.85,-102.36
45242,Cincinnati,OH,Hamilton County,America/New_York,39.09,-84.51
29301,Spartanburg,SC,Spartanburg County,America/New_York,34.94,-81.92
47130,Jeffersonville,IN,Clark County,America/Indiana/Indianapolis,38.3,-85.72
60005,Arlington Heights,IL,Cook County,America/Chicago,42.09,-87.98
37174,Spring Hill,TN,Maury County,,35.74,-86.92
95035,Milpitas,CA,Santa Clara County,America/Los_Angeles,37.44,-121.87
48328,Waterford,MI,Oakland County,America/Detroit,42.66,-83.38
84095,South Jordan,UT,Salt Lake County,America/Denver,40.55,-111.96
49009,Kalamazoo,MI,Kalamazoo County,America/Detroit,42.27,-85.58
98685,Vancouver,WA,Clark County,America/Los_Angeles,45.7,-122.69
11763,Medford,NY,Suffolk County,America/New_York,40.82,-72.98
46628,South Bend,IN,St Joseph County,America/Indiana/Indianapolis,41.67,-86.26
28339,Erwin,NC,Harnett County,America/New_York,35.32,-78.67
77064,Houston,TX,Harris County,America/Chicago,29.76,-95.38
95341,Merced,CA,Merced County,America/Los_Angeles,37.33,-120.48
30012,Conyers,GA,Rockdale County,America/New_York,33.66,-84.01
80233,Denver,CO,Adams County,America/Denver,39.76,-104.87
57216,Big Stone City,SD,Grant County,America/Chicago,45.29,-96.46
23219,Richmond,VA,Richmond City,America/New_York,37.55,-77.46
18042,Easton,PA,Northampton County,America/New_York,40.68,-75.22
85704,Tucson,AZ,Pima County,America/Phoenix,32.33,-110.98
44122,Beachwood,OH,Cuyahoga County,America/New_York,41.47,-81.5
85257,Scottsdale,AZ,Maricopa County,America/Phoenix,33.46,-111.92
76001,Arlington,TX,Tarrant County,America/Chicago,32.69,-97.12
21666,Stevensville,MD,Queen Anne's County,America/New_York,38.99,-76.3
76450,Graham,TX,Young County,America/Chicago,33.1,-98.57
46614,South Bend,IN,St Joseph County,America/Indiana/Indianapolis,41.67,-86.26
78229,San Antonio,TX,Bexar County,America/Chicago,29.45,-98.5
55443,Minneapolis,MN,Hennepin County,America/Chicago,44.96,-93.26
80124,Lone Tree,CO,Douglas County,America/Denver,39.59,-105.01
29910,Bluffton,SC,Beaufort County,America/New_York,32.23,-80.86
98241,Darrington,WA,Snohomish County,America/Los_Angeles,48.19,-121.53
15044,Gibsonia,PA,Allegheny County,America/New_York,40.63,-79.94
72055,Gillett,AR,Arkansas County,America/Chicago,34.11,-91.37
59801,Missoula,MT,Missoula County,America/Denver,46.85,-113.99
32038,Fort White,FL,Columbia County,America/New_York,29.92,-82.71
23106,Manquin,VA,King William County,America/New_York,37.7,-77.15
59436,Fairfield,MT,Teton County,America/Denver,47.64,-112.12
84101,Salt Lake City,UT,Salt Lake County,America/Denver,40.75,-111.9
21222,Dundalk,MD,Baltimore County,America/New_York,39.26,-76.49
34653,New Port Richey,FL,Pasco County,America/New_York,28.24,-82.71
15824,Brockway,PA,Jefferson County,America/New_York,41.24,-78.79
45373,Troy,OH,Miami County,America/New_York,40.04,-84.21
62467,Teutopolis,IL,Effingham County,America/Chicago,39.13,-88.47
27886,Tarboro,NC,Edgecombe County,America/New_York,35.9,-77.55
18706,Wilkes Barre,PA,Luzerne County,America/New_York,41.24,-75.87
40311,Carlisle,KY,Nicholas County,,38.31,-84.03
71111,Bossier City,LA,Bossier Parish,America/Chicago,32.51,-93.66
83350,Rupert,ID,Minidoka County,,42.7,-113.62
84404,Ogden,UT,Weber County,America/Denver,41.24,-112.13
40299,Louisville,KY,Jefferson County,America/Kentucky/Louisville,38.22,-85.74
91710,Chino,CA,San Bernardino County,America/Los_Angeles,33.98,-117.65
18321,Bartonsville,PA,Monroe County,America/New_York,41,-75.29
60563,Naperville,IL,Dupage County,America/Chicago,41.76,-88.15
32780,Titusville,FL,Brevard County,America/New_York,28.58,-80.82
79022,Dalhart,TX,Dallam County,America/Chicago,36.06,-102.51
43762,New Concord,OH,Muskingum County,America/New_York,39.99,-81.73
27513,Cary,NC,Wake County,America/New_York,35.78,-78.79
27713,Durham,NC,Durham County,America/New_York,35.98,-78.91
77345,Kingwood,TX,Harris County,America/Chicago,29.99,-95.26
19363,Oxford,PA,Chester County,America/New_York,39.78,-75.98
71861,Taylor,AR,Columbia County,America/Chicago,33.1,-93.46
53049,Malone,WI,Fond Du Lac County,America/Chicago,43.88,-88.28
92590,Temecula,CA,Riverside County,America/Los_Angeles,33.48,-117.22
87402,Farmington,NM,San Juan County,America/Denver,36.75,-108.18
62363,Pittsfield,IL,Pike County,America/Chicago,39.61,-90.8
77351,Livingston,TX,Polk County,America/Chicago,30.7,-94.93
98953,Zillah,WA,Yakima County,America/Los_Angeles,46.41,-120.23
98026,Edmonds,WA,Snohomish County,America/Los_Angeles,47.83,-122.32
45005,Franklin,OH,Warren County,America/New_York,39.55,-84.3
72761,Siloam Springs,AR,Benton County,America/Chicago,36.18,-94.54
95928,Chico,CA,Butte County,America/Los_Angeles,39.71,-121.81
38863,Pontotoc,MS,Pontotoc County,America/Chicago,34.24,-89
34480,Ocala,FL,Marion County,America/New_York,29.18,-82.13
35601,Decatur,AL,Morgan County,America/Chicago,34.57,-86.98
71378,Wisner,LA,Franklin Parish,America/Chicago,31.98,-91.65
33312,Fort Lauderdale,FL,Broward County,America/New_York,26.14,-80.13
77506,Pasadena,TX,Harris County,America/Chicago,29.66,-95.15
12065,Clifton Park,NY,Saratoga County,America/New_York,42.85,-73.8
60148,Lombard,IL,Dupage County,America/Chicago,41.87,-88.01
84528,Huntington,UT,Emery County,America/Denver,39.41,-111
75080,Richardson,TX,Dallas County,America/Chicago,32.97,-96.7
79707,Midland,TX,Midland County,America/Chicago,32.02,-102.1
30110,Bremen,GA,Haralson County,America/New_York,33.7,-85.15
42301,Owensboro,KY,Daviess County,America/Kentucky/Louisville,37.75,-87.11
10281,New York,NY,New York County,America/New_York,40.71,-73.99
30047,Lilburn,GA,Gwinnett County,America/New_York,33.88,-84.13
80238,Denver,CO,Denver County,America/Denver,39.76,-104.87
15656,Leechburg,PA,Westmoreland County,America/New_York,40.63,-79.6
33146,Miami,FL,Miami-Dade County,America/New_York,25.77,-80.2
19063,Media,PA,Delaware County,America/New_York,39.91,-75.38
60606,Chicago,IL,Cook County,America/Chicago,41.83,-87.68
89102,Las Vegas,NV,Clark County,America/Los_Angeles,36.14,-115.18
73134,Oklahoma City,OK,Oklahoma County,America/Chicago,35.46,-97.51
17538,Landisville,PA,Lancaster County,America/New_York,40.09,-76.41
76903,San Angelo,TX,Tom Green County,America/Chicago,31.44,-100.45
33511,Brandon,FL,Hillsborough County,America/New_York,27.92,-82.29
14891,Watkins Glen,NY,Schuyler County,America/New_York,42.38,-76.87
10280,New York,NY,New York County,America/New_York,40.71,-73.99
55415,Minneapolis,MN,Hennepin County,America/Chicago,44.96,-93.26
78624,Fredericksburg,TX,Gillespie County,America/Chicago,30.27,-98.87
33140,Miami Beach,FL,Miami-Dade County,America/New_York,25.77,-80.2
92117,San Diego,CA,San Diego County,America/Los_Angeles,32.81,-117.19
33606,Tampa,FL,Hillsborough County,America/New_York,27.95,-82.48
35630,Florence,AL,Lauderdale County,America/Chicago,34.82,-87.66
80211,Denver,CO,Denver County,America/Denver,39.76,-104.87
80022,Commerce City,CO,Adams County,America/Denver,39.86,-104.86
85388,Surprise,AZ,Maricopa County,America/Phoenix,33.61,-112.46
33308,Fort Lauderdale,FL,Broward County,America/New_York,26.14,-80.13
33054,Opa Locka,FL,Miami-Dade County,America/New_York,25.93,-80.26
45238,Cincinnati,OH,Hamilton County,America/New_York,39.09,-84.51
47905,Lafayette,IN,Tippecanoe County,America/Indiana/Indianapolis,40.41,-86.87
76226,Argyle,TX,Denton County,America/Chicago,33.11,-97.17
10151,New York,NY,New York County,America/New_York,40.71,-73.99
43907,Cadiz,OH,Harrison County,America/New_York,40.26,-80.99
50323,Urbandale,IA,Dallas County,America/Chicago,41.63,-93.74
45209,Cincinnati,OH,Hamilton County,America/New_York,39.09,-84.51
18936,Montgomeryville,PA,Montgomery County,America/New_York,40.24,-75.24
35213,Birmingham,AL,Jefferson County,America/Chicago,33.52,-86.79
32459,Santa Rosa Beach,FL,Walton County,America/Chicago,30.37,-86.22
52402,Cedar Rapids,IA,Linn County,America/Chicago,41.97,-91.66
52241,Coralville,IA,Johnson County,America/Chicago,41.69,-91.6
11105,Astoria,NY,Queens County,America/New_York,40.78,-73.91
71049,Logansport,LA,De Soto Parish,America/Chicago,31.97,-93.99
75032,Rockwall,TX,Rockwall County,America/Chicago,32.92,-96.45
43832,Newcomerstown,OH,Tuscarawas County,America/New_York,40.27,-81.59
75001,Addison,TX,Dallas County,America/Chicago,32.96,-96.83
27605,Raleigh,NC,Wake County,America/New_York,35.82,-78.65
60018,Des Plaines,IL,Cook County,America/Chicago,42.03,-87.9
32789,Winter Park,FL,Orange County,America/New_York,28.59,-81.34
90232,Culver City,CA,Los Angeles County,America/Los_Angeles,34.02,-118.39
14850,Ithaca,NY,Tompkins County,America/New_York,42.44,-76.5
89103,Las Vegas,NV,Clark County,America/Los_Angeles,36.11,-115.21
45415,Dayton,OH,Montgomery County,America/New_York,39.77,-84.19
60542,North Aurora,IL,Kane County,America/Chicago,41.8,-88.33
20121,Centreville,VA,Fairfax County,America/New_York,38.84,-77.44
60532,Lisle,IL,Dupage County,America/Chicago,41.79,-88.08
66502,Manhattan,KS,Riley County,America/Chicago,39.19,-96.59
37208,Nashville,TN,Davidson County,America/Chicago,36.17,-86.78
20815,Chevy Chase,MD,Montgomery County,America/New_York,38.98,-77.08
72201,Little Rock,AR,Pulaski County,America/Chicago,34.72,-92.35
31047,Kathleen,GA,Houston County,America/New_York,32.45,-83.58
30024,Suwanee,GA,Gwinnett County,America/New_York,34.05,-84.07
75068,Little Elm,TX,Denton County,America/Chicago,33.16,-96.93
72118,North Little Rock,AR,Pulaski County,America/Chicago,34.78,-92.25
94539,Fremont,CA,Alameda County,America/Los_Angeles,37.51,-121.89
78701,Austin,TX,Travis County,America/Chicago,30.26,-97.74
89145,Las Vegas,NV,Clark County,America/Los_Angeles,36.16,-115.28
91770,Rosemead,CA,Los Angeles County,America/Los_Angeles,34.06,-118.08
29033,Cayce,SC,Lexington County,America/New_York,33.95,-81.06
75208,Dallas,TX,Dallas County,America/Chicago,32.79,-96.76
43123,Grove City,OH,Franklin County,America/New_York,39.87,-83.07
46168,Plainfield,IN,Hendricks County,America/Indiana/Indianapolis,39.7,-86.38
46241,Indianapolis,IN,Marion County,America/Indiana/Indianapolis,39.77,-86.14
14445,East Rochester,NY,Monroe County,America/New_York,43.11,-77.48
93001,Ventura,CA,Ventura County,America/Los_Angeles,34.33,-119.31
90255,Huntington Park,CA,Los Angeles County,America/Los_Angeles,33.97,-118.21
36830,Auburn,AL,Lee County,America/Chicago,32.59,-85.48
13057,East Syracuse,NY,Onondaga County,America/New_York,43.06,-76.07
33261,Miami,FL,Miami-Dade County,America/New_York,25.77,-80.2
33566,Plant City,FL,Hillsborough County,America/New_York,28,-82.12
90040,Los Angeles,CA,Los Angeles County,America/Los_Angeles,33.99,-118.14
15215,Pittsburgh,PA,Allegheny County,America/New_York,40.43,-79.97
37209,Nashville,TN,Davidson County,America/Chicago,36.17,-86.78
52654,Wayland,IA,Henry County,America/Chicago,41.14,-91.65
78209,San Antonio,TX,Bexar County,America/Chicago,29.45,-98.5
85260,Scottsdale,AZ,Maricopa County,America/Phoenix,33.61,-111.89
70507,Lafayette,LA,Lafayette Parish,America/Chicago,30.21,-92.02
78213,San Antonio,TX,Bexar County,America/Chicago,29.45,-98.5
84111,Salt Lake City,UT,Salt Lake County,America/Denver,40.75,-111.88
30084,Tucker,GA,Dekalb County,America/New_York,33.85,-84.22
10469,Bronx,NY,Bronx County,America/New_York,40.84,-73.87
45056,Oxford,OH,Butler County,America/New_York,39.5,-84.74
81201,Salida,CO,Chaffee County,America/Denver,38.53,-106
11793,Wantagh,NY,Nassau County,America/New_York,40.66,-73.51
79711,Midland,TX,Midland County,America/Chicago,32.02,-102.1
98010,Black Diamond,WA,King County,America/Los_Angeles,47.32,-121.99
94002,Belmont,CA,San Mateo County,America/Los_Angeles,37.5,-122.3
52722,Bettendorf,IA,Scott County,America/Chicago,41.56,-90.47
92704,Santa Ana,CA,Orange County,America/Los_Angeles,33.71,-117.9
60026,Glenview,IL,Cook County,America/Chicago,42.08,-87.82
53593,Verona,WI,Dane County,America/Chicago,42.98,-89.53
57701,Rapid City,SD,Pennington County,America/Denver,44.07,-103.23
27603,Raleigh,NC,Wake County,America/New_York,35.82,-78.65
27602,Raleigh,NC,Wake County,America/New_York,35.82,-78.65
19129,Philadelphia,PA,Philadelphia County,America/New_York,39.95,-75.16
34787,Winter Garden,FL,Orange County,America/New_York,28.56,-81.58
14217,Buffalo,NY,Erie County,America/New_York,42.88,-78.85
60630,Chicago,IL,Cook County,America/Chicago,41.83,-87.68
20010,Washington,DC,District of Columbia,America/New_York,38.89,-77.03
33331,Fort Lauderdale,FL,Broward County,America/New_York,26.14,-80.13
33467,Lake Worth,FL,Palm Beach County,America/New_York,26.61,-80.05
11106,Astoria,NY,Queens County,America/New_York,40.78,-73.91
11709,Bayville,NY,Nassau County,America/New_York,40.9,-73.56
89027,Mesquite,NV,Clark County,America/Los_Angeles,36.78,-114.14
11590,Westbury,NY,Nassau County,America/New_York,40.75,-73.58
63303,Saint Charles,MO,St Charles County,America/Chicago,38.79,-90.51
11772,Patchogue,NY,Suffolk County,America/New_York,40.76,-73.01
27284,Kernersville,NC,Forsyth County,America/New_York,36.11,-80.07
90806,Long Beach,CA,Los Angeles County,America/Los_Angeles,33.81,-118.18
15238,Pittsburgh,PA,Allegheny County,America/New_York,40.43,-79.97
75069,Mckinney,TX,Collin County,America/Chicago,33.2,-96.65
55125,Saint Paul,MN,Washington County,America/Chicago,44.94,-93.1
14211,Buffalo,NY,Erie County,America/New_York,42.88,-78.85
92075,Solana Beach,CA,San Diego County,America/Los_Angeles,32.99,-117.25
78664,Round Rock,TX,Williamson County,America/Chicago,30.51,-97.67
94949,Novato,CA,Marin County,America/Los_Angeles,38.06,-122.54
94133,San Francisco,CA,San Francisco County,America/Los_Angeles,37.8,-122.41
17111,Harrisburg,PA,Dauphin County,America/New_York,40.27,-76.88
78681,Round Rock,TX,Williamson County,America/Chicago,30.51,-97.67
95403,Santa Rosa,CA,Sonoma County,America/Los_Angeles,38.5,-122.76
78702,Austin,TX,Travis County,America/Chicago,30.26,-97.74
17701,Williamsport,PA,Lycoming County,America/New_York,41.23,-77.03
49418,Grandville,MI,Kent County,America/Detroit,42.9,-85.75
22079,Lorton,VA,Fairfax County,America/New_York,38.7,-77.24
10709,Eastchester,NY,Westchester County,America/New_York,40.95,-73.8
11021,Great Neck,NY,Nassau County,America/New_York,40.8,-73.73
11950,Mastic,NY,Suffolk County,America/New_York,40.8,-72.84
95746,Granite Bay,CA,Placer County,America/Los_Angeles,38.76,-121.16
23462,Virginia Beach,VA,Virginia Beach City,America/New_York,36.73,-76.04
90016,Los Angeles,CA,Los Angeles County,America/Los_Angeles,34.02,-118.35
78218,San Antonio,TX,Bexar County,America/Chicago,29.45,-98.5
49525,Grand Rapids,MI,Kent County,America/Detroit,42.96,-85.65
60646,Chicago,IL,Cook County,America/Chicago,41.83,-87.68
80226,Denver,CO,Jefferson County,America/Denver,39.76,-104.87
10528,Harrison,NY,Westchester County,America/New_York,41.02,-73.72
44319,Akron,OH,Summit County,America/New_York,41.08,-81.52
74145,Tulsa,OK,Tulsa County,America/Chicago,36.12,-95.91
80011,Aurora,CO,Adams County,America/Denver,39.69,-104.81
85051,Phoenix,AZ,Maricopa County,America/Phoenix,33.55,-112.13
91731,El Monte,CA,Los Angeles County,America/Los_Angeles,34.08,-118.03
81631,Eagle,CO,Eagle County,America/Denver,39.65,-106.82
74701,Durant,OK,Bryan County,America/Chicago,33.98,-96.39
44212,Brunswick,OH,Medina County,America/New_York,41.24,-81.82
90260,Lawndale,CA,Los Angeles County,America/Los_Angeles,33.88,-118.35
84088,West Jordan,UT,Salt Lake County,America/Denver,40.58,-111.98
95054,Santa Clara,CA,Santa Clara County,America/Los_Angeles,37.39,-121.96
98037,Lynnwood,WA,Snohomish County,America/Los_Angeles,47.85,-122.28
53218,Milwaukee,WI,Milwaukee County,America/Chicago,43.06,-87.96
44145,Westlake,OH,Cuyahoga County,America/New_York,41.45,-81.92
33021,Hollywood,FL,Broward County,America/New_York,26.02,-80.16
67226,Wichita,KS,Sedgwick County,America/Chicago,37.68,-97.34
84121,Salt Lake City,UT,Salt Lake County,America/Denver,40.62,-111.71
78734,Austin,TX,Travis County,America/Chicago,30.26,-97.74
74120,Tulsa,OK,Tulsa County,America/Chicago,36.12,-95.91
85210,Mesa,AZ,Maricopa County,America/Phoenix,33.38,-111.84
48301,Bloomfield Hills,MI,Oakland County,America/Detroit,42.57,-83.24
32208,Jacksonville,FL,Duval County,America/New_York,30.33,-81.65
33172,Miami,FL,Miami-Dade County,America/New_York,25.79,-80.36
78758,Austin,TX,Travis County,America/Chicago,30.26,-97.74
29842,Beech Island,SC,Aiken County,America/New_York,33.48,-81.89
91754,Monterey Park,CA,Los Angeles County,America/Los_Angeles,34.05,-118.14
59715,Bozeman,MT,Gallatin County,America/Denver,45.77,-110.93
98683,Vancouver,WA,Clark County,America/Los_Angeles,45.6,-122.51
78613,Cedar Park,TX,Williamson County,America/Chicago,30.51,-97.83
16057,Slippery Rock,PA,Butler County,America/New_York,41.07,-80.06
85224,Chandler,AZ,Maricopa County,America/Phoenix,33.32,-111.87
23455,Virginia Beach,VA,Virginia Beach City,America/New_York,36.73,-76.04
98668,Vancouver,WA,Clark County,America/Los_Angeles,45.71,-122.62
90266,Manhattan Beach,CA,Los Angeles County,America/Los_Angeles,33.88,-118.4
30188,Woodstock,GA,Cherokee County,America/New_York,34.1,-84.51
67401,Salina,KS,Saline County,America/Chicago,38.81,-97.61
91016,Monrovia,CA,Los Angeles County,America/Los_Angeles,34.15,-117.99
75135,Caddo Mills,TX,Hunt County,America/Chicago,33.06,-96.22
55346,Eden Prairie,MN,Hennepin County,America/Chicago,44.84,-93.45
56387,Waite Park,MN,Stearns County,America/Chicago,45.55,-94.22
75082,Richardson,TX,Collin County,America/Chicago,32.97,-96.7
92868,Orange,CA,Orange County,America/Los_Angeles,33.78,-117.86
78731,Austin,TX,Travis County,America/Chicago,30.26,-97.74
70501,Lafayette,LA,Lafayette Parish,America/Chicago,30.21,-92.02
78757,Austin,TX,Travis County,America/Chicago,30.26,-97.74
43212,Columbus,OH,Franklin County,America/New_York,39.98,-82.98
38103,Memphis,TN,Shelby County,America/Chicago,35.1,-90
11901,Riverhead,NY,Suffolk County,America/New_York,40.94,-72.67
11704,West Babylon,NY,Suffolk County,America/New_York,40.71,-73.35
20170,Herndon,VA,Fairfax County,America/New_York,38.96,-77.38
44087,Twinsburg,OH,Summit County,America/New_York,41.32,-81.45
15084,Tarentum,PA,Allegheny County,America/New_York,40.6,-79.76
15722,Carrolltown,PA,Cambria County,America/New_York,40.6,-78.7
77375,Tomball,TX,Harris County,America/Chicago,30.09,-95.61
66105,Kansas City,KS,Wyandotte County,America/Chicago,39.1,-94.62
73107,Oklahoma City,OK,Oklahoma County,America/Chicago,35.46,-97.51
33133,Miami,FL,Miami-Dade County,America/New_York,25.77,-80.2
42501,Somerset,KY,Pulaski County,America/Kentucky/Louisville,37.08,-84.6
75237,Dallas,TX,Dallas County,America/Chicago,32.79,-96.76
14075,Hamburg,NY,Erie County,America/New_York,42.72,-78.83
10033,New York,NY,New York County,America/New_York,40.71,-73.99
48108,Ann Arbor,MI,Washtenaw County,America/Detroit,42.27,-83.73
30127,Powder Springs,GA,Cobb County,America/New_York,33.86,-84.68
32712,Apopka,FL,Orange County,America/New_York,28.68,-81.51
78228,San Antonio,TX,Bexar County,America/Chicago,29.45,-98.5
33122,Miami,FL,Miami-Dade County,America/New_York,25.79,-80.3
95678,Roseville,CA,Placer County,America/Los_Angeles,38.76,-121.28
14892,Waverly,NY,Tioga County,America/New_York,42.01,-76.52
23221,Richmond,VA,Richmond City,America/New_York,37.55,-77.46
11372,Jackson Heights,NY,Queens County,America/New_York,40.75,-73.88
90026,Los Angeles,CA,Los Angeles County,America/Los_Angeles,34.07,-118.26
19073,Newtown Square,PA,Delaware County,America/New_York,39.97,-75.43
32117,Daytona Beach,FL,Volusia County,America/New_York,29.19,-81.05
58701,Minot,ND,Ward County,America/Chicago,48.23,-101.29
58201,Grand Forks,ND,Grand Forks County,America/Chicago,47.91,-97.07
15668,Murrysville,PA,Westmoreland County,America/New_York,40.46,-79.67
10027,New York,NY,New York County,America/New_York,40.71,-73.99
58103,Fargo,ND,Cass County,America/Chicago,46.87,-96.81
10475,Bronx,NY,Bronx County,America/New_York,40.84,-73.87
10032,New York,NY,New York County,America/New_York,40.71,-73.99
75205,Dallas,TX,Dallas County,America/Chicago,32.79,-96.76
95204,Stockton,CA,San Joaquin County,America/Los_Angeles,37.97,-121.32
20011,Washington,DC,District of Columbia,America/New_York,38.89,-77.03
77018,Houston,TX,Harris County,America/Chicago,29.76,-95.38
44308,Akron,OH,Summit County,America/New_York,41.08,-81.52
76049,Granbury,TX,Hood County,America/Chicago,32.44,-97.78
10464,Bronx,NY,Bronx County,America/New_York,40.84,-73.87
43202,Columbus,OH,Franklin County,America/New_York,39.98,-82.98
77065,Houston,TX,Harris County,America/Chicago,29.76,-95.38
77029,Houston,TX,Harris County,America/Chicago,29.76,-95.38
38134,Memphis,TN,Shelby County,America/Chicago,35.1,-90
28036,Davidson,NC,Mecklenburg County,America/New_York,35.49,-80.84
46540,Middlebury,IN,Elkhart County,America/Indiana/Indianapolis,41.67,-85.7
28801,Asheville,NC,Buncombe County,America/New_York,35.57,-82.54
17820,Catawissa,PA,Columbia County,America/New_York,40.95,-76.46
24266,Lebanon,VA,Russell County,America/New_York,36.89,-82.07
75243,Dallas,TX,Dallas County,America/Chicago,32.79,-96.76
76629,Bremond,TX,Robertson County,America/Chicago,31.16,-96.67
40220,Louisville,KY,Jefferson County,America/Kentucky/Louisville,38.22,-85.74
81626,Craig,CO,Moffat County,America/Denver,40.52,-107.55
95626,Elverta,CA,Sacramento County,America/Los_Angeles,38.73,-121.46
44106,Cleveland,OH,Cuyahoga County,America/New_York,41.47,-81.67
76052,Haslet,TX,Tarrant County,America/Chicago,32.95,-97.33
33881,Winter Haven,FL,Polk County,America/New_York,28.04,-81.72
18974,Warminster,PA,Bucks County,America/New_York,40.21,-75.07
13309,Boonville,NY,Oneida County,America/New_York,43.48,-75.33
29650,Greer,SC,Greenville County,America/New_York,34.93,-82.23
84059,Orem,UT,Utah County,America/Denver,40.31,-111.72
46802,Fort Wayne,IN,Allen County,America/Indiana/Indianapolis,41.07,-85.13
32701,Altamonte Springs,FL,Seminole County,America/New_York,28.66,-81.39
33324,Fort Lauderdale,FL,Broward County,America/New_York,26.14,-80.13
19123,Philadelphia,PA,Philadelphia County,America/New_York,39.95,-75.16
84037,Kaysville,UT,Davis County,America/Denver,41.02,-111.92
58554,Mandan,ND,Morton County,,46.82,-100.88
76905,San Angelo,TX,Tom Green County,America/Chicago,31.44,-100.45
20850,Rockville,MD,Montgomery County,America/New_York,39.08,-77.15
76706,Waco,TX,McLennan County,America/Chicago,31.56,-97.18
60181,Villa Park,IL,Dupage County,America/Chicago,41.88,-87.97
27893,Wilson,NC,Wilson County,America/New_York,35.73,-77.92
43026,Hilliard,OH,Franklin County,America/New_York,40.03,-83.14
60478,Country Club Hills,IL,Cook County,America/Chicago,41.56,-87.72
98665,Vancouver,WA,Clark County,America/Los_Angeles,45.67,-122.66
90814,Long Beach,CA,Los Angeles County,America/Los_Angeles,33.77,-118.14
33487,Boca Raton,FL,Palm Beach County,America/New_York,26.37,-80.1
60515,Downers Grove,IL,Dupage County,America/Chicago,41.79,-88.01
97062,Tualatin,OR,Washington County,America/Los_Angeles,45.36,-122.75
48393,Wixom,MI,Oakland County,America/Detroit,42.52,-83.53
53202,Milwaukee,WI,Milwaukee County,America/Chicago,43.06,-87.96
10452,Bronx,NY,Bronx County,America/New_York,40.84,-73.87
75238,Dallas,TX,Dallas County,America/Chicago,32.79,-96.76
60641,Chicago,IL,Cook County,America/Chicago,41.83,-87.68
22601,Winchester,VA,Winchester City,America/New_York,39.17,-78.17
45217,Cincinnati,OH,Hamilton County,America/New_York,39.09,-84.51
47303,Muncie,IN,Delaware County,America/Indiana/Indianapolis,40.19,-85.39
26101,Parkersburg,WV,Wood County,America/New_York,39.26,-81.54
81302,Durango,CO,La Plata County,America/Denver,37.27,-107.88
85042,Phoenix,AZ,Maricopa County,America/Phoenix,33.37,-112.03
98092,Auburn,WA,King County,America/Los_Angeles,47.28,-122.1
40517,Lexington,KY,Fayette County,America/Kentucky/Louisville,38.04,-84.45
92115,San Diego,CA,San Diego County,America/Los_Angeles,32.75,-117.07
94611,Oakland,CA,Alameda County,America/Los_Angeles,37.83,-122.22
87113,Albuquerque,NM,Bernalillo County,America/Denver,35.11,-106.62
60106,Bensenville,IL,Dupage County,America/Chicago,41.95,-87.94
29607,Greenville,SC,Greenville County,America/New_York,34.83,-82.37
60016,Des Plaines,IL,Cook County,America/Chicago,42.03,-87.9
47948,Goodland,IN,Newton County,,40.76,-87.29
77067,Houston,TX,Harris County,America/Chicago,29.76,-95.38
75142,Kaufman,TX,Kaufman County,America/Chicago,32.58,-96.3
55369,Osseo,MN,Hennepin County,America/Chicago,45.11,-93.39
84117,Salt Lake City,UT,Salt Lake County,America/Denver,40.65,-111.83
97132,Newberg,OR,Yamhill County,America/Los_Angeles,45.32,-122.98
48326,Auburn Hills,MI,Oakland County,America/Detroit,42.67,-83.24
27587,Wake Forest,NC,Wake County,America/New_York,35.97,-78.52
94710,Berkeley,CA,Alameda County,America/Los_Angeles,37.87,-122.3
57107,Sioux Falls,SD,Minnehaha County,America/Chicago,43.54,-96.73
33556,Odessa,FL,Hillsborough County,,28.2,-82.59
76821,Ballinger,TX,Runnels County,America/Chicago,31.74,-99.95
47403,Bloomington,IN,Monroe County,America/Indiana/Indianapolis,39.16,-86.52
22936,Earlysville,VA,Albemarle County,America/New_York,38.15,-78.48
59718,Bozeman,MT,Gallatin County,America/Denver,45.65,-111.17
64506,Saint Joseph,MO,Buchanan County,America/Chicago,39.76,-94.85
45069,West Chester,OH,Butler County,America/New_York,39.33,-84.4
31904,Columbus,GA,Muscogee County,America/New_York,32.51,-84.87
90249,Gardena,CA,Los Angeles County,America/Los_Angeles,33.89,-118.31
92821,Brea,CA,Orange County,America/Los_Angeles,33.92,-117.86
30339,Atlanta,GA,Cobb County,America/New_York,33.86,-84.47
49424,Holland,MI,Ottawa County,America/Detroit,42.77,-86.1
90017,Los Angeles,CA,Los Angeles County,America/Los_Angeles,34.05,-118.26
53022,Germantown,WI,Washington County,America/Chicago,43.23,-88.12
33009,Hallandale,FL,Broward County,America/New_York,25.98,-80.14
78045,Laredo,TX,Webb County,America/Chicago,27.53,-99.48
39565,Vancleave,MS,Jackson County,America/Chicago,30.4,-88.8
77571,La Porte,TX,Harris County,America/Chicago,29.66,-95.04
79714,Andrews,TX,Andrews County,America/Chicago,32.32,-102.54
72764,Springdale,AR,Washington County,America/Chicago,36.18,-94.14
72404,Jonesboro,AR,Craighead County,America/Chicago,35.82,-90.68
49014,Battle Creek,MI,Calhoun County,America/Detroit,42.29,-85.22
28052,Gastonia,NC,Gaston County,America/New_York,35.25,-81.17
98004,Bellevue,WA,King County,America/Los_Angeles,47.61,-122.21
32910,Palm Bay,FL,Brevard County,America/New_York,27.98,-80.66
78642,Liberty Hill,TX,Williamson County,America/Chicago,30.66,-97.92
71106,Shreveport,LA,Caddo Parish,America/Chicago,32.47,-93.79
33928,Estero,FL,Lee County,America/New_York,26.44,-81.81
44092,Wickliffe,OH,Lake County,America/New_York,41.6,-81.46
14621,Rochester,NY,Monroe County,America/New_York,43.16,-77.61
48026,Fraser,MI,Macomb County,America/Detroit,42.53,-82.94
20187,Warrenton,VA,Fauquier County,America/New_York,38.71,-77.79
92675,San Juan Capistrano,CA,Orange County,America/Los_Angeles,33.52,-117.61
80918,Colorado Springs,CO,El Paso County,America/Denver,38.86,-104.76
33136,Miami,FL,Miami-Dade County,America/New_York,25.77,-80.2
48116,Brighton,MI,Livingston County,America/Detroit,42.53,-83.78
78570,Mercedes,TX,Hidalgo County,America/Chicago,26.14,-97.92
55404,Minneapolis,MN,Hennepin County,America/Chicago,44.96,-93.26
93230,Hanford,CA,Kings County,America/Los_Angeles,36.27,-119.63
93030,Oxnard,CA,Ventura County,America/Los_Angeles,34.19,-119.17
77378,Willis,TX,Montgomery County,America/Chicago,30.42,-95.47
97458,Myrtle Point,OR,Coos County,America/Los_Angeles,43.06,-124.03
37402,Chattanooga,TN,Hamilton County,America/New_York,35.06,-85.25
76262,Roanoke,TX,Denton County,,33,-97.23
85004,Phoenix,AZ,Maricopa County,America/Phoenix,33.44,-112.07
63366,O Fallon,MO,St Charles County,America/Chicago,38.78,-90.7
76033,Cleburne,TX,Johnson County,America/Chicago,32.34,-97.4
30022,Alpharetta,GA,Fulton County,America/New_York,34.06,-84.27
29720,Lancaster,SC,Lancaster County,America/New_York,34.72,-80.77
28173,Waxhaw,NC,Union County,America/New_York,34.92,-80.74
97008,Beaverton,OR,Washington County,America/Los_Angeles,45.45,-122.79
75078,Prosper,TX,Collin County,America/Chicago,33.24,-96.78
37135,Nolensville,TN,Williamson County,America/Chicago,35.94,-86.64
16630,Cresson,PA,Cambria County,America/New_York,40.46,-78.58
75040,Garland,TX,Dallas County,America/Chicago,32.91,-96.62
95340,Merced,CA,Merced County,America/Los_Angeles,37.29,-120.48
96819,Honolulu,HI,Honolulu County,Pacific/Honolulu,21.3,-157.85
93063,Simi Valley,CA,Ventura County,America/Los_Angeles,34.3,-118.72
73433,Elmore City,OK,Garvin County,America/Chicago,34.62,-97.39
52537,Bloomfield,IA,Davis County,America/Chicago,40.74,-92.41
13060,Elbridge,NY,Onondaga County,America/New_York,43.03,-76.44
92078,San Marcos,CA,San Diego County,America/Los_Angeles,33.11,-117.16
96150,South Lake Tahoe,CA,El Dorado County,America/Los_Angeles,38.84,-120.01
11569,Point Lookout,NY,Nassau County,America/New_York,40.59,-73.58
81301,Durango,CO,La Plata County,America/Denver,37.27,-107.88
76856,Mason,TX,Mason County,America/Chicago,30.74,-99.23
33323,Fort Lauderdale,FL,Broward County,America/New_York,26.14,-80.13
30052,Loganville,GA,Walton County,America/New_York,33.83,-83.89
55449,Minneapolis,MN,Anoka County,America/Chicago,44.96,-93.26
75789,Troup,TX,Cherokee County,,32.14,-95.12
27103,Winston Salem,NC,Forsyth County,America/New_York,36.1,-80.24
91205,Glendale,CA,Los Angeles County,America/Los_Angeles,34.13,-118.24
32046,Hilliard,FL,Nassau County,America/New_York,30.69,-81.92
60160,Melrose Park,IL,Cook County,America/Chicago,41.9,-87.86
56277,Olivia,MN,Renville County,America/Chicago,44.77,-94.99
80129,Littleton,CO,Douglas County,America/Denver,39.54,-105
79045,Hereford,TX,Deaf Smith County,America/Chicago,34.82,-102.39
75028,Flower Mound,TX,Denton County,America/Chicago,33.02,-97.09
79765,Odessa,TX,Ector County,America/Chicago,31.85,-102.36
94538,Fremont,CA,Alameda County,America/Los_Angeles,37.5,-121.96
37027,Brentwood,TN,Williamson County,America/Chicago,35.99,-86.78
21037,Edgewater,MD,Anne Arundel County,America/New_York,38.9,-76.54
76109,Fort Worth,TX,Tarrant County,America/Chicago,32.75,-97.33
67213,Wichita,KS,Sedgwick County,America/Chicago,37.68,-97.34
80219,Denver,CO,Denver County,America/Denver,39.76,-104.87
90221,Compton,CA,Los Angeles County,America/Los_Angeles,33.87,-118.21
72758,Rogers,AR,Benton County,America/Chicago,36.33,-94.13
92860,Norco,CA,Riverside County,America/Los_Angeles,33.93,-117.56
95630,Folsom,CA,Sacramento County,America/Los_Angeles,38.67,-121.14
11516,Cedarhurst,NY,Nassau County,America/New_York,40.62,-73.72
48187,Canton,MI,Wayne County,America/Detroit,42.3,-83.48
98108,Seattle,WA,King County,America/Los_Angeles,47.54,-122.31
91506,Burbank,CA,Los Angeles County,America/Los_Angeles,34.17,-118.32
11231,Brooklyn,NY,Kings County,America/New_York,40.64,-73.94
48346,Clarkston,MI,Oakland County,America/Detroit,42.73,-83.42
53212,Milwaukee,WI,Milwaukee County,America/Chicago,43.06,-87.96
60610,Chicago,IL,Cook County,America/Chicago,41.83,-87.68
84341,Logan,UT,Cache County,America/Denver,41.85,-111.7
45013,Hamilton,OH,Butler County,America/New_York,39.39,-84.56
34109,Naples,FL,Collier County,America/New_York,26.14,-81.79
11572,Oceanside,NY,Nassau County,America/New_York,40.63,-73.63
92867,Orange,CA,Orange County,America/Los_Angeles,33.81,-117.79
90230,Culver City,CA,Los Angeles County,America/Los_Angeles,33.99,-118.39
77546,Friendswood,TX,Galveston County,America/Chicago,29.51,-95.19
34242,Sarasota,FL,Sarasota County,America/New_York,27.33,-82.54
56082,Saint Peter,MN,Nicollet County,America/Chicago,44.32,-93.96
93940,Monterey,CA,Monterey County,America/Los_Angeles,36.6,-121.88
76244,Keller,TX,Tarrant County,America/Chicago,32.93,-97.22
98104,Seattle,WA,King County,America/Los_Angeles,47.6,-122.32
75090,Sherman,TX,Grayson County,America/Chicago,33.61,-96.6
54618,Camp Douglas,WI,Juneau County,America/Chicago,43.91,-90.26
77032,Houston,TX,Harris County,America/Chicago,29.76,-95.38
77505,Pasadena,TX,Harris County,America/Chicago,29.66,-95.15
18078,Schnecksville,PA,Lehigh County,America/New_York,40.67,-75.61
43240,Columbus,OH,Delaware County,America/New_York,39.98,-82.98
55923,Chatfield,MN,Fillmore County,America/Chicago,43.84,-92.18
23005,Ashland,VA,Hanover County,America/New_York,37.76,-77.47
50310,Des Moines,IA,Polk County,America/Chicago,41.57,-93.61
95762,El Dorado Hills,CA,El Dorado County,America/Los_Angeles,38.68,-121.05
94025,Menlo Park,CA,San Mateo County,America/Los_Angeles,37.45,-122.17
30126,Mableton,GA,Cobb County,America/New_York,33.81,-84.56
34689,Tarpon Springs,FL,Pinellas County,America/New_York,28.14,-82.78
75501,Texarkana,TX,Bowie County,America/Chicago,33.44,-94.07
17404,York,PA,York County,America/New_York,39.96,-76.73
98370,Poulsbo,WA,Kitsap County,America/Los_Angeles,47.75,-122.61
39462,New Augusta,MS,Perry County,America/Chicago,31.2,-89.02
88203,Roswell,NM,Chaves County,America/Denver,33.33,-104.52
98444,Tacoma,WA,Pierce County,America/Los_Angeles,47.15,-122.44
29440,Georgetown,SC,Georgetown County,America/New_York,33.36,-79.29
75024,Plano,TX,Collin County,America/Chicago,33.04,-96.74
79530,Lawn,TX,Taylor County,America/Chicago,32.13,-99.75
79331,Lamesa,TX,Dawson County,America/Chicago,32.73,-101.95
75202,Dallas,TX,Dallas County,America/Chicago,32.79,-96.76
84003,American Fork,UT,Utah County,America/Denver,40.39,-111.78
28204,Charlotte,NC,Mecklenburg County,America/New_York,35.19,-80.83
57201,Watertown,SD,Codington County,America/Chicago,44.91,-97.16
10303,Staten Island,NY,Richmond County,America/New_York,40.58,-74.14
61254,Geneseo,IL,Henry County,America/Chicago,41.44,-90.15
97362,Mount Angel,OR,Marion County,America/Los_Angeles,45.06,-122.76
58763,New Town,ND,Mountrail County,America/Chicago,47.98,-102.49
33025,Hollywood,FL,Broward County,America/New_York,26.02,-80.16
60560,Yorkville,IL,Kendall County,America/Chicago,41.64,-88.44
83352,Shoshone,ID,Lincoln County,America/Boise,43.11,-114.4
28205,Charlotte,NC,Mecklenburg County,America/New_York,35.19,-80.83
75231,Dallas,TX,Dallas County,America/Chicago,32.79,-96.76
93292,Visalia,CA,Tulare County,America/Los_Angeles,36.37,-119.18
87031,Los Lunas,NM,Valencia County,America/Denver,34.81,-106.73
90022,Los Angeles,CA,Los Angeles County,America/Los_Angeles,34.02,-118.15
88220,Carlsbad,NM,Eddy County,America/Denver,32.4,-104.23
33071,Pompano Beach,FL,Broward County,America/New_York,26.23,-80.13
85259,Scottsdale,AZ,Maricopa County,America/Phoenix,33.68,-111.73
91403,Sherman Oaks,CA,Los Angeles County,America/Los_Angeles,34.14,-118.46
21202,Baltimore,MD,Baltimore City,America/New_York,39.3,-76.61
93309,Bakersfield,CA,Kern County,America/Los_Angeles,35.34,-119.07
85326,Buckeye,AZ,Maricopa County,America/Phoenix,33.38,-112.55
34736,Groveland,FL,Lake County,America/New_York,28.56,-81.85
22180,Vienna,VA,Fairfax County,America/New_York,38.9,-77.26
63104,Saint Louis,MO,St Louis City,America/Chicago,38.63,-90.24
85747,Tucson,AZ,Pima County,America/Phoenix,32.1,-110.68
17331,Hanover,PA,York County,America/New_York,39.81,-76.98
32713,Debary,FL,Volusia County,America/New_York,28.88,-81.32
91320,Newbury Park,CA,Ventura County,America/Los_Angeles,34.17,-118.95
64055,Independence,MO,Jackson County,America/Chicago,39.08,-94.35
73128,Oklahoma City,OK,Oklahoma County,America/Chicago,35.46,-97.51
24151,Rocky Mount,VA,Franklin County,America/New_York,36.99,-79.89
33441,Deerfield Beach,FL,Broward County,America/New_York,26.31,-80.12
21044,Columbia,MD,Howard County,America/New_York,39.2,-76.85
45385,Xenia,OH,Greene County,America/New_York,39.68,-83.94
50313,Des Moines,IA,Polk County,America/Chicago,41.57,-93.61
37415,Chattanooga,TN,Hamilton County,America/New_York,35.06,-85.25
19809,Wilmington,DE,New Castle County,America/New_York,39.73,-75.53
55088,Webster,MN,Rice County,America/Chicago,44.5,-93.34
37206,Nashville,TN,Davidson County,America/Chicago,36.17,-86.78
39090,Kosciusko,MS,Attala County,America/Chicago,33.05,-89.58
99301,Pasco,WA,Franklin County,America/Los_Angeles,46.41,-118.9
66856,Lebo,KS,Coffey County,,38.41,-95.85
32817,Orlando,FL,Orange County,America/New_York,28.5,-81.37
33065,Pompano Beach,FL,Broward County,America/New_York,26.23,-80.13
32608,Gainesville,FL,Alachua County,America/New_York,29.67,-82.33
34741,Kissimmee,FL,Osceola County,America/New_York,28.3,-81.41
32073,Orange Park,FL,Clay County,America/New_York,30.16,-81.7
33609,Tampa,FL,Hillsborough County,America/New_York,27.95,-82.48
32303,Tallahassee,FL,Leon County,America/New_York,30.45,-84.28
33618,Tampa,FL,Hillsborough County,America/New_York,27.95,-82.48
40228,Louisville,KY,Jefferson County,America/Kentucky/Louisville,38.22,-85.74
92509,Riverside,CA,Riverside County,America/Los_Angeles,33.99,-117.44
32810,Orlando,FL,Orange County,America/New_York,28.5,-81.37
28428,Carolina Beach,NC,New Hanover County,America/New_York,34.04,-77.89
38801,Tupelo,MS,Lee County,America/Chicago,34.26,-88.73
45241,Cincinnati,OH,Hamilton County,America/New_York,39.09,-84.51
27376,West End,NC,Moore County,America/New_York,35.24,-79.53
33544,Wesley Chapel,FL,Pasco County,America/New_York,28.23,-82.17
60602,Chicago,IL,Cook County,America/Chicago,41.83,-87.68
33309,Fort Lauderdale,FL,Broward County,America/New_York,26.14,-80.13
20854,Potomac,MD,Montgomery County,America/New_York,39.02,-77.19
93250,Mc Farland,CA,Kern County,America/Los_Angeles,35.65,-119.19
66219,Lenexa,KS,Johnson County,America/Chicago,38.9,-94.68
19072,Narberth,PA,Montgomery County,America/New_York,40,-75.26
78124,Marion,TX,Guadalupe County,,29.57,-98.14
68114,Omaha,NE,Douglas County,America/Chicago,41.26,-96.01
44403,Brookfield,OH,Trumbull County,America/New_York,41.26,-80.57
35960,Centre,AL,Cherokee County,America/Chicago,34.15,-85.67
16319,Cranberry,PA,Venango County,America/New_York,41.35,-79.72
75602,Longview,TX,Gregg County,America/Chicago,32.51,-94.76
39701,Columbus,MS,Lowndes County,America/Chicago,33.5,-88.4
70544,Jeanerette,LA,Iberia Parish,America/Chicago,29.91,-91.67
34240,Sarasota,FL,Sarasota County,America/New_York,27.33,-82.54
66207,Overland Park,KS,Johnson County,America/Chicago,38.9,-94.68
78801,Uvalde,TX,Uvalde County,America/Chicago,29.21,-99.78
13021,Auburn,NY,Cayuga County,America/New_York,42.93,-76.56
54701,Eau Claire,WI,Eau Claire County,America/Chicago,44.82,-91.49
91607,Valley Village,CA,Los Angeles County,America/Los_Angeles,34.16,-118.4
77445,Hempstead,TX,Waller County,America/Chicago,30.09,-96.08
75494,Winnsboro,TX,Wood County,America/Chicago,32.95,-95.28
20622,Charlotte Hall,MD,Charles County,America/New_York,38.47,-76.78
73127,Oklahoma City,OK,Oklahoma County,America/Chicago,35.46,-97.51
88130,Portales,NM,Roosevelt County,America/Denver,34.18,-103.34
47240,Greensburg,IN,Decatur County,America/Indiana/Indianapolis,39.34,-85.48
92646,Huntington Beach,CA,Orange County,America/Los_Angeles,33.66,-117.97
98021,Bothell,WA,Snohomish County,America/Los_Angeles,47.79,-122.2
77802,Bryan,TX,Brazos County,America/Chicago,30.66,-96.36
99780,Tok,AK,Southeast Fairbanks Census Area,America/Anchorage,63.66,-143.19
31404,Savannah,GA,Chatham County,America/New_York,32.08,-81.1
98028,Kenmore,WA,King County,America/Los_Angeles,47.75,-122.24
92067,Rancho Santa Fe,CA,San Diego County,America/Los_Angeles,33.02,-117.19
20024,Washington,DC,District of Columbia,America/New_York,38.89,-77.03
12110,Latham,NY,Albany County,America/New_York,42.74,-73.74
30534,Dawsonville,GA,Dawson County,America/New_York,34.42,-84.11
70503,Lafayette,LA,Lafayette Parish,America/Chicago,30.21,-92.02
97367,Lincoln City,OR,Lincoln County,America/Los_Angeles,44.94,-123.94
29201,Columbia,SC,Richland County,America/New_York,34,-81.03
37219,Nashville,TN,Davidson County,America/Chicago,36.17,-86.78
31405,Savannah,GA,Chatham County,America/New_York,32.08,-81.1
30297,Forest Park,GA,Clayton County,America/New_York,33.61,-84.35
30066,Marietta,GA,Cobb County,America/New_York,33.95,-84.54
73102,Oklahoma City,OK,Oklahoma County,America/Chicago,35.46,-97.51
59101,Billings,MT,Yellowstone County,America/Denver,45.65,-108.38
48170,Plymouth,MI,Wayne County,,42.37,-83.46
11964,Shelter Island,NY,Suffolk County,America/New_York,41.06,-72.32
34102,Naples,FL,Collier County,America/New_York,26.14,-81.79
78751,Austin,TX,Travis County,America/Chicago,30.26,-97.74
29609,Greenville,SC,Greenville County,America/New_York,34.83,-82.37
73768,Ringwood,OK,Major County,America/Chicago,36.38,-98.24
33314,Fort Lauderdale,FL,Broward County,America/New_York,26.14,-80.13
35548,Brilliant,AL,Marion County,America/Chicago,34.01,-87.77
22655,Stephens City,VA,Frederick County,America/New_York,39.09,-78.22
33801,Lakeland,FL,Polk County,America/New_York,28.04,-81.96
58203,Grand Forks,ND,Grand Forks County,America/Chicago,47.91,-97.07
44718,Canton,OH,Stark County,America/New_York,40.81,-81.37
70112,New Orleans,LA,Orleans Parish,America/Chicago,30.06,-89.93
10034,New York,NY,New York County,America/New_York,40.71,-73.99
11719,Brookhaven,NY,Suffolk County,America/New_York,40.78,-72.91
65721,Ozark,MO,Christian County,America/Chicago,37.01,-93.2
32708,Winter Springs,FL,Seminole County,America/New_York,28.68,-81.27
90802,Long Beach,CA,Los Angeles County,America/Los_Angeles,33.75,-118.2
11103,Astoria,NY,Queens County,America/New_York,40.78,-73.91
44481,Warren,OH,Trumbull County,America/New_York,41.23,-80.81
76234,Decatur,TX,Wise County,,33.23,-97.59
15219,Pittsburgh,PA,Allegheny County,America/New_York,40.43,-79.97
61109,Rockford,IL,Winnebago County,America/Chicago,42.27,-89.06
55921,Caledonia,MN,Houston County,America/Chicago,43.63,-91.5
91942,La Mesa,CA,San Diego County,America/Los_Angeles,32.78,-117.01
23704,Portsmouth,VA,Portsmouth City,America/New_York,36.83,-76.29
28403,Wilmington,NC,New Hanover County,America/New_York,34.21,-77.91
94306,Palo Alto,CA,Santa Clara County,America/Los_Angeles,37.41,-122.13
76028,Burleson,TX,Johnson County,America/Chicago,32.53,-97.32
79912,El Paso,TX,El Paso County,America/Denver,31.84,-106.43
43214,Columbus,OH,Franklin County,America/New_York,39.98,-82.98
21219,Sparrows Point,MD,Baltimore County,America/New_York,39.22,-76.43
42325,Bremen,KY,Muhlenberg County,America/Kentucky/Louisville,37.36,-87.21
55410,Minneapolis,MN,Hennepin County,America/Chicago,44.96,-93.26
91706,Baldwin Park,CA,Los Angeles County,America/Los_Angeles,34.09,-117.96
14092,Lewiston,NY,Niagara County,America/New_York,43.17,-79.04
87109,Albuquerque,NM,Bernalillo County,America/Denver,35.11,-106.62
76008,Aledo,TX,Parker County,America/Chicago,32.69,-97.6
82001,Cheyenne,WY,Laramie County,America/Denver,41.14,-104.79
11221,Brooklyn,NY,Kings County,America/New_York,40.64,-73.94
94080,South San Francisco,CA,San Mateo County,America/Los_Angeles,37.65,-122.42
15201,Pittsburgh,PA,Allegheny County,America/New_York,40.43,-79.97
30152,Kennesaw,GA,Cobb County,America/New_York,34.02,-84.61
65203,Columbia,MO,Boone County,America/Chicago,38.95,-92.32
11563,Lynbrook,NY,Nassau County,America/New_York,40.65,-73.67
84084,West Jordan,UT,Salt Lake County,America/Denver,40.62,-111.98
85012,Phoenix,AZ,Maricopa County,America/Phoenix,33.5,-112.07
34491,Summerfield,FL,Marion County,America/New_York,29,-82.03
43017,Dublin,OH,Franklin County,America/New_York,40.11,-83.13
20902,Silver Spring,MD,Montgomery County,America/New_York,39.01,-77.02
30307,Atlanta,GA,Dekalb County,America/New_York,33.76,-84.33
18020,Bethlehem,PA,Northampton County,America/New_York,40.62,-75.36
42103,Bowling Green,KY,Warren County,America/Kentucky/Louisville,36.97,-86.44
94526,Danville,CA,Contra Costa County,America/Los_Angeles,37.81,-121.97
15317,Canonsburg,PA,Washington County,America/New_York,40.26,-80.18
71301,Alexandria,LA,Rapides Parish,America/Chicago,31.29,-92.46
57105,Sioux Falls,SD,Minnehaha County,America/Chicago,43.54,-96.73
98036,Lynnwood,WA,Snohomish County,America/Los_Angeles,47.8,-122.28
55424,Minneapolis,MN,Hennepin County,America/Chicago,44.96,-93.26
33445,Delray Beach,FL,Palm Beach County,America/New_York,26.45,-80.08
43702,Zanesville,OH,Muskingum County,America/New_York,39.95,-82.01
49686,Traverse City,MI,Grand Traverse County,America/Detroit,44.75,-85.6
33128,Miami,FL,Miami-Dade County,America/New_York,25.77,-80.2
48201,Detroit,MI,Wayne County,America/Detroit,42.38,-83.1
22556,Stafford,VA,Stafford County,America/New_York,38.42,-77.4
94619,Oakland,CA,Alameda County,America/Los_Angeles,37.78,-122.12
60504,Aurora,IL,Dupage County,America/Chicago,41.76,-88.29
10174,New York,NY,New York County,America/New_York,40.71,-73.99
40513,Lexington,KY,Fayette County,America/Kentucky/Louisville,38.04,-84.45
14305,Niagara Falls,NY,Niagara County,America/New_York,43.09,-79.01
92617,Irvine,CA,Orange County,America/Los_Angeles,33.63,-117.83
91601,North Hollywood,CA,Los Angeles County,America/Los_Angeles,34.16,-118.37
11232,Brooklyn,NY,Kings County,America/New_York,40.64,-73.94
92105,San Diego,CA,San Diego County,America/Los_Angeles,32.73,-117.08
33410,Palm Beach Gardens,FL,Palm Beach County,America/New_York,26.74,-80.12
83686,Nampa,ID,Canyon County,America/Boise,43.49,-116.61
22304,Alexandria,VA,Alexandria City,America/New_York,38.82,-77.08
11755,Lake Grove,NY,Suffolk County,America/New_York,40.85,-73.11
85014,Phoenix,AZ,Maricopa County,America/Phoenix,33.5,-112.05
79701,Midland,TX,Midland County,America/Chicago,32.02,-102.1
72712,Bentonville,AR,Benton County,America/Chicago,36.36,-94.2
19804,Wilmington,DE,New Castle County,America/New_York,39.73,-75.53
93637,Madera,CA,Madera County,America/Los_Angeles,36.91,-120.19
14026,Bowmansville,NY,Erie County,America/New_York,42.94,-78.68
44314,Akron,OH,Summit County,America/New_York,41.08,-81.52
44264,Peninsula,OH,Summit County,America/New_York,41.23,-81.55
88345,Ruidoso,NM,Lincoln County,America/Denver,33.36,-105.64
11552,West Hempstead,NY,Nassau County,America/New_York,40.69,-73.65
20016,Washington,DC,District of Columbia,America/New_York,38.89,-77.03
19143,Philadelphia,PA,Philadelphia County,America/New_York,39.95,-75.16
11238,Brooklyn,NY,Kings County,America/New_York,40.64,-73.94
21206,Baltimore,MD,Baltimore City,America/New_York,39.3,-76.61
55372,Prior Lake,MN,Scott County,America/Chicago,44.72,-93.43
33706,Saint Petersburg,FL,Pinellas County,America/New_York,27.75,-82.64
20176,Leesburg,VA,Loudoun County,America/New_York,39.1,-77.55
33156,Miami,FL,Miami-Dade County,America/New_York,25.77,-80.2
76210,Denton,TX,Denton County,America/Chicago,33.14,-97.06
19026,Drexel Hill,PA,Delaware County,America/New_York,39.94,-75.3
21043,Ellicott City,MD,Howard County,America/New_York,39.27,-76.83
51108,Sioux City,IA,Woodbury County,America/Chicago,42.5,-96.39
61550,Morton,IL,Tazewell County,America/Chicago,40.61,-89.46
33563,Plant City,FL,Hillsborough County,America/New_York,28.01,-82.14
20759,Fulton,MD,Howard County,America/New_York,39.15,-76.92
40222,Louisville,KY,Jefferson County,America/Kentucky/Louisville,38.22,-85.74
33510,Brandon,FL,Hillsborough County,America/New_York,27.92,-82.29
23113,Midlothian,VA,Chesterfield County,America/New_York,37.5,-77.63
55311,Osseo,MN,Hennepin County,America/Chicago,45.11,-93.39
15147,Verona,PA,Allegheny County,America/New_York,40.5,-79.84
76401,Stephenville,TX,Erath County,America/Chicago,32.21,-98.21
32110,Bunnell,FL,Flagler County,America/New_York,29.46,-81.25
76111,Fort Worth,TX,Tarrant County,America/Chicago,32.75,-97.33
49265,Onsted,MI,Lenawee County,America/Detroit,42,-84.19
48381,Milford,MI,Oakland County,America/Detroit,42.58,-83.6
95113,San Jose,CA,Santa Clara County,America/Los_Angeles,37.33,-121.89
95632,Galt,CA,Sacramento County,America/Los_Angeles,38.27,-121.22
92399,Yucaipa,CA,San Bernardino County,America/Los_Angeles,34.04,-117.01
48362,Lake Orion,MI,Oakland County,America/Detroit,42.78,-83.24
70815,Baton Rouge,LA,East Baton Rouge Parish,America/Chicago,30.44,-91.12
26508,Morgantown,WV,Monongalia County,America/New_York,39.63,-79.94
55426,Minneapolis,MN,Hennepin County,America/Chicago,44.96,-93.26
32958,Sebastian,FL,Indian River County,America/New_York,27.78,-80.48
73012,Edmond,OK,Oklahoma County,America/Chicago,35.65,-97.52
92128,San Diego,CA,San Diego County,America/Los_Angeles,32.99,-117.07
67030,Colwich,KS,Sedgwick County,America/Chicago,37.78,-97.53
54173,Suamico,WI,Brown County,America/Chicago,44.63,-88.05
59808,Missoula,MT,Missoula County,America/Denver,46.98,-114.12
68512,Lincoln,NE,Lancaster County,America/Chicago,40.81,-96.68
38732,Cleveland,MS,Bolivar County,America/Chicago,33.74,-90.72
78374,Portland,TX,San Patricio County,America/Chicago,27.87,-97.32
95652,Mcclellan,CA,Sacramento County,America/Los_Angeles,38.66,-121.4
79705,Midland,TX,Midland County,America/Chicago,32.02,-102.1
74804,Shawnee,OK,Pottawatomie County,America/Chicago,35.33,-96.91
49468,Grandville,MI,Kent County,America/Detroit,42.9,-85.75
59313,Baker,MT,Fallon County,America/Denver,46.28,-104.28
78380,Robstown,TX,Nueces County,America/Chicago,27.79,-97.66
50325,Clive,IA,Polk County,America/Chicago,41.6,-93.76
84606,Provo,UT,Utah County,America/Denver,40.21,-111.61
76458,Jacksboro,TX,Jack County,America/Chicago,33.22,-98.15
93256,Pixley,CA,Tulare County,America/Los_Angeles,35.95,-119.31
80549,Wellington,CO,Larimer County,America/Denver,40.7,-105
74006,Bartlesville,OK,Washington County,America/Chicago,36.73,-95.94
43021,Galena,OH,Delaware County,America/New_York,40.22,-82.88
77575,Liberty,TX,Liberty County,America/Chicago,30.04,-94.79
76426,Bridgeport,TX,Wise County,America/Chicago,33.2,-97.75
70445,Lacombe,LA,St Tammany Parish,America/Chicago,30.3,-89.92
30071,Norcross,GA,Gwinnett County,America/New_York,33.94,-84.2
80836,Stratton,CO,Kit Carson County,America/Denver,39.3,-102.6
37932,Knoxville,TN,Knox County,America/New_York,35.97,-83.94
29936,Ridgeland,SC,Jasper County,America/New_York,32.48,-80.98
77057,Houston,TX,Harris County,America/Chicago,29.76,-95.38
35806,Huntsville,AL,Madison County,America/Chicago,34.7,-86.62
46220,Indianapolis,IN,Marion County,America/Indiana/Indianapolis,39.77,-86.14
62501,Argenta,IL,Macon County,America/Chicago,39.98,-88.81
48044,Macomb,MI,Macomb County,America/Detroit,42.66,-82.91
90292,Marina Del Rey,CA,Los Angeles County,America/Los_Angeles,33.97,-118.43
79404,Lubbock,TX,Lubbock County,America/Chicago,33.57,-101.87
80634,Greeley,CO,Weld County,America/Denver,40.42,-104.74
23666,Hampton,VA,Hampton City,America/New_York,37.04,-76.29
45419,Dayton,OH,Montgomery County,America/New_York,39.77,-84.19
79409,Lubbock,TX,Lubbock County,America/Chicago,33.57,-101.87
90604,Whittier,CA,Los Angeles County,America/Los_Angeles,33.93,-118
95610,Citrus Heights,CA,Sacramento County,America/Los_Angeles,38.69,-121.26
95912,Arbuckle,CA,Colusa County,America/Los_Angeles,39.02,-122.04
19312,Berwyn,PA,Chester County,America/New_York,40.03,-75.44
89141,Las Vegas,NV,Clark County,America/Los_Angeles,35.97,-115.21
85029,Phoenix,AZ,Maricopa County,America/Phoenix,33.59,-112.1
91405,Van Nuys,CA,Los Angeles County,America/Los_Angeles,34.2,-118.44
97504,Medford,OR,Jackson County,America/Los_Angeles,42.33,-122.79
97333,Corvallis,OR,Benton County,America/Los_Angeles,44.46,-123.34
60102,Algonquin,IL,McHenry County,America/Chicago,42.16,-88.3
68505,Lincoln,NE,Lancaster County,America/Chicago,40.81,-96.68
66762,Pittsburg,KS,Crawford County,,37.41,-94.69
32114,Daytona Beach,FL,Volusia County,America/New_York,29.19,-81.05
84123,Salt Lake City,UT,Salt Lake County,America/Denver,40.65,-111.92
53189,Waukesha,WI,Waukesha County,America/Chicago,43.01,-88.23
11206,Brooklyn,NY,Kings County,America/New_York,40.64,-73.94
85249,Chandler,AZ,Maricopa County,America/Phoenix,33.24,-111.78
33442,Deerfield Beach,FL,Broward County,America/New_York,26.31,-80.12
11581,Valley Stream,NY,Nassau County,America/New_York,40.66,-73.7
33702,Saint Petersburg,FL,Pinellas County,America/New_York,27.75,-82.64
32931,Cocoa Beach,FL,Brevard County,America/New_York,28.33,-80.62
95112,San Jose,CA,Santa Clara County,America/Los_Angeles,37.34,-121.88
14127,Orchard Park,NY,Erie County,America/New_York,42.76,-78.74
64505,Saint Joseph,MO,Buchanan County,America/Chicago,39.76,-94.85
83440,Rexburg,ID,Madison County,America/Boise,43.78,-111.76
81130,Creede,CO,Mineral County,America/Denver,37.85,-106.92
43025,Hebron,OH,Licking County,America/New_York,39.96,-82.49
98292,Stanwood,WA,Snohomish County,America/Los_Angeles,48.21,-122.28
78744,Austin,TX,Travis County,America/Chicago,30.26,-97.74
20132,Purcellville,VA,Loudoun County,America/New_York,39.13,-77.71
80135,Sedalia,CO,Douglas County,America/Denver,39.43,-104.97
90723,Paramount,CA,Los Angeles County,America/Los_Angeles,33.89,-118.16
32207,Jacksonville,FL,Duval County,America/New_York,30.33,-81.65
53018,Delafield,WI,Waukesha County,America/Chicago,43.06,-88.39
43701,Zanesville,OH,Muskingum County,America/New_York,39.95,-82.01
60527,Willowbrook,IL,Dupage County,America/Chicago,41.8,-87.92
11743,Huntington,NY,Suffolk County,America/New_York,40.87,-73.4
53012,Cedarburg,WI,Ozaukee County,America/Chicago,43.29,-87.98
33426,Boynton Beach,FL,Palm Beach County,America/New_York,26.52,-80.08
68022,Elkhorn,NE,Douglas County,America/Chicago,41.28,-96.23
90038,Los Angeles,CA,Los Angeles County,America/Los_Angeles,34.08,-118.32
77429,Cypress,TX,Harris County,America/Chicago,29.96,-95.69
85281,Tempe,AZ,Maricopa County,America/Phoenix,33.43,-111.91
63026,Fenton,MO,St Louis County,America/Chicago,38.53,-90.45
10940,Middletown,NY,Orange County,America/New_York,41.44,-74.42
80216,Denver,CO,Denver County,America/Denver,39.76,-104.87
46290,Indianapolis,IN,Hamilton County,America/Indiana/Indianapolis,39.77,-86.14
96797,Waipahu,HI,Honolulu County,Pacific/Honolulu,21.39,-158.01
99224,Spokane,WA,Spokane County,America/Los_Angeles,47.63,-117.55
43085,Columbus,OH,Franklin County,America/New_York,39.98,-82.98
29642,Easley,SC,Pickens County,America/New_York,34.82,-82.58
92111,San Diego,CA,San Diego County,America/Los_Angeles,32.8,-117.16
54313,Green Bay,WI,Brown County,America/Chicago,44.52,-87.98
29072,Lexington,SC,Lexington County,America/New_York,33.98,-81.22
32501,Pensacola,FL,Escambia County,America/Chicago,30.44,-87.18
82935,Green River,WY,Sweetwater County,America/Denver,41.51,-109.46
63010,Arnold,MO,Jefferson County,America/Chicago,38.42,-90.36
84057,Orem,UT,Utah County,America/Denver,40.31,-111.71
95076,Watsonville,CA,Santa Cruz County,America/Los_Angeles,36.95,-121.72
63301,Saint Charles,MO,St Charles County,America/Chicago,38.79,-90.51
33125,Miami,FL,Miami-Dade County,America/New_York,25.77,-80.2
33811,Lakeland,FL,Polk County,America/New_York,28.04,-81.96
78645,Leander,TX,Travis County,America/Chicago,30.56,-97.86
80807,Burlington,CO,Kit Carson County,America/Denver,39.3,-102.27
83539,Kooskia,ID,Idaho County,America/Los_Angeles,46.08,-115.86
89005,Boulder City,NV,Clark County,America/Los_Angeles,35.91,-114.8
56379,Sauk Rapids,MN,Benton County,America/Chicago,45.59,-94.16
47421,Bedford,IN,Lawrence County,America/Indiana/Indianapolis,38.86,-86.49
49315,Byron Center,MI,Kent County,,42.81,-85.72
56201,Willmar,MN,Kandiyohi County,America/Chicago,45.12,-95.04
52205,Anamosa,IA,Jones County,America/Chicago,42.1,-91.28
23322,Chesapeake,VA,Chesapeake City,America/New_York,36.67,-76.3
11236,Brooklyn,NY,Kings County,America/New_York,40.64,-73.94
33169,Miami,FL,Miami-Dade County,America/New_York,25.77,-80.2
21216,Baltimore,MD,Baltimore City,America/New_York,39.3,-76.61
85262,Scottsdale,AZ,Maricopa County,America/Phoenix,33.85,-111.78
79703,Midland,TX,Midland County,America/Chicago,32.02,-102.1
97502,Central Point,OR,Jackson County,America/Los_Angeles,42.39,-122.93
89431,Sparks,NV,Washoe County,America/Los_Angeles,39.53,-119.73
46804,Fort Wayne,IN,Allen County,America/Indiana/Indianapolis,41.07,-85.13
75692,Waskom,TX,Harrison County,America/Chicago,32.47,-94.06
33461,Lake Worth,FL,Palm Beach County,America/New_York,26.61,-80.05
37617,Blountville,TN,Sullivan County,America/New_York,36.53,-82.32
90277,Redondo Beach,CA,Los Angeles County,America/Los_Angeles,33.83,-118.38
12901,Plattsburgh,NY,Clinton County,America/New_York,44.69,-73.45
47060,West Harrison,IN,Dearborn County,,39.26,-84.82
58316,Belcourt,ND,Rolette County,America/Chicago,48.84,-99.74
99654,Wasilla,AK,Matanuska-Susitna Borough,America/Anchorage,61.52,-149.57
49659,Mancelona,MI,Antrim County,,44.9,-85.06
78164,Yorktown,TX,De Witt County,America/Chicago,28.98,-97.5
90808,Long Beach,CA,Los Angeles County,America/Los_Angeles,33.82,-118.11
78708,Austin,TX,Travis County,America/Chicago,30.26,-97.74
36301,Dothan,AL,Houston County,America/Chicago,31.23,-85.4
75455,Mount Pleasant,TX,Titus County,America/Chicago,33.16,-94.97
77342,Huntsville,TX,Walker County,America/Chicago,30.71,-95.54
33138,Miami,FL,Miami-Dade County,America/New_York,25.77,-80.2
33472,Boynton Beach,FL,Palm Beach County,America/New_York,26.53,-80.19
45840,Findlay,OH,Hancock County,America/New_York,41.04,-83.64
44708,Canton,OH,Stark County,America/New_York,40.81,-81.37
88211,Artesia,NM,Eddy County,America/Denver,32.84,-104.43
47842,Clinton,IN,Vermillion County,,39.66,-87.4
60613,Chicago,IL,Cook County,America/Chicago,41.83,-87.68
77386,Spring,TX,Montgomery County,America/Chicago,30.06,-95.38
98144,Seattle,WA,King County,America/Los_Angeles,47.58,-122.3
71901,Hot Springs National Park,AR,Garland County,America/Chicago,34.5,-93.05
41073,Bellevue,KY,Campbell County,America/Kentucky/Louisville,39.1,-84.47
72401,Jonesboro,AR,Craighead County,America/Chicago,35.82,-90.68
38344,Huntingdon,TN,Carroll County,America/Chicago,36,-88.41
13471,Taberg,NY,Oneida County,America/New_York,43.3,-75.61
38117,Memphis,TN,Shelby County,America/Chicago,35.1,-90
13850,Vestal,NY,Broome County,America/New_York,42.08,-76.05
15237,Pittsburgh,PA,Allegheny County,America/New_York,40.43,-79.97
78247,San Antonio,TX,Bexar County,America/Chicago,29.45,-98.5
94509,Antioch,CA,Contra Costa County,America/Los_Angeles,37.99,-121.81
90402,Santa Monica,CA,Los Angeles County,America/Los_Angeles,34.03,-118.5
27403,Greensboro,NC,Guilford County,America/New_York,36.07,-79.82
89144,Las Vegas,NV,Clark County,America/Los_Angeles,36.17,-115.31
90034,Los Angeles,CA,Los Angeles County,America/Los_Angeles,34.02,-118.39
98922,Cle Elum,WA,Kittitas County,America/Los_Angeles,47.2,-120.9
98057,Renton,WA,King County,America/Los_Angeles,47.48,-122.19
58854,Watford City,ND,McKenzie County,,47.8,-103.27
20006,Washington,DC,District of Columbia,America/New_York,38.89,-77.03
96820,Honolulu,HI,Honolulu County,Pacific/Honolulu,21.3,-157.85
44720,North Canton,OH,Stark County,America/New_York,40.81,-81.37
75860,Teague,TX,Freestone County,America/Chicago,31.63,-96.28
11720,Centereach,NY,Suffolk County,America/New_York,40.87,-73.08
32174,Ormond Beach,FL,Volusia County,America/New_York,29.28,-81.06
33319,Fort Lauderdale,FL,Broward County,America/New_York,26.14,-80.13
64112,Kansas City,MO,Jackson County,America/Chicago,39.09,-94.58
60201,Evanston,IL,Cook County,America/Chicago,42.04,-87.68
96002,Redding,CA,Shasta County,America/Los_Angeles,40.52,-122.32
78745,Austin,TX,Travis County,America/Chicago,30.26,-97.74
78705,Austin,TX,Travis County,America/Chicago,30.26,-97.74
13502,Utica,NY,Oneida County,America/New_York,43.1,-75.23
80610,Ault,CO,Weld County,America/Denver,40.58,-104.73
92227,Brawley,CA,Imperial County,America/Los_Angeles,33.02,-115.45
80919,Colorado Springs,CO,El Paso County,America/Denver,38.86,-104.76
97232,Portland,OR,Multnomah County,America/Los_Angeles,45.52,-122.64
78411,Corpus Christi,TX,Nueces County,America/Chicago,27.8,-97.39
66205,Mission,KS,Johnson County,America/Chicago,38.9,-94.68
11040,New Hyde Park,NY,Nassau County,America/New_York,40.73,-73.68
33486,Boca Raton,FL,Palm Beach County,America/New_York,26.37,-80.1
11501,Mineola,NY,Nassau County,America/New_York,40.74,-73.63
70448,Mandeville,LA,St Tammany Parish,America/Chicago,30.37,-90.08
30311,Atlanta,GA,Fulton County,America/New_York,33.76,-84.42
80214,Denver,CO,Jefferson County,America/Denver,39.76,-104.87
80203,Denver,CO,Denver County,America/Denver,39.76,-104.87
80465,Morrison,CO,Jefferson County,America/Denver,39.65,-105.18
80014,Aurora,CO,Arapahoe County,America/Denver,39.69,-104.81
60304,Oak Park,IL,Cook County,America/Chicago,41.88,-87.78
53151,New Berlin,WI,Waukesha County,America/Chicago,42.97,-88.12
77046,Houston,TX,Harris County,America/Chicago,29.76,-95.38
64086,Lees Summit,MO,Jackson County,America/Chicago,38.91,-94.38
98107,Seattle,WA,King County,America/Los_Angeles,47.66,-122.38
94301,Palo Alto,CA,Santa Clara County,America/Los_Angeles,37.44,-122.15
91204,Glendale,CA,Los Angeles County,America/Los_Angeles,34.13,-118.26
44870,Sandusky,OH,Erie County,America/New_York,41.45,-82.71
32541,Destin,FL,Okaloosa County,America/Chicago,30.4,-86.49
60071,Richmond,IL,McHenry County,America/Chicago,42.48,-88.3
29456,Ladson,SC,Charleston County,America/New_York,33,-80.1
75215,Dallas,TX,Dallas County,America/Chicago,32.79,-96.76
11768,Northport,NY,Suffolk County,America/New_York,40.9,-73.34
24501,Lynchburg,VA,Lynchburg City,America/New_York,37.4,-79.19
55419,Minneapolis,MN,Hennepin County,America/Chicago,44.96,-93.26
75056,The Colony,TX,Denton County,America/Chicago,33.09,-96.88
30065,Marietta,GA,Cobb County,America/New_York,33.95,-84.54
12524,Fishkill,NY,Dutchess County,America/New_York,41.53,-73.89
19127,Philadelphia,PA,Philadelphia County,America/New_York,39.95,-75.16
14606,Rochester,NY,Monroe County,America/New_York,43.16,-77.61
20722,Brentwood,MD,Prince George's County,America/New_York,38.94,-76.95
34110,Naples,FL,Collier County,America/New_York,26.14,-81.79
10523,Elmsford,NY,Westchester County,America/New_York,41.05,-73.81
13495,Yorkville,NY,Oneida County,America/New_York,43.11,-75.27
28212,Charlotte,NC,Mecklenburg County,America/New_York,35.19,-80.83
75248,Dallas,TX,Dallas County,America/Chicago,32.79,-96.76
35223,Birmingham,AL,Jefferson County,America/Chicago,33.52,-86.79
85048,Phoenix,AZ,Maricopa County,America/Phoenix,33.28,-112.03
17036,Hummelstown,PA,Dauphin County,America/New_York,40.26,-76.71
28215,Charlotte,NC,Mecklenburg County,America/New_York,35.19,-80.83
48083,Troy,MI,Oakland County,America/Detroit,42.58,-83.14
32839,Orlando,FL,Orange County,America/New_York,28.5,-81.37
19355,Malvern,PA,Chester County,America/New_York,40.03,-75.51
60609,Chicago,IL,Cook County,America/Chicago,41.83,-87.68
30655,Monroe,GA,Walton County,America/New_York,33.79,-83.71
54913,Appleton,WI,Outagamie County,America/Chicago,44.26,-88.39
19038,Glenside,PA,Montgomery County,America/New_York,40.1,-75.15
90293,Playa Del Rey,CA,Los Angeles County,America/Los_Angeles,33.94,-118.44
76513,Belton,TX,Bell County,America/Chicago,31.06,-97.46
44134,Cleveland,OH,Cuyahoga County,America/New_York,41.47,-81.67
80002,Arvada,CO,Jefferson County,America/Denver,39.82,-105.1
94507,Alamo,CA,Contra Costa County,America/Los_Angeles,37.84,-121.97
92315,Big Bear Lake,CA,San Bernardino County,America/Los_Angeles,34.23,-116.86
19044,Horsham,PA,Montgomery County,America/New_York,40.18,-75.13
73069,Norman,OK,Cleveland County,America/Chicago,35.22,-97.34
77449,Katy,TX,Harris County,America/Chicago,29.79,-95.82
10451,Bronx,NY,Bronx County,America/New_York,40.84,-73.87
14224,Buffalo,NY,Erie County,America/New_York,42.88,-78.85
94939,Larkspur,CA,Marin County,America/Los_Angeles,37.93,-122.53
20164,Sterling,VA,Loudoun County,America/New_York,39,-77.4
55435,Minneapolis,MN,Hennepin County,America/Chicago,44.96,-93.26
22192,Woodbridge,VA,Prince William County,America/New_York,38.63,-77.26
31088,Warner Robins,GA,Houston County,America/New_York,32.61,-83.63
10550,Mount Vernon,NY,Westchester County,America/New_York,40.91,-73.82
18954,Richboro,PA,Bucks County,America/New_York,40.22,-75
91401,Van Nuys,CA,Los Angeles County,America/Los_Angeles,34.17,-118.43
19014,Aston,PA,Delaware County,America/New_York,39.86,-75.43
90042,Los Angeles,CA,Los Angeles County,America/Los_Angeles,34.11,-118.19
14608,Rochester,NY,Monroe County,America/New_York,43.16,-77.61
11968,Southampton,NY,Suffolk County,America/New_York,40.88,-72.39
44041,Geneva,OH,Ashtabula County,America/New_York,41.79,-80.94
83353,Sun Valley,ID,Blaine County,America/Boise,43.69,-114.34
85296,Gilbert,AZ,Maricopa County,America/Phoenix,33.3,-111.76
98502,Olympia,WA,Thurston County,America/Los_Angeles,47.1,-123.06
30361,Atlanta,GA,Fulton County,America/New_York,33.78,-84.38
83687,Nampa,ID,Canyon County,America/Boise,43.6,-116.54
91362,Thousand Oaks,CA,Ventura County,America/Los_Angeles,34.19,-118.81
85501,Globe,AZ,Gila County,America/Phoenix,33.62,-110.7
33565,Plant City,FL,Hillsborough County,America/New_York,28,-82.12
89052,Henderson,NV,Clark County,America/Los_Angeles,35.98,-115.11
66801,Emporia,KS,Lyon County,America/Chicago,38.41,-96.19
89701,Carson City,NV,Carson City,America/Los_Angeles,39.14,-119.71
74023,Cushing,OK,Payne County,America/Chicago,35.97,-96.76
75801,Palestine,TX,Anderson County,America/Chicago,31.75,-95.64
77484,Waller,TX,Harris County,,30.05,-95.92
77305,Conroe,TX,Montgomery County,America/Chicago,30.32,-95.47
14604,Rochester,NY,Monroe County,America/New_York,43.16,-77.61
96921,Barrigada,GU,,,13.46,144.79
76048,Granbury,TX,Hood County,America/Chicago,32.44,-97.78
45245,Cincinnati,OH,Clermont County,America/New_York,39.09,-84.51
91789,Walnut,CA,Los Angeles County,America/Los_Angeles,34.01,-117.85
53703,Madison,WI,Dane County,America/Chicago,43.07,-89.38
78752,Austin,TX,Travis County,America/Chicago,30.26,-97.74
92506,Riverside,CA,Riverside County,America/Los_Angeles,33.92,-117.36
11706,Bay Shore,NY,Suffolk County,America/New_York,40.72,-73.25
33394,Fort Lauderdale,FL,Broward County,America/New_York,26.14,-80.13
11209,Brooklyn,NY,Kings County,America/New_York,40.64,-73.94
60174,Saint Charles,IL,Kane County,America/Chicago,41.92,-88.3
77904,Victoria,TX,Victoria County,America/Chicago,28.82,-96.98
15213,Pittsburgh,PA,Allegheny County,America/New_York,40.43,-79.97
77707,Beaumont,TX,Jefferson County,America/Chicago,30.08,-94.14
10169,New York,NY,New York County,America/New_York,40.71,-73.99
30736,Ringgold,GA,Catoosa County,America/New_York,34.91,-85.1
90014,Los Angeles,CA,Los Angeles County,America/Los_Angeles,34.04,-118.25
89130,Las Vegas,NV,Clark County,America/Los_Angeles,36.24,-115.23
27617,Raleigh,NC,Wake County,America/New_York,35.88,-78.75
68137,Omaha,NE,Douglas County,America/Chicago,41.26,-96.01
76164,Fort Worth,TX,Tarrant County,America/Chicago,32.75,-97.33
22406,Fredericksburg,VA,Stafford County,America/New_York,38.29,-77.48
97006,Beaverton,OR,Washington County,America/Los_Angeles,45.52,-122.85
67206,Wichita,KS,Sedgwick County,America/Chicago,37.68,-97.34
33440,Clewiston,FL,Hendry County,,26.75,-80.93
91042,Tujunga,CA,Los Angeles County,America/Los_Angeles,34.29,-118.25
76021,Bedford,TX,Tarrant County,America/Chicago,32.84,-97.13
78258,San Antonio,TX,Bexar County,America/Chicago,29.45,-98.5
78223,San Antonio,TX,Bexar County,America/Chicago,29.45,-98.5
77833,Brenham,TX,Washington County,America/Chicago,30.15,-96.39
76802,Early,TX,Brown County,America/Chicago,31.74,-98.94
99574,Cordova,AK,Valdez-Cordova Census Area,,60.79,-145.61
78626,Georgetown,TX,Williamson County,America/Chicago,30.64,-97.68
46410,Merrillville,IN,Lake County,America/Indiana/Indianapolis,41.47,-87.32
32926,Cocoa,FL,Brevard County,America/New_York,28.37,-80.75
21904,Port Deposit,MD,Cecil County,America/New_York,39.6,-76.11
32502,Pensacola,FL,Escambia County,America/Chicago,30.44,-87.18
13202,Syracuse,NY,Onondaga County,America/New_York,43.04,-76.14
39206,Jackson,MS,Hinds County,America/Chicago,32.32,-90.2
57104,Sioux Falls,SD,Minnehaha County,America/Chicago,43.54,-96.73
78738,Austin,TX,Travis County,America/Chicago,30.26,-97.74
21211,Baltimore,MD,Baltimore City,America/New_York,39.3,-76.61
82801,Sheridan,WY,Sheridan County,America/Denver,44.79,-106.95
55033,Hastings,MN,Dakota County,America/Chicago,44.73,-92.85
22554,Stafford,VA,Stafford County,America/New_York,38.42,-77.4
19111,Philadelphia,PA,Philadelphia County,America/New_York,40.06,-75.07
80439,Evergreen,CO,Jefferson County,America/Denver,39.63,-105.34
24014,Roanoke,VA,Roanoke City,America/New_York,37.27,-79.95
18947,Pipersville,PA,Bucks County,America/New_York,40.43,-75.1
18370,Swiftwater,PA,Monroe County,America/New_York,41.08,-75.36
16046,Mars,PA,Butler County,America/New_York,40.69,-80.01
35244,Birmingham,AL,Jefferson County,America/Chicago,33.52,-86.79
92118,Coronado,CA,San Diego County,America/Los_Angeles,32.65,-117.14
33301,Fort Lauderdale,FL,Broward County,America/New_York,26.14,-80.13
37166,Smithville,TN,De Kalb County,,35.95,-85.82
30019,Dacula,GA,Gwinnett County,America/New_York,33.98,-83.88
80487,Steamboat Springs,CO,Routt County,America/Denver,40.47,-106.82
11530,Garden City,NY,Nassau County,America/New_York,40.72,-73.64
44333,Akron,OH,Summit County,America/New_York,41.08,-81.52
49024,Portage,MI,Kalamazoo County,America/Detroit,42.2,-85.59
27101,Winston Salem,NC,Forsyth County,America/New_York,36.1,-80.24
98007,Bellevue,WA,King County,America/Los_Angeles,47.62,-122.14
12580,Staatsburg,NY,Dutchess County,America/New_York,41.84,-73.92
94568,Dublin,CA,Alameda County,America/Los_Angeles,37.71,-121.91
11378,Maspeth,NY,Queens County,America/New_York,40.72,-73.9
55126,Saint Paul,MN,Ramsey County,America/Chicago,44.94,-93.1
13217,Syracuse,NY,Onondaga County,America/New_York,43.04,-76.14
33321,Fort Lauderdale,FL,Broward County,America/New_York,26.14,-80.13
60626,Chicago,IL,Cook County,America/Chicago,41.83,-87.68
60004,Arlington Heights,IL,Cook County,America/Chicago,42.09,-87.98
33168,Miami,FL,Miami-Dade County,America/New_York,25.77,-80.2
98408,Tacoma,WA,Pierce County,America/Los_Angeles,47.19,-122.44
33710,Saint Petersburg,FL,Pinellas County,America/New_York,27.75,-82.64
77053,Houston,TX,Harris County,America/Chicago,29.76,-95.38
77044,Houston,TX,Harris County,America/Chicago,29.76,-95.38
11580,Valley Stream,NY,Nassau County,America/New_York,40.66,-73.7
12553,New Windsor,NY,Orange County,America/New_York,41.47,-74.02
12207,Albany,NY,Albany County,America/New_York,42.66,-73.79
90020,Los Angeles,CA,Los Angeles County,America/Los_Angeles,34.06,-118.31
85043,Phoenix,AZ,Maricopa County,America/Phoenix,33.42,-112.2
85378,Surprise,AZ,Maricopa County,America/Phoenix,33.63,-112.34
93908,Salinas,CA,Monterey County,America/Los_Angeles,36.61,-121.62
36527,Spanish Fort,AL,Baldwin County,America/Chicago,30.67,-87.88
14622,Rochester,NY,Monroe County,America/New_York,43.16,-77.61
57108,Sioux Falls,SD,Lincoln County,America/Chicago,43.54,-96.73
29611,Greenville,SC,Greenville County,America/New_York,34.83,-82.37
94085,Sunnyvale,CA,Santa Clara County,America/Los_Angeles,37.38,-122.01
80224,Denver,CO,Denver County,America/Denver,39.76,-104.87
21046,Columbia,MD,Howard County,America/New_York,39.2,-76.85
84078,Vernal,UT,Uintah County,America/Denver,40.55,-109.57
64836,Carthage,MO,Jasper County,America/Chicago,37.16,-94.31
75707,Tyler,TX,Smith County,America/Chicago,32.32,-95.3
15086,Warrendale,PA,Allegheny County,America/New_York,40.64,-80.09
45302,Anna,OH,Shelby County,America/New_York,40.39,-84.17
92649,Huntington Beach,CA,Orange County,America/Los_Angeles,33.71,-118.04
10170,New York,NY,New York County,America/New_York,40.71,-73.99
91011,La Canada Flintridge,CA,Los Angeles County,America/Los_Angeles,34.23,-118.14
33637,Tampa,FL,Hillsborough County,America/New_York,27.95,-82.48
14450,Fairport,NY,Monroe County,America/New_York,43.1,-77.44
74647,Newkirk,OK,Kay County,America/Chicago,36.88,-97.05
74651,Red Rock,OK,Noble County,America/Chicago,36.45,-97.17
60047,Lake Zurich,IL,Lake County,America/Chicago,42.19,-88.08
29708,Fort Mill,SC,York County,America/New_York,35,-80.94
89801,Elko,NV,Elko County,America/Los_Angeles,40.95,-115.79
83854,Post Falls,ID,Kootenai County,America/Los_Angeles,47.78,-117.02
68127,Omaha,NE,Douglas County,America/Chicago,41.26,-96.01
11042,New Hyde Park,NY,Nassau County,America/New_York,40.73,-73.68
95351,Modesto,CA,Stanislaus County,America/Los_Angeles,37.63,-121.01
27262,High Point,NC,Guilford County,America/New_York,35.98,-79.99
11702,Babylon,NY,Suffolk County,America/New_York,40.69,-73.32
19003,Ardmore,PA,Delaware County,America/New_York,40,-75.29
95148,San Jose,CA,Santa Clara County,America/Los_Angeles,37.33,-121.77
34471,Ocala,FL,Marion County,America/New_York,29.18,-82.13
94115,San Francisco,CA,San Francisco County,America/Los_Angeles,37.78,-122.43
44811,Bellevue,OH,Huron County,America/New_York,41.27,-82.84
60194,Schaumburg,IL,Cook County,America/Chicago,42.03,-88.08
77356,Montgomery,TX,Montgomery County,America/Chicago,30.39,-95.69
55116,Saint Paul,MN,Ramsey County,America/Chicago,44.94,-93.1
53108,Caledonia,WI,Racine County,America/Chicago,42.82,-87.93
94005,Brisbane,CA,San Mateo County,America/Los_Angeles,37.68,-122.41
32724,Deland,FL,Volusia County,America/New_York,29.05,-81.31
98402,Tacoma,WA,Pierce County,America/Los_Angeles,47.26,-122.44
78154,Schertz,TX,Guadalupe County,,29.55,-98.26
95120,San Jose,CA,Santa Clara County,America/Los_Angeles,37.19,-121.83
19460,Phoenixville,PA,Chester County,America/New_York,40.13,-75.51
76104,Fort Worth,TX,Tarrant County,America/Chicago,32.75,-97.33
95409,Santa Rosa,CA,Sonoma County,America/Los_Angeles,38.45,-122.59
20165,Sterling,VA,Loudoun County,America/New_York,39,-77.4
11967,Shirley,NY,Suffolk County,America/New_York,40.79,-72.87
30120,Cartersville,GA,Bartow County,America/New_York,34.16,-84.8
68164,Omaha,NE,Douglas County,America/Chicago,41.26,-96.01
75061,Irving,TX,Dallas County,America/Chicago,32.85,-96.96
55418,Minneapolis,MN,Hennepin County,America/Chicago,44.96,-93.26
80223,Denver,CO,Denver County,America/Denver,39.76,-104.87
90012,Los Angeles,CA,Los Angeles County,America/Los_Angeles,34.06,-118.24
21090,Linthicum Heights,MD,Anne Arundel County,America/New_York,39.2,-76.66
11228,Brooklyn,NY,Kings County,America/New_York,40.64,-73.94
89146,Las Vegas,NV,Clark County,America/Los_Angeles,36.14,-115.22
63110,Saint Louis,MO,St Louis City,America/Chicago,38.63,-90.24
30165,Rome,GA,Floyd County,America/New_York,34.26,-85.18
16001,Butler,PA,Butler County,America/New_York,40.86,-79.89
98117,Seattle,WA,King County,America/Los_Angeles,47.68,-122.38
97213,Portland,OR,Multnomah County,America/Los_Angeles,45.53,-122.6
82604,Casper,WY,Natrona County,America/Denver,42.83,-106.32
98148,Seattle,WA,King County,America/Los_Angeles,47.44,-122.31
92109,San Diego,CA,San Diego County,America/Los_Angeles,32.79,-117.23
60619,Chicago,IL,Cook County,America/Chicago,41.83,-87.68
66044,Lawrence,KS,Douglas County,America/Chicago,38.96,-95.25
19138,Philadelphia,PA,Philadelphia County,America/New_York,39.95,-75.16
11566,Merrick,NY,Nassau County,America/New_York,40.65,-73.55
77469,Richmond,TX,Fort Bend County,America/Chicago,29.58,-95.76
50021,Ankeny,IA,Polk County,America/Chicago,41.72,-93.6
21220,Middle River,MD,Baltimore County,America/New_York,39.33,-76.43
70116,New Orleans,LA,Orleans Parish,America/Chicago,30.06,-89.93
75067,Lewisville,TX,Denton County,America/Chicago,33.04,-96.98
60073,Round Lake,IL,Lake County,America/Chicago,42.34,-88.11
19008,Broomall,PA,Delaware County,America/New_York,39.96,-75.35
78224,San Antonio,TX,Bexar County,America/Chicago,29.45,-98.5
47201,Columbus,IN,Bartholomew County,America/Indiana/Indianapolis,39.21,-85.91
23480,Wachapreague,VA,Accomack County,America/New_York,37.6,-75.68
63801,Sikeston,MO,Scott County,America/Chicago,36.88,-89.58
30062,Marietta,GA,Cobb County,America/New_York,33.95,-84.54
79758,Gardendale,TX,Ector County,America/Chicago,32.02,-102.36
95822,Sacramento,CA,Sacramento County,America/Los_Angeles,38.51,-121.49
80741,Merino,CO,Logan County,America/Denver,40.48,-103.35
14564,Victor,NY,Ontario County,America/New_York,42.98,-77.41
44077,Painesville,OH,Lake County,America/New_York,41.72,-81.24
34785,Wildwood,FL,Sumter County,America/New_York,28.85,-82.04
10801,New Rochelle,NY,Westchester County,America/New_York,40.92,-73.77
23601,Newport News,VA,Newport News City,America/New_York,37.07,-76.51
48331,Farmington,MI,Oakland County,America/Detroit,42.46,-83.37
30349,Atlanta,GA,Fulton County,America/New_York,33.61,-84.49
23452,Virginia Beach,VA,Virginia Beach City,America/New_York,36.73,-76.04
19146,Philadelphia,PA,Philadelphia County,America/New_York,39.95,-75.16
65616,Branson,MO,Taney County,America/Chicago,36.64,-93.24
78520,Brownsville,TX,Cameron County,America/Chicago,25.92,-97.48
49506,Grand Rapids,MI,Kent County,America/Detroit,42.96,-85.65
93611,Clovis,CA,Fresno County,America/Los_Angeles,36.93,-119.56
30310,Atlanta,GA,Fulton County,America/New_York,33.72,-84.42
60089,Buffalo Grove,IL,Lake County,America/Chicago,42.16,-87.96
75209,Dallas,TX,Dallas County,America/Chicago,32.79,-96.76
90710,Harbor City,CA,Los Angeles County,America/Los_Angeles,33.79,-118.29
38122,Memphis,TN,Shelby County,America/Chicago,35.1,-90
89115,Las Vegas,NV,Clark County,America/Los_Angeles,36.23,-115.05
91307,West Hills,CA,Los Angeles County,America/Los_Angeles,34.2,-118.69
75159,Seagoville,TX,Dallas County,,32.65,-96.54
11550,Hempstead,NY,Nassau County,America/New_York,40.7,-73.61
75154,Red Oak,TX,Ellis County,America/Chicago,32.51,-96.8
14201,Buffalo,NY,Erie County,America/New_York,42.88,-78.85
13035,Cazenovia,NY,Madison County,America/New_York,42.92,-75.85
94559,Napa,CA,Napa County,America/Los_Angeles,38.23,-122.29
81611,Aspen,CO,Pitkin County,America/Denver,39.19,-106.82
11367,Flushing,NY,Queens County,America/New_York,40.77,-73.84
77015,Houston,TX,Harris County,America/Chicago,29.76,-95.38
79424,Lubbock,TX,Lubbock County,America/Chicago,33.57,-101.87
79070,Perryton,TX,Ochiltree County,America/Chicago,36.39,-100.8
30268,Palmetto,GA,Fulton County,America/New_York,33.52,-84.66
94040,Mountain View,CA,Santa Clara County,America/Los_Angeles,37.38,-122.08
30338,Atlanta,GA,Dekalb County,America/New_York,33.94,-84.31
60013,Cary,IL,McHenry County,America/Chicago,42.2,-88.24
52404,Cedar Rapids,IA,Linn County,America/Chicago,41.97,-91.66
14081,Irving,NY,Erie County,America/New_York,42.56,-79.04
83404,Idaho Falls,ID,Bonneville County,America/Boise,43.42,-112
92886,Yorba Linda,CA,Orange County,America/Los_Angeles,33.89,-117.78
80603,Brighton,CO,Adams County,America/Denver,39.97,-104.74
95207,Stockton,CA,San Joaquin County,America/Los_Angeles,38,-121.32
19713,Newark,DE,New Castle County,America/New_York,39.67,-75.75
48025,Franklin,MI,Oakland County,America/Detroit,42.51,-83.3
48091,Warren,MI,Macomb County,America/Detroit,42.49,-83.02
91748,Rowland Heights,CA,Los Angeles County,America/Los_Angeles,33.97,-117.9
32901,Melbourne,FL,Brevard County,America/New_York,28.08,-80.6
45011,Hamilton,OH,Butler County,America/New_York,39.39,-84.56
30236,Jonesboro,GA,Clayton County,America/New_York,33.52,-84.35
22801,Harrisonburg,VA,Harrisonburg City,America/New_York,38.43,-78.87
11415,Kew Gardens,NY,Queens County,America/New_York,40.7,-73.82
19732,Rockland,DE,New Castle County,America/New_York,39.8,-75.61
46725,Columbia City,IN,Whitley County,,41.15,-85.48
62025,Edwardsville,IL,Madison County,America/Chicago,38.8,-89.96
14534,Pittsford,NY,Monroe County,America/New_York,43.09,-77.51
63101,Saint Louis,MO,St Louis City,America/Chicago,38.63,-90.24
62269,O Fallon,IL,St Clair County,America/Chicago,38.59,-89.91
66211,Leawood,KS,Johnson County,America/Chicago,38.9,-94.68
63105,Saint Louis,MO,St Louis County,America/Chicago,38.63,-90.24
60098,Woodstock,IL,McHenry County,America/Chicago,42.31,-88.43
63304,Saint Charles,MO,St Charles County,America/Chicago,38.79,-90.51
93013,Carpinteria,CA,Santa Barbara County,America/Los_Angeles,34.43,-119.52
93036,Oxnard,CA,Ventura County,America/Los_Angeles,34.25,-119.16
96720,Hilo,HI,Hawaii County,Pacific/Honolulu,19.69,-155.08
97225,Portland,OR,Washington County,America/Los_Angeles,45.49,-122.77
96816,Honolulu,HI,Honolulu County,Pacific/Honolulu,21.3,-157.85
89123,Las Vegas,NV,Clark County,America/Los_Angeles,36,-115.14
53214,Milwaukee,WI,Milwaukee County,America/Chicago,43.06,-87.96
32409,Panama City,FL,Bay County,America/Chicago,30.17,-85.67
97035,Lake Oswego,OR,Clackamas County,America/Los_Angeles,45.41,-122.72
11024,Great Neck,NY,Nassau County,America/New_York,40.8,-73.73
11733,East Setauket,NY,Suffolk County,America/New_York,40.93,-73.1
19425,Chester Springs,PA,Chester County,America/New_York,40.1,-75.64
11373,Elmhurst,NY,Queens County,America/New_York,40.72,-73.87
12304,Schenectady,NY,Schenectady County,America/New_York,42.8,-73.92
29902,Beaufort,SC,Beaufort County,America/New_York,32.42,-80.68
33328,Fort Lauderdale,FL,Broward County,America/New_York,26.14,-80.13
46225,Indianapolis,IN,Marion County,America/Indiana/Indianapolis,39.77,-86.14
40241,Louisville,KY,Jefferson County,America/Kentucky/Louisville,38.22,-85.74
78006,Boerne,TX,Kendall County,America/Chicago,29.8,-98.73
94117,San Francisco,CA,San Francisco County,America/Los_Angeles,37.76,-122.44
85381,Peoria,AZ,Maricopa County,America/Phoenix,33.61,-112.23
49423,Holland,MI,Allegan County,America/Detroit,42.77,-86.1
63144,Saint Louis,MO,St Louis County,America/Chicago,38.63,-90.24
10576,Pound Ridge,NY,Westchester County,America/New_York,41.21,-73.57
75771,Lindale,TX,Smith County,America/Chicago,32.5,-95.4
73106,Oklahoma City,OK,Oklahoma County,America/Chicago,35.46,-97.51
11207,Brooklyn,NY,Kings County,America/New_York,40.64,-73.94
85382,Peoria,AZ,Maricopa County,America/Phoenix,33.65,-112.24
33012,Hialeah,FL,Miami-Dade County,America/New_York,25.86,-80.29
60617,Chicago,IL,Cook County,America/Chicago,41.83,-87.68
78222,San Antonio,TX,Bexar County,America/Chicago,29.45,-98.5
94027,Atherton,CA,San Mateo County,America/Los_Angeles,37.44,-122.2
94945,Novato,CA,Marin County,America/Los_Angeles,38.13,-122.56
60605,Chicago,IL,Cook County,America/Chicago,41.83,-87.68
95008,Campbell,CA,Santa Clara County,America/Los_Angeles,37.28,-121.95
91803,Alhambra,CA,Los Angeles County,America/Los_Angeles,34.07,-118.14
96814,Honolulu,HI,Honolulu County,Pacific/Honolulu,21.3,-157.85
92591,Temecula,CA,Riverside County,America/Los_Angeles,33.53,-117.1
12801,Glens Falls,NY,Warren County,America/New_York,43.31,-73.64
18702,Wilkes Barre,PA,Luzerne County,America/New_York,41.24,-75.87
30350,Atlanta,GA,Fulton County,America/New_York,33.97,-84.32
86314,Prescott Valley,AZ,Yavapai County,America/Phoenix,34.66,-112.29
27519,Cary,NC,Wake County,America/New_York,35.78,-78.79
80503,Longmont,CO,Boulder County,America/Denver,40.17,-105.11
80305,Boulder,CO,Boulder County,America/Denver,40.02,-105.25
91107,Pasadena,CA,Los Angeles County,America/Los_Angeles,34.16,-118.08
12871,Schuylerville,NY,Saratoga County,America/New_York,43.1,-73.58
92028,Fallbrook,CA,San Diego County,America/Los_Angeles,33.39,-117.29
78071,Three Rivers,TX,Live Oak County,America/Chicago,28.46,-98.17
18950,Point Pleasant,PA,Bucks County,America/New_York,40.42,-75.11
32746,Lake Mary,FL,Seminole County,America/New_York,28.75,-81.33
75240,Dallas,TX,Dallas County,America/Chicago,32.79,-96.76
38053,Millington,TN,Shelby County,America/Chicago,35.33,-89.88
21811,Berlin,MD,Worcester County,America/New_York,38.32,-75.21
75452,Leonard,TX,Fannin County,,33.38,-96.24
